{"type":"FeatureCollection","features":[{"type":"Feature","geometry":{"type":"Point","coordinates":[-73.91525624,40.81580436]},"properties":{"address":"569 BROOK AVENUE","borough":"Bronx","bbl":"2022940055","zipcode":"10455","agency":"Department of Citywide Administrative Services","agencyshort":"DCAS","sqft":"0","acres":"0","vacant":"TRUE"}},{"type":"Feature","geometry":{"type":"Point","coordinates":[-74.12555717,40.6211945]},"properties":{"address":"","borough":"Staten Island","bbl":"5003648900","zipcode":"0","agency":"Department of Citywide Administrative Services","agencyshort":"DCAS","sqft":"0","acres":"0","vacant":"TRUE"}},{"type":"Feature","geometry":{"type":"Point","coordinates":[-74.12420404,40.6401011]},"properties":{"address":"RICHMOND TERRACE","borough":"Staten Island","bbl":"5001850390","zipcode":"0","agency":"Department of Environmental Protection","agencyshort":"DEP","sqft":"0","acres":"0","vacant":"TRUE"}},{"type":"Feature","geometry":{"type":"Point","coordinates":[-74.14247579,40.63673871]},"properties":{"address":"JOHN STREET","borough":"Staten Island","bbl":"5011210077","zipcode":"10302","agency":"Department of Small Business Services","agencyshort":"SBS","sqft":"0","acres":"0","vacant":"TRUE"}},{"type":"Feature","geometry":{"type":"Point","coordinates":[-74.14052722,40.6375955]},"properties":{"address":"NICHOLAS AVENUE","borough":"Staten Island","bbl":"5011160112","zipcode":"10302","agency":"Department of Small Business Services","agencyshort":"SBS","sqft":"0","acres":"0","vacant":"TRUE"}},{"type":"Feature","geometry":{"type":"Point","coordinates":[-74.14156532,40.63694839]},"properties":{"address":"IRVING PLACE","borough":"Staten Island","bbl":"5011180038","zipcode":"0","agency":"Department of Small Business Services","agencyshort":"SBS","sqft":"0","acres":"0","vacant":"TRUE"}},{"type":"Feature","geometry":{"type":"Point","coordinates":[-74.14057826,40.63767631]},"properties":{"address":"NICHOLAS AVENUE","borough":"Staten Island","bbl":"5011160110","zipcode":"10302","agency":"Department of Small Business Services","agencyshort":"SBS","sqft":"0","acres":"0","vacant":"TRUE"}},{"type":"Feature","geometry":{"type":"Point","coordinates":[-74.1373867,40.63865545]},"properties":{"address":"TREADWELL AVENUE","borough":"Staten Island","bbl":"5010840042","zipcode":"10302","agency":"Department of Small Business Services","agencyshort":"SBS","sqft":"0","acres":"0","vacant":"TRUE"}},{"type":"Feature","geometry":{"type":"Point","coordinates":[-74.13346032,40.63892487]},"properties":{"address":"MAPLE AVENUE","borough":"Staten Island","bbl":"5010730020","zipcode":"10302","agency":"Department of Small Business Services","agencyshort":"SBS","sqft":"0","acres":"0","vacant":"TRUE"}},{"type":"Feature","geometry":{"type":"Point","coordinates":[-74.13025931,40.63909219]},"properties":{"address":"PARK AVENUE","borough":"Staten Island","bbl":"5010060028","zipcode":"10302","agency":"Department of Small Business Services","agencyshort":"SBS","sqft":"0","acres":"0","vacant":"TRUE"}},{"type":"Feature","geometry":{"type":"Point","coordinates":[-73.85430031,40.67207592]},"properties":{"address":"        SUNRISE HIGHWAY","borough":"Queens","bbl":"4113610062","zipcode":"11414","agency":"Department of Transportation","agencyshort":"DOT","sqft":"0","acres":"0","vacant":"TRUE"}},{"type":"Feature","geometry":{"type":"Point","coordinates":[-73.8587033,40.6738672]},"properties":{"address":"        NORTH CONDUIT AVENUE","borough":"Queens","bbl":"4113390025","zipcode":"0","agency":"Department of Transportation","agencyshort":"DOT","sqft":"0","acres":"0","vacant":"TRUE"}},{"type":"Feature","geometry":{"type":"Point","coordinates":[-73.85906239,40.67358102]},"properties":{"address":"        SOUTH CONDUIT AVENUE","borough":"Queens","bbl":"4113390016","zipcode":"0","agency":"Department of Transportation","agencyshort":"DOT","sqft":"0","acres":"0","vacant":"TRUE"}},{"type":"Feature","geometry":{"type":"Point","coordinates":[-73.85115872,40.6716633]},"properties":{"address":"        NORTH CONDUIT BLVD","borough":"Queens","bbl":"4113950001","zipcode":"0","agency":"Department of Transportation","agencyshort":"DOT","sqft":"0","acres":"0","vacant":"TRUE"}},{"type":"Feature","geometry":{"type":"Point","coordinates":[-73.8488536,40.67088263]},"properties":{"address":"        NORTH CONDUIT AVENUE","borough":"Queens","bbl":"4113940030","zipcode":"0","agency":"Department of Transportation","agencyshort":"DOT","sqft":"0","acres":"0","vacant":"TRUE"}},{"type":"Feature","geometry":{"type":"Point","coordinates":[-73.8492312,40.67050021]},"properties":{"address":"        SOUTH CONDUIT AVENUE","borough":"Queens","bbl":"4113940080","zipcode":"0","agency":"Department of Transportation","agencyshort":"DOT","sqft":"0","acres":"0","vacant":"TRUE"}},{"type":"Feature","geometry":{"type":"Point","coordinates":[-73.84569165,40.66952943]},"properties":{"address":"        SOUTH CONDUIT AVENUE","borough":"Queens","bbl":"4114230001","zipcode":"0","agency":"Department of Transportation","agencyshort":"DOT","sqft":"0","acres":"0","vacant":"TRUE"}},{"type":"Feature","geometry":{"type":"Point","coordinates":[-73.84511713,40.66977458]},"properties":{"address":"        NORTH CONDUIT AVENUE","borough":"Queens","bbl":"4114230010","zipcode":"0","agency":"Department of Transportation","agencyshort":"DOT","sqft":"0","acres":"0","vacant":"TRUE"}},{"type":"Feature","geometry":{"type":"Point","coordinates":[-73.94186915,40.73619313]},"properties":{"address":"        GREENPOINT AVENUE","borough":"Queens","bbl":"4002940001","zipcode":"11101","agency":"New York City Transit (MTA)","agencyshort":"MTA","sqft":"0","acres":"0","vacant":"TRUE"}},{"type":"Feature","geometry":{"type":"Point","coordinates":[-73.94450749,40.73897313]},"properties":{"address":"25-40 BORDEN AVENUE","borough":"Queens","bbl":"4000680074","zipcode":"11101","agency":"New York City Transit (MTA)","agencyshort":"MTA","sqft":"0","acres":"0","vacant":"TRUE"}},{"type":"Feature","geometry":{"type":"Point","coordinates":[-73.85743446,40.70766787]},"properties":{"address":" ","borough":"Queens","bbl":"4038860450","zipcode":"0","agency":"New York City Transit (MTA)","agencyshort":"MTA","sqft":"0","acres":"0","vacant":"TRUE"}},{"type":"Feature","geometry":{"type":"Point","coordinates":[-73.92729881,40.70875112]},"properties":{"address":"VARICK AVENUE","borough":"Brooklyn","bbl":"3029870003","zipcode":"11237","agency":"New York City Transit (MTA)","agencyshort":"MTA","sqft":"0","acres":"0","vacant":"TRUE"}},{"type":"Feature","geometry":{"type":"Point","coordinates":[-73.92064238,40.66091914]},"properties":{"address":"        CLARKSON AVENUE","borough":"Brooklyn","bbl":"3046320043","zipcode":"11212","agency":"Department of Citywide Administrative Services","agencyshort":"DCAS","sqft":"6","acres":"0.000138","vacant":"TRUE"}},{"type":"Feature","geometry":{"type":"Point","coordinates":[-73.91252499,40.67236378]},"properties":{"address":"        EASTERN PARKWAY","borough":"Brooklyn","bbl":"3014600062","zipcode":"11233","agency":"Department of Citywide Administrative Services","agencyshort":"DCAS","sqft":"15","acres":"0.000344","vacant":"TRUE"}},{"type":"Feature","geometry":{"type":"Point","coordinates":[-73.91617893,40.6540265]},"properties":{"address":"        EAST 94 STREET","borough":"Brooklyn","bbl":"3047150026","zipcode":"11236","agency":"Department of Citywide Administrative Services","agencyshort":"DCAS","sqft":"25","acres":"0.000574","vacant":"TRUE"}},{"type":"Feature","geometry":{"type":"Point","coordinates":[-73.79347189,40.59135738]},"properties":{"address":"64 BEACH 64 STREET","borough":"Queens","bbl":"4159090070","zipcode":"11692","agency":"Housing Preservation and Development","agencyshort":"HPD","sqft":"32","acres":"0.000735","vacant":"TRUE"}},{"type":"Feature","geometry":{"type":"Point","coordinates":[-73.94708556,40.68114048]},"properties":{"address":"        MACON STREET","borough":"Brooklyn","bbl":"3018500017","zipcode":"11216","agency":"Department of Citywide Administrative Services","agencyshort":"DCAS","sqft":"50","acres":"0.001148","vacant":"TRUE"}},{"type":"Feature","geometry":{"type":"Point","coordinates":[-73.91481249,40.65444545]},"properties":{"address":"        LINDEN BOULEVARD","borough":"Brooklyn","bbl":"3047160022","zipcode":"11212","agency":"Department of Citywide Administrative Services","agencyshort":"DCAS","sqft":"50","acres":"0.001148","vacant":"TRUE"}},{"type":"Feature","geometry":{"type":"Point","coordinates":[-73.96734976,40.60539264]},"properties":{"address":"        OCEAN PARKWAY","borough":"Brooklyn","bbl":"3066810398","zipcode":"11223","agency":"Department of Citywide Administrative Services","agencyshort":"DCAS","sqft":"51","acres":"0.001171","vacant":"TRUE"}},{"type":"Feature","geometry":{"type":"Point","coordinates":[-73.91035091,40.6264024]},"properties":{"address":"        BERGEN COURT","borough":"Brooklyn","bbl":"3083620038","zipcode":"11234","agency":"Department of Citywide Administrative Services","agencyshort":"DCAS","sqft":"65","acres":"0.001492","vacant":"TRUE"}},{"type":"Feature","geometry":{"type":"Point","coordinates":[-73.91157244,40.67681562]},"properties":{"address":"        GUNTHER PLACE","borough":"Brooklyn","bbl":"3015670007","zipcode":"11233","agency":"Department of Citywide Administrative Services","agencyshort":"DCAS","sqft":"80","acres":"0.001837","vacant":"TRUE"}},{"type":"Feature","geometry":{"type":"Point","coordinates":[-73.8593195,40.87902811]},"properties":{"address":"EAST 215 ST","borough":"Bronx","bbl":"2046730090","zipcode":"","agency":"Department of Citywide Administrative Services","agencyshort":"DCAS","sqft":"86","acres":"0.001974","vacant":"TRUE"}},{"type":"Feature","geometry":{"type":"Point","coordinates":[-73.9169323,40.65403979]},"properties":{"address":"        LINDEN BOULEVARD","borough":"Brooklyn","bbl":"3047140048","zipcode":"0","agency":"Department of Citywide Administrative Services","agencyshort":"DCAS","sqft":"100","acres":"0.002296","vacant":"TRUE"}},{"type":"Feature","geometry":{"type":"Point","coordinates":[-73.87256848,40.66661245]},"properties":{"address":"        LOGAN STREET","borough":"Brooklyn","bbl":"3044810041","zipcode":"11208","agency":"Department of Citywide Administrative Services","agencyshort":"DCAS","sqft":"100","acres":"0.002296","vacant":"TRUE"}},{"type":"Feature","geometry":{"type":"Point","coordinates":[-73.91018968,40.67495107]},"properties":{"address":"        DEAN STREET","borough":"Brooklyn","bbl":"3014420158","zipcode":"11233","agency":"Department of Citywide Administrative Services","agencyshort":"DCAS","sqft":"107","acres":"0.002456","vacant":"TRUE"}},{"type":"Feature","geometry":{"type":"Point","coordinates":[-73.98735727,40.57889569]},"properties":{"address":"        WEST 22 STREET","borough":"Brooklyn","bbl":"3069920250","zipcode":"11224","agency":"Department of Citywide Administrative Services","agencyshort":"DCAS","sqft":"113","acres":"0.002594","vacant":"TRUE"}},{"type":"Feature","geometry":{"type":"Point","coordinates":[-73.98343093,40.58806283]},"properties":{"address":"        STILLWELL AVENUE","borough":"Brooklyn","bbl":"3071850063","zipcode":"11223","agency":"Department of Citywide Administrative Services","agencyshort":"DCAS","sqft":"118","acres":"0.002709","vacant":"TRUE"}},{"type":"Feature","geometry":{"type":"Point","coordinates":[-73.92497819,40.6681161]},"properties":{"address":"        EASTERN PARKWAY","borough":"Brooklyn","bbl":"3013990013","zipcode":"0","agency":"Department of Citywide Administrative Services","agencyshort":"DCAS","sqft":"123","acres":"0.002824","vacant":"TRUE"}},{"type":"Feature","geometry":{"type":"Point","coordinates":[-73.97107006,40.59440541]},"properties":{"address":"        WEST STREET","borough":"Brooklyn","bbl":"3071510064","zipcode":"11223","agency":"Department of Citywide Administrative Services","agencyshort":"DCAS","sqft":"125","acres":"0.00287","vacant":"TRUE"}},{"type":"Feature","geometry":{"type":"Point","coordinates":[-73.90381942,40.83083986]},"properties":{"address":"FULTON AVE","borough":"Bronx","bbl":"2026120072","zipcode":"10456","agency":"Department of Citywide Administrative Services","agencyshort":"DCAS","sqft":"158","acres":"0.003627","vacant":"TRUE"}},{"type":"Feature","geometry":{"type":"Point","coordinates":[-73.82896351,40.65028847]},"properties":{"address":"LOCKWOOD COURT","borough":"Queens","bbl":"4142522792","zipcode":"11414","agency":"Department of Citywide Administrative Services","agencyshort":"DCAS","sqft":"163","acres":"0.003742","vacant":"TRUE"}},{"type":"Feature","geometry":{"type":"Point","coordinates":[-73.92017812,40.73345872]},"properties":{"address":"0 46 STREET","borough":"Queens","bbl":"4023080014","zipcode":"11377","agency":"Department of Citywide Administrative Services","agencyshort":"DCAS","sqft":"171","acres":"0.003926","vacant":"TRUE"}},{"type":"Feature","geometry":{"type":"Point","coordinates":[-73.80766678,40.67929033]},"properties":{"address":"LINCOLN STREET","borough":"Queens","bbl":"4116750023","zipcode":"11420","agency":"Department of Citywide Administrative Services","agencyshort":"DCAS","sqft":"175","acres":"0.004017","vacant":"TRUE"}},{"type":"Feature","geometry":{"type":"Point","coordinates":[-74.22353063,40.53961475]},"properties":{"address":"CLAYPIT ROAD","borough":"Staten Island","bbl":"5072670329","zipcode":"10309","agency":"Department of Citywide Administrative Services","agencyshort":"DCAS","sqft":"196","acres":"0.0045","vacant":"TRUE"}},{"type":"Feature","geometry":{"type":"Point","coordinates":[-73.76850676,40.68604238]},"properties":{"address":"BAISLEY BOULEVA","borough":"Queens","bbl":"4124700070","zipcode":"11434","agency":"Department of Citywide Administrative Services","agencyshort":"DCAS","sqft":"199","acres":"0.004568","vacant":"TRUE"}},{"type":"Feature","geometry":{"type":"Point","coordinates":[-73.92013724,40.73367761]},"properties":{"address":"46 STREET","borough":"Queens","bbl":"4023080018","zipcode":"11377","agency":"Department of Citywide Administrative Services","agencyshort":"DCAS","sqft":"200","acres":"0.004591","vacant":"TRUE"}},{"type":"Feature","geometry":{"type":"Point","coordinates":[-73.92016931,40.73351356]},"properties":{"address":"46 STREET","borough":"Queens","bbl":"4023080015","zipcode":"11377","agency":"Department of Citywide Administrative Services","agencyshort":"DCAS","sqft":"200","acres":"0.004591","vacant":"TRUE"}},{"type":"Feature","geometry":{"type":"Point","coordinates":[-73.92015886,40.73356699]},"properties":{"address":"46 STREET","borough":"Queens","bbl":"4023080016","zipcode":"11377","agency":"Department of Citywide Administrative Services","agencyshort":"DCAS","sqft":"200","acres":"0.004591","vacant":"TRUE"}},{"type":"Feature","geometry":{"type":"Point","coordinates":[-73.92014813,40.7336219]},"properties":{"address":"46 STREET","borough":"Queens","bbl":"4023080017","zipcode":"11377","agency":"Department of Citywide Administrative Services","agencyshort":"DCAS","sqft":"200","acres":"0.004591","vacant":"TRUE"}},{"type":"Feature","geometry":{"type":"Point","coordinates":[-73.92012688,40.73373063]},"properties":{"address":"46 STREET","borough":"Queens","bbl":"4023080019","zipcode":"11377","agency":"Department of Citywide Administrative Services","agencyshort":"DCAS","sqft":"200","acres":"0.004591","vacant":"TRUE"}},{"type":"Feature","geometry":{"type":"Point","coordinates":[-73.92011633,40.73378464]},"properties":{"address":"46 STREET","borough":"Queens","bbl":"4023080020","zipcode":"11377","agency":"Department of Citywide Administrative Services","agencyshort":"DCAS","sqft":"200","acres":"0.004591","vacant":"TRUE"}},{"type":"Feature","geometry":{"type":"Point","coordinates":[-74.03268225,40.61454484]},"properties":{"address":"        4 AVENUE","borough":"Brooklyn","bbl":"3061260040","zipcode":"11209","agency":"Department of Citywide Administrative Services","agencyshort":"DCAS","sqft":"209","acres":"0.004798","vacant":"TRUE"}},{"type":"Feature","geometry":{"type":"Point","coordinates":[-73.97589387,40.59196185]},"properties":{"address":"        VAN SICKLEN STREET","borough":"Brooklyn","bbl":"3071680010","zipcode":"11223","agency":"Department of Citywide Administrative Services","agencyshort":"DCAS","sqft":"213","acres":"0.00489","vacant":"TRUE"}},{"type":"Feature","geometry":{"type":"Point","coordinates":[-73.98118169,40.58265891]},"properties":{"address":"        SHORE PARKWAY","borough":"Brooklyn","bbl":"3072470216","zipcode":"11224","agency":"New York City Transit (MTA)","agencyshort":"MTA","sqft":"222","acres":"0.005096","vacant":"TRUE"}},{"type":"Feature","geometry":{"type":"Point","coordinates":[-73.92182331,40.6719978]},"properties":{"address":"        PARK PLACE","borough":"Brooklyn","bbl":"3014620074","zipcode":"11233","agency":"Housing Preservation and Development","agencyshort":"HPD","sqft":"226","acres":"0.005188","vacant":"TRUE"}},{"type":"Feature","geometry":{"type":"Point","coordinates":[-73.78440051,40.68059317]},"properties":{"address":"LAKEVIEW BLVD E","borough":"Queens","bbl":"4122460007","zipcode":"11434","agency":"Department of Citywide Administrative Services","agencyshort":"DCAS","sqft":"240","acres":"0.00551","vacant":"TRUE"}},{"type":"Feature","geometry":{"type":"Point","coordinates":[-73.92009212,40.65462765]},"properties":{"address":"        LINDEN BOULEVARD","borough":"Brooklyn","bbl":"3046880031","zipcode":"11212","agency":"Department of Citywide Administrative Services","agencyshort":"DCAS","sqft":"244","acres":"0.005601","vacant":"TRUE"}},{"type":"Feature","geometry":{"type":"Point","coordinates":[-74.22820248,40.51945948]},"properties":{"address":"AMBOY ROAD","borough":"Staten Island","bbl":"5075610123","zipcode":"10309","agency":"Department of Citywide Administrative Services","agencyshort":"DCAS","sqft":"250","acres":"0.005739","vacant":"TRUE"}},{"type":"Feature","geometry":{"type":"Point","coordinates":[-74.22990706,40.52033792]},"properties":{"address":"RICHMOND VALLEY RD","borough":"Staten Island","bbl":"5075630020","zipcode":"10309","agency":"Department of Citywide Administrative Services","agencyshort":"DCAS","sqft":"260","acres":"0.005969","vacant":"TRUE"}},{"type":"Feature","geometry":{"type":"Point","coordinates":[-73.72757623,40.67454912]},"properties":{"address":"HOOK CREEK BLVD","borough":"Queens","bbl":"4129810122","zipcode":"11422","agency":"Department of Citywide Administrative Services","agencyshort":"DCAS","sqft":"270","acres":"0.006198","vacant":"TRUE"}},{"type":"Feature","geometry":{"type":"Point","coordinates":[-73.92801645,40.6621727]},"properties":{"address":"        EAST 92 STREET","borough":"Brooklyn","bbl":"3045940050","zipcode":"11212","agency":"Department of Citywide Administrative Services","agencyshort":"DCAS","sqft":"287","acres":"0.006589","vacant":"TRUE"}},{"type":"Feature","geometry":{"type":"Point","coordinates":[-73.83616022,40.67202586]},"properties":{"address":"135 DRIVE","borough":"Queens","bbl":"4115360075","zipcode":"11417","agency":"Department of Citywide Administrative Services","agencyshort":"DCAS","sqft":"296","acres":"0.006795","vacant":"TRUE"}},{"type":"Feature","geometry":{"type":"Point","coordinates":[-73.93869869,40.65992131]},"properties":{"address":"        RUTLAND ROAD","borough":"Brooklyn","bbl":"3048130119","zipcode":"11203","agency":"Department of Citywide Administrative Services","agencyshort":"DCAS","sqft":"300","acres":"0.006887","vacant":"TRUE"}},{"type":"Feature","geometry":{"type":"Point","coordinates":[-73.93248006,40.82100874]},"properties":{"address":"5968 MAJ WM DEEGAN BLVD","borough":"Bronx","bbl":"2025390001","zipcode":"10451","agency":"Department of Small Business Services","agencyshort":"SBS","sqft":"307","acres":"0.007048","vacant":"TRUE"}},{"type":"Feature","geometry":{"type":"Point","coordinates":[-74.22991921,40.52017141]},"properties":{"address":"RICHMOND VALLEY RD","borough":"Staten Island","bbl":"5075630010","zipcode":"10309","agency":"Department of Citywide Administrative Services","agencyshort":"DCAS","sqft":"308","acres":"0.007071","vacant":"TRUE"}},{"type":"Feature","geometry":{"type":"Point","coordinates":[-73.91842227,40.68905016]},"properties":{"address":"        MADISON STREET","borough":"Brooklyn","bbl":"3033660024","zipcode":"11221","agency":"Department of Citywide Administrative Services","agencyshort":"DCAS","sqft":"313","acres":"0.007185","vacant":"TRUE"}},{"type":"Feature","geometry":{"type":"Point","coordinates":[-73.85792383,40.831853]},"properties":{"address":"CROSS BRONX EXPWY","borough":"Bronx","bbl":"2037940055","zipcode":"10472","agency":"Department of Citywide Administrative Services","agencyshort":"DCAS","sqft":"339","acres":"0.007782","vacant":"TRUE"}},{"type":"Feature","geometry":{"type":"Point","coordinates":[-73.83410616,40.66505697]},"properties":{"address":"100 STREET","borough":"Queens","bbl":"4141430055","zipcode":"11414","agency":"Department of Citywide Administrative Services","agencyshort":"DCAS","sqft":"350","acres":"0.008035","vacant":"TRUE"}},{"type":"Feature","geometry":{"type":"Point","coordinates":[-73.73982995,40.60285516]},"properties":{"address":"OAK DRIVE","borough":"Queens","bbl":"4155780044","zipcode":"11691","agency":"Department of Citywide Administrative Services","agencyshort":"DCAS","sqft":"354","acres":"0.008127","vacant":"TRUE"}},{"type":"Feature","geometry":{"type":"Point","coordinates":[-73.91759309,40.85296719]},"properties":{"address":"BILLINGSLEY TERR","borough":"Bronx","bbl":"2028790278","zipcode":"10453","agency":"Department of Citywide Administrative Services","agencyshort":"DCAS","sqft":"375","acres":"0.008609","vacant":"TRUE"}},{"type":"Feature","geometry":{"type":"Point","coordinates":[-73.83318319,40.66686572]},"properties":{"address":"NORTH CONDUIT B","borough":"Queens","bbl":"4115620100","zipcode":"11417","agency":"Department of Citywide Administrative Services","agencyshort":"DCAS","sqft":"380","acres":"0.008724","vacant":"TRUE"}},{"type":"Feature","geometry":{"type":"Point","coordinates":[-73.82824576,40.65039435]},"properties":{"address":"165TH AVENUE","borough":"Queens","bbl":"4142552781","zipcode":"11414","agency":"Department of Citywide Administrative Services","agencyshort":"DCAS","sqft":"385","acres":"0.008838","vacant":"TRUE"}},{"type":"Feature","geometry":{"type":"Point","coordinates":[-73.93257657,40.59505943]},"properties":{"address":"        AVENUE X","borough":"Brooklyn","bbl":"3088300022","zipcode":"0","agency":"Department of Citywide Administrative Services","agencyshort":"DCAS","sqft":"387","acres":"0.008884","vacant":"TRUE"}},{"type":"Feature","geometry":{"type":"Point","coordinates":[-74.12399448,40.61500011]},"properties":{"address":"0 MANOR ROAD","borough":"Staten Island","bbl":"5003700099","zipcode":"10314","agency":"Department of Citywide Administrative Services","agencyshort":"DCAS","sqft":"398","acres":"0.009137","vacant":"TRUE"}},{"type":"Feature","geometry":{"type":"Point","coordinates":[-73.80764756,40.67922093]},"properties":{"address":"LINCOLN STREET","borough":"Queens","bbl":"4116750024","zipcode":"11420","agency":"Department of Citywide Administrative Services","agencyshort":"DCAS","sqft":"405","acres":"0.009298","vacant":"TRUE"}},{"type":"Feature","geometry":{"type":"Point","coordinates":[-74.00205422,40.68529709]},"properties":{"address":"        DE GRAW STREET","borough":"Brooklyn","bbl":"3003300112","zipcode":"11231","agency":"Housing Preservation and Development","agencyshort":"HPD","sqft":"420","acres":"0.009642","vacant":"TRUE"}},{"type":"Feature","geometry":{"type":"Point","coordinates":[-73.91484555,40.65395964]},"properties":{"address":"        EAST 95 STREET","borough":"Brooklyn","bbl":"3047160016","zipcode":"11212","agency":"Department of Citywide Administrative Services","agencyshort":"DCAS","sqft":"460","acres":"0.01056","vacant":"TRUE"}},{"type":"Feature","geometry":{"type":"Point","coordinates":[-74.13308316,40.62880219]},"properties":{"address":"DRYDEN CT","borough":"Staten Island","bbl":"5010390365","zipcode":"10302","agency":"Department of Citywide Administrative Services","agencyshort":"DCAS","sqft":"464","acres":"0.010652","vacant":"TRUE"}},{"type":"Feature","geometry":{"type":"Point","coordinates":[-73.78687369,40.69411457]},"properties":{"address":"BRINKERHOFF AVENUE","borough":"Queens","bbl":"4101930085","zipcode":"11433","agency":"Department of Citywide Administrative Services","agencyshort":"DCAS","sqft":"472","acres":"0.010836","vacant":"TRUE"}},{"type":"Feature","geometry":{"type":"Point","coordinates":[-73.76448393,40.69780585]},"properties":{"address":"MURDOCK AVENUE","borough":"Queens","bbl":"4104210044","zipcode":"11412","agency":"Department of Citywide Administrative Services","agencyshort":"DCAS","sqft":"473","acres":"0.010859","vacant":"TRUE"}},{"type":"Feature","geometry":{"type":"Point","coordinates":[-73.88647797,40.76342431]},"properties":{"address":"25 AVENUE","borough":"Queens","bbl":"4010940137","zipcode":"11370","agency":"Department of Citywide Administrative Services","agencyshort":"DCAS","sqft":"482","acres":"0.011065","vacant":"TRUE"}},{"type":"Feature","geometry":{"type":"Point","coordinates":[-73.98233138,40.58865812]},"properties":{"address":"        STILLWELL AVENUE","borough":"Brooklyn","bbl":"3071850015","zipcode":"11223","agency":"Department of Citywide Administrative Services","agencyshort":"DCAS","sqft":"491","acres":"0.011272","vacant":"TRUE"}},{"type":"Feature","geometry":{"type":"Point","coordinates":[-73.91612129,40.6540045]},"properties":{"address":"        EAST 94 STREET","borough":"Brooklyn","bbl":"3047150025","zipcode":"11236","agency":"Department of Citywide Administrative Services","agencyshort":"DCAS","sqft":"492","acres":"0.011295","vacant":"TRUE"}},{"type":"Feature","geometry":{"type":"Point","coordinates":[-73.93284819,40.59471392]},"properties":{"address":"        AVENUE X","borough":"Brooklyn","bbl":"3088300021","zipcode":"0","agency":"Department of Citywide Administrative Services","agencyshort":"DCAS","sqft":"500","acres":"0.011478","vacant":"TRUE"}},{"type":"Feature","geometry":{"type":"Point","coordinates":[-73.94669869,40.70052334]},"properties":{"address":"        BARTLETT STREET","borough":"Brooklyn","bbl":"3022720108","zipcode":"11206","agency":"Housing Preservation and Development","agencyshort":"HPD","sqft":"520","acres":"0.011938","vacant":"TRUE"}},{"type":"Feature","geometry":{"type":"Point","coordinates":[-73.88194035,40.68506735]},"properties":{"address":"23 HIGHLAND PLACE","borough":"Brooklyn","bbl":"3039030001","zipcode":"11208","agency":"Department of Transportation","agencyshort":"DOT","sqft":"527","acres":"0.012098","vacant":"TRUE"}},{"type":"Feature","geometry":{"type":"Point","coordinates":[-74.22260042,40.53087776]},"properties":{"address":"VETERANS ROAD EAST","borough":"Staten Island","bbl":"5073590060","zipcode":"10309","agency":"Department of Citywide Administrative Services","agencyshort":"DCAS","sqft":"544","acres":"0.012489","vacant":"TRUE"}},{"type":"Feature","geometry":{"type":"Point","coordinates":[-73.92739759,40.68103459]},"properties":{"address":"        CHAUNCEY STREET","borough":"Brooklyn","bbl":"3016870173","zipcode":"11233","agency":"Housing Preservation and Development","agencyshort":"HPD","sqft":"545","acres":"0.012511","vacant":"TRUE"}},{"type":"Feature","geometry":{"type":"Point","coordinates":[-73.89967025,40.71434224]},"properties":{"address":"62 STREET","borough":"Queens","bbl":"4027640049","zipcode":"11379","agency":"Department of Citywide Administrative Services","agencyshort":"DCAS","sqft":"550","acres":"0.012626","vacant":"TRUE"}},{"type":"Feature","geometry":{"type":"Point","coordinates":[-73.92745545,40.68103322]},"properties":{"address":"        CHAUNCEY STREET","borough":"Brooklyn","bbl":"3016870174","zipcode":"11233","agency":"Housing Preservation and Development","agencyshort":"HPD","sqft":"559","acres":"0.012833","vacant":"TRUE"}},{"type":"Feature","geometry":{"type":"Point","coordinates":[-73.92751731,40.68103176]},"properties":{"address":"        CHAUNCEY STREET","borough":"Brooklyn","bbl":"3016870175","zipcode":"11233","agency":"Housing Preservation and Development","agencyshort":"HPD","sqft":"559","acres":"0.012833","vacant":"TRUE"}},{"type":"Feature","geometry":{"type":"Point","coordinates":[-73.92359419,40.66771459]},"properties":{"address":"        UNION STREET","borough":"Brooklyn","bbl":"3013990262","zipcode":"0","agency":"Department of Citywide Administrative Services","agencyshort":"DCAS","sqft":"594","acres":"0.013636","vacant":"TRUE"}},{"type":"Feature","geometry":{"type":"Point","coordinates":[-73.76232418,40.68670711]},"properties":{"address":"119 DRIVE","borough":"Queens","bbl":"4124550202","zipcode":"11412","agency":"Department of Citywide Administrative Services","agencyshort":"DCAS","sqft":"607","acres":"0.013935","vacant":"TRUE"}},{"type":"Feature","geometry":{"type":"Point","coordinates":[-73.9578247,40.6872875]},"properties":{"address":"        LEXINGTON AVENUE","borough":"Brooklyn","bbl":"3019670057","zipcode":"11238","agency":"Department of Citywide Administrative Services","agencyshort":"DCAS","sqft":"643","acres":"0.014761","vacant":"TRUE"}},{"type":"Feature","geometry":{"type":"Point","coordinates":[-73.89666391,40.83055304]},"properties":{"address":"829 FREEMAN STREET","borough":"Bronx","bbl":"2029710056","zipcode":"10459","agency":"Housing Preservation and Development","agencyshort":"HPD","sqft":"663","acres":"0.01522","vacant":"TRUE"}},{"type":"Feature","geometry":{"type":"Point","coordinates":[-73.83308693,40.78024487]},"properties":{"address":"0   20 AVENUE","borough":"Queens","bbl":"4041810001","zipcode":"11356","agency":"Department of Small Business Services","agencyshort":"SBS","sqft":"680","acres":"0.015611","vacant":"TRUE"}},{"type":"Feature","geometry":{"type":"Point","coordinates":[-73.83170577,40.65541046]},"properties":{"address":"HAWTREE AVENUE","borough":"Queens","bbl":"4142280778","zipcode":"","agency":"Department of Citywide Administrative Services","agencyshort":"DCAS","sqft":"700","acres":"0.01607","vacant":"TRUE"}},{"type":"Feature","geometry":{"type":"Point","coordinates":[-73.84873675,40.68844586]},"properties":{"address":"ATLANTIC AVENUE","borough":"Queens","bbl":"4089910295","zipcode":"11421","agency":"Department of Citywide Administrative Services","agencyshort":"DCAS","sqft":"715","acres":"0.016414","vacant":"TRUE"}},{"type":"Feature","geometry":{"type":"Point","coordinates":[-73.95851958,40.67695564]},"properties":{"address":"        BERGEN STREET","borough":"Brooklyn","bbl":"3011490116","zipcode":"11238","agency":"Department of Citywide Administrative Services","agencyshort":"DCAS","sqft":"744","acres":"0.01708","vacant":"TRUE"}},{"type":"Feature","geometry":{"type":"Point","coordinates":[-73.92129006,40.66870645]},"properties":{"address":"1416 EASTERN PARKWAY EXT","borough":"Brooklyn","bbl":"3014750039","zipcode":"11233","agency":"Housing Preservation and Development","agencyshort":"HPD","sqft":"756","acres":"0.017355","vacant":"TRUE"}},{"type":"Feature","geometry":{"type":"Point","coordinates":[-73.97664979,40.65433189]},"properties":{"address":"158 SEELEY STREET","borough":"Brooklyn","bbl":"3052670118","zipcode":"11218","agency":"Department of Transportation","agencyshort":"DOT","sqft":"790","acres":"0.018136","vacant":"TRUE"}},{"type":"Feature","geometry":{"type":"Point","coordinates":[-73.77921307,40.70122911]},"properties":{"address":"WATSON PLACE","borough":"Queens","bbl":"4102520140","zipcode":"11433","agency":"Department of Citywide Administrative Services","agencyshort":"DCAS","sqft":"800","acres":"0.018365","vacant":"TRUE"}},{"type":"Feature","geometry":{"type":"Point","coordinates":[-73.77919757,40.68366239]},"properties":{"address":"118 ROAD","borough":"Queens","bbl":"4123630101","zipcode":"11434","agency":"Department of Citywide Administrative Services","agencyshort":"DCAS","sqft":"800","acres":"0.018365","vacant":"TRUE"}},{"type":"Feature","geometry":{"type":"Point","coordinates":[-73.92005607,40.66967451]},"properties":{"address":"1459 EASTERN PARKWAY EXT","borough":"Brooklyn","bbl":"3014730036","zipcode":"11233","agency":"Housing Preservation and Development","agencyshort":"HPD","sqft":"800","acres":"0.018365","vacant":"TRUE"}},{"type":"Feature","geometry":{"type":"Point","coordinates":[-73.77095138,40.59430161]},"properties":{"address":"ROCKAWAY BEACH BLVD","borough":"Queens","bbl":"4158470086","zipcode":"11691","agency":"Housing Preservation and Development","agencyshort":"HPD","sqft":"808","acres":"0.018549","vacant":"TRUE"}},{"type":"Feature","geometry":{"type":"Point","coordinates":[-74.1797221,40.53672976]},"properties":{"address":"0 ANNADALE ROAD","borough":"Staten Island","bbl":"5062470040","zipcode":"10312","agency":"Department of Citywide Administrative Services","agencyshort":"DCAS","sqft":"812","acres":"0.018641","vacant":"TRUE"}},{"type":"Feature","geometry":{"type":"Point","coordinates":[-73.90920807,40.67314683]},"properties":{"address":"1589 EAST NEW YORK AVENUE","borough":"Brooklyn","bbl":"3014550061","zipcode":"11212","agency":"Housing Preservation and Development","agencyshort":"HPD","sqft":"817","acres":"0.018756","vacant":"TRUE"}},{"type":"Feature","geometry":{"type":"Point","coordinates":[-73.87431013,40.87391862]},"properties":{"address":"WEBSTER AVE","borough":"Bronx","bbl":"2033540053","zipcode":"10467","agency":"Department of Citywide Administrative Services","agencyshort":"DCAS","sqft":"818","acres":"0.018779","vacant":"TRUE"}},{"type":"Feature","geometry":{"type":"Point","coordinates":[-73.87848967,40.76308369]},"properties":{"address":"91 STREET","borough":"Queens","bbl":"4013640023","zipcode":"11369","agency":"Department of Citywide Administrative Services","agencyshort":"DCAS","sqft":"822","acres":"0.018871","vacant":"TRUE"}},{"type":"Feature","geometry":{"type":"Point","coordinates":[-73.92714558,40.68104268]},"properties":{"address":"        CHAUNCEY STREET","borough":"Brooklyn","bbl":"3016870170","zipcode":"11233","agency":"Housing Preservation and Development","agencyshort":"HPD","sqft":"824","acres":"0.018916","vacant":"TRUE"}},{"type":"Feature","geometry":{"type":"Point","coordinates":[-73.83000675,40.65363867]},"properties":{"address":"BED OF 163 AVENUE","borough":"Queens","bbl":"4142310191","zipcode":"","agency":"Department of Citywide Administrative Services","agencyshort":"DCAS","sqft":"837","acres":"0.019215","vacant":"TRUE"}},{"type":"Feature","geometry":{"type":"Point","coordinates":[-73.92759495,40.68102995]},"properties":{"address":"        CHAUNCEY STREET","borough":"Brooklyn","bbl":"3016870176","zipcode":"11233","agency":"Housing Preservation and Development","agencyshort":"HPD","sqft":"837","acres":"0.019215","vacant":"TRUE"}},{"type":"Feature","geometry":{"type":"Point","coordinates":[-73.84737384,40.67459055]},"properties":{"address":"DESARC ROAD","borough":"Queens","bbl":"4113700039","zipcode":"11417","agency":"Department of Citywide Administrative Services","agencyshort":"DCAS","sqft":"840","acres":"0.019284","vacant":"TRUE"}},{"type":"Feature","geometry":{"type":"Point","coordinates":[-73.90203362,40.60839431]},"properties":{"address":"        NATIONAL DRIVE","borough":"Brooklyn","bbl":"3086140200","zipcode":"11234","agency":"Department of Citywide Administrative Services","agencyshort":"DCAS","sqft":"850","acres":"0.019513","vacant":"TRUE"}},{"type":"Feature","geometry":{"type":"Point","coordinates":[-73.82996927,40.65865155]},"properties":{"address":"160 AVENUE","borough":"Queens","bbl":"4142340299","zipcode":"11414","agency":"Department of Citywide Administrative Services","agencyshort":"DCAS","sqft":"850","acres":"0.019513","vacant":"TRUE"}},{"type":"Feature","geometry":{"type":"Point","coordinates":[-73.82935265,40.65720841]},"properties":{"address":"HAWTREE CREEK R","borough":"Queens","bbl":"4142340513","zipcode":"11414","agency":"Department of Citywide Administrative Services","agencyshort":"DCAS","sqft":"897","acres":"0.020592","vacant":"TRUE"}},{"type":"Feature","geometry":{"type":"Point","coordinates":[-73.90991109,40.77986357]},"properties":{"address":"27 STREET","borough":"Queens","bbl":"4008590010","zipcode":"11105","agency":"Department of Citywide Administrative Services","agencyshort":"DCAS","sqft":"900","acres":"0.020661","vacant":"TRUE"}},{"type":"Feature","geometry":{"type":"Point","coordinates":[-73.92496085,40.6773028]},"properties":{"address":"54 BUFFALO AVENUE","borough":"Brooklyn","bbl":"3017100051","zipcode":"11233","agency":"Housing Preservation and Development","agencyshort":"HPD","sqft":"900","acres":"0.020661","vacant":"TRUE"}},{"type":"Feature","geometry":{"type":"Point","coordinates":[-73.91188896,40.82415402]},"properties":{"address":"446 EAST 162 STREET","borough":"Bronx","bbl":"2023830025","zipcode":"10451","agency":"Housing Preservation and Development","agencyshort":"HPD","sqft":"905","acres":"0.020776","vacant":"TRUE"}},{"type":"Feature","geometry":{"type":"Point","coordinates":[-74.14411626,40.63571762]},"properties":{"address":"EATON PL","borough":"Staten Island","bbl":"5011240025","zipcode":"10302","agency":"Department of Citywide Administrative Services","agencyshort":"DCAS","sqft":"930","acres":"0.02135","vacant":"TRUE"}},{"type":"Feature","geometry":{"type":"Point","coordinates":[-73.96538271,40.60770058]},"properties":{"address":"        QUENTIN ROAD","borough":"Brooklyn","bbl":"3066390046","zipcode":"11223","agency":"Department of Citywide Administrative Services","agencyshort":"DCAS","sqft":"945","acres":"0.021694","vacant":"TRUE"}},{"type":"Feature","geometry":{"type":"Point","coordinates":[-73.94555582,40.80301028]},"properties":{"address":"13 WEST 119 STREET","borough":"Manhattan","bbl":"1017180031","zipcode":"10026","agency":"Housing Preservation and Development","agencyshort":"HPD","sqft":"950","acres":"0.021809","vacant":"TRUE"}},{"type":"Feature","geometry":{"type":"Point","coordinates":[-73.85794771,40.71917147]},"properties":{"address":"SELFRIDGE STREE","borough":"Queens","bbl":"4031500094","zipcode":"","agency":"Department of Citywide Administrative Services","agencyshort":"DCAS","sqft":"954","acres":"0.021901","vacant":"TRUE"}},{"type":"Feature","geometry":{"type":"Point","coordinates":[-73.85788495,40.7186864]},"properties":{"address":"97 FLEET STREET","borough":"Queens","bbl":"4031500098","zipcode":"","agency":"Department of Citywide Administrative Services","agencyshort":"DCAS","sqft":"956","acres":"0.021947","vacant":"TRUE"}},{"type":"Feature","geometry":{"type":"Point","coordinates":[-73.78954214,40.69300236]},"properties":{"address":"110-01 UNION HALL STREET","borough":"Queens","bbl":"4121650030","zipcode":"11433","agency":"Department of Transportation","agencyshort":"DOT","sqft":"968","acres":"0.022222","vacant":"TRUE"}},{"type":"Feature","geometry":{"type":"Point","coordinates":[-73.90926213,40.67315785]},"properties":{"address":"1739 EAST NEW YORK AVENUE","borough":"Brooklyn","bbl":"3014550062","zipcode":"11212","agency":"Housing Preservation and Development","agencyshort":"HPD","sqft":"975","acres":"0.022383","vacant":"TRUE"}},{"type":"Feature","geometry":{"type":"Point","coordinates":[-73.926087,40.697785]},"properties":{"address":"98 CEDAR STREET","borough":"Brooklyn","bbl":"3032320039","zipcode":"11221","agency":"NY Police Department","agencyshort":"NYPD","sqft":"975","acres":"0.022383","vacant":"TRUE"}},{"type":"Feature","geometry":{"type":"Point","coordinates":[-73.925951,40.697689]},"properties":{"address":"1309 DE KALB AVENUE","borough":"Brooklyn","bbl":"3032320049","zipcode":"11221","agency":"NY Police Department","agencyshort":"NYPD","sqft":"975","acres":"0.022383","vacant":"TRUE"}},{"type":"Feature","geometry":{"type":"Point","coordinates":[-73.90402409,40.66311046]},"properties":{"address":"        LIVONIA AVENUE","borough":"Brooklyn","bbl":"3038120019","zipcode":"11212","agency":"Housing Preservation and Development","agencyshort":"HPD","sqft":"979","acres":"0.022475","vacant":"TRUE"}},{"type":"Feature","geometry":{"type":"Point","coordinates":[-73.94480236,40.66725929]},"properties":{"address":"        CARROLL STREET","borough":"Brooklyn","bbl":"3012850006","zipcode":"11213","agency":"Department of Citywide Administrative Services","agencyshort":"DCAS","sqft":"980","acres":"0.022498","vacant":"TRUE"}},{"type":"Feature","geometry":{"type":"Point","coordinates":[-73.81001595,40.59054579]},"properties":{"address":"0 BEACH 84 STREET","borough":"Queens","bbl":"4161030076","zipcode":"11693","agency":"Department of Citywide Administrative Services","agencyshort":"DCAS","sqft":"994","acres":"0.022819","vacant":"TRUE"}},{"type":"Feature","geometry":{"type":"Point","coordinates":[-73.89036497,40.72766745]},"properties":{"address":"71 STREET","borough":"Queens","bbl":"4028090070","zipcode":"","agency":"Department of Citywide Administrative Services","agencyshort":"DCAS","sqft":"1000","acres":"0.022957","vacant":"TRUE"}},{"type":"Feature","geometry":{"type":"Point","coordinates":[-73.77425799,40.59341585]},"properties":{"address":"BEACH 43 STREET","borough":"Queens","bbl":"4158510059","zipcode":"11691","agency":"Housing Preservation and Development","agencyshort":"HPD","sqft":"1000","acres":"0.022957","vacant":"TRUE"}}]}