{"type":"FeatureCollection","features":[{"type":"Feature","geometry":{"type":"Point","coordinates":[-73.90808868,40.67447442]},"properties":{"address":"201 MOTHER GASTON BLVD","borough":"Brooklyn","bbl":"3014500010","zipcode":"11233","agency":"Housing Preservation and Development","agencyshort":"HPD","sqft":"1021","acres":"0.023439","vacant":"TRUE"}},{"type":"Feature","geometry":{"type":"Point","coordinates":[-73.96095733,40.68232333]},"properties":{"address":"1027 FULTON STREET","borough":"Brooklyn","bbl":"3019910003","zipcode":"11238","agency":"Department of Small Business Services","agencyshort":"SBS","sqft":"1050","acres":"0.024105","vacant":"TRUE"}},{"type":"Feature","geometry":{"type":"Point","coordinates":[-73.96578882,40.70776167]},"properties":{"address":"451 BERRY STREET","borough":"Brooklyn","bbl":"3021570003","zipcode":"11211","agency":"NYC Housing Authority","agencyshort":"NYCHA","sqft":"1080","acres":"0.024793","vacant":"TRUE"}},{"type":"Feature","geometry":{"type":"Point","coordinates":[-74.13684763,40.55453979]},"properties":{"address":"TAUNTON ST","borough":"Staten Island","bbl":"5050910033","zipcode":"10306","agency":"Department of Citywide Administrative Services","agencyshort":"DCAS","sqft":"1104","acres":"0.025344","vacant":"TRUE"}},{"type":"Feature","geometry":{"type":"Point","coordinates":[-73.91348561,40.67158835]},"properties":{"address":"        PARK PLACE","borough":"Brooklyn","bbl":"3014650064","zipcode":"11233","agency":"Housing Preservation and Development","agencyshort":"HPD","sqft":"1104","acres":"0.025344","vacant":"TRUE"}},{"type":"Feature","geometry":{"type":"Point","coordinates":[-73.9622891,40.67672951]},"properties":{"address":"        PROSPECT PLACE","borough":"Brooklyn","bbl":"3011550193","zipcode":"11238","agency":"Department of Citywide Administrative Services","agencyshort":"DCAS","sqft":"1122","acres":"0.025758","vacant":"TRUE"}},{"type":"Feature","geometry":{"type":"Point","coordinates":[-73.77128583,40.59422216]},"properties":{"address":"ROCKAWAY BEACH BLVD","borough":"Queens","bbl":"4158480060","zipcode":"11691","agency":"Housing Preservation and Development","agencyshort":"HPD","sqft":"1122","acres":"0.025758","vacant":"TRUE"}},{"type":"Feature","geometry":{"type":"Point","coordinates":[-73.82810341,40.65041555]},"properties":{"address":"165 AVENUE","borough":"Queens","bbl":"4142552780","zipcode":"11414","agency":"Department of Citywide Administrative Services","agencyshort":"DCAS","sqft":"1123","acres":"0.025781","vacant":"TRUE"}},{"type":"Feature","geometry":{"type":"Point","coordinates":[-73.83005297,40.65866704]},"properties":{"address":"160 AVENUE","borough":"Queens","bbl":"4142340298","zipcode":"11414","agency":"Department of Citywide Administrative Services","agencyshort":"DCAS","sqft":"1125","acres":"0.025826","vacant":"TRUE"}},{"type":"Feature","geometry":{"type":"Point","coordinates":[-73.950673,40.685333]},"properties":{"address":"406 NOSTRAND AVENUE","borough":"Brooklyn","bbl":"3018170050","zipcode":"11216","agency":"Housing Preservation and Development","agencyshort":"HPD","sqft":"1125","acres":"0.025826","vacant":"TRUE"}},{"type":"Feature","geometry":{"type":"Point","coordinates":[-73.917132,40.6614239]},"properties":{"address":"279 GRAFTON STREET","borough":"Brooklyn","bbl":"3035670006","zipcode":"11212","agency":"Housing Preservation and Development","agencyshort":"HPD","sqft":"1125","acres":"0.025826","vacant":"TRUE"}},{"type":"Feature","geometry":{"type":"Point","coordinates":[-73.92012457,40.66966083]},"properties":{"address":"1457 EASTERN PARKWAY EXT","borough":"Brooklyn","bbl":"3014730037","zipcode":"11233","agency":"Housing Preservation and Development","agencyshort":"HPD","sqft":"1140","acres":"0.026171","vacant":"TRUE"}},{"type":"Feature","geometry":{"type":"Point","coordinates":[-73.912329,40.683698]},"properties":{"address":"770 DECATUR STREET","borough":"Brooklyn","bbl":"3015070033","zipcode":"11207","agency":"Housing Preservation and Development","agencyshort":"HPD","sqft":"1143","acres":"0.02624","vacant":"TRUE"}},{"type":"Feature","geometry":{"type":"Point","coordinates":[-73.90346305,40.61135304]},"properties":{"address":"        WHITMAN DRIVE","borough":"Brooklyn","bbl":"3086160001","zipcode":"11234","agency":"Department of Environmental Protection","agencyshort":"DEP","sqft":"1150","acres":"0.0264","vacant":"TRUE"}},{"type":"Feature","geometry":{"type":"Point","coordinates":[-73.94571106,40.80310093]},"properties":{"address":"21 WEST 119 STREET","borough":"Manhattan","bbl":"1017180029","zipcode":"10026","agency":"Housing Preservation and Development","agencyshort":"HPD","sqft":"1150","acres":"0.0264","vacant":"TRUE"}},{"type":"Feature","geometry":{"type":"Point","coordinates":[-73.77523554,40.59854511]},"properties":{"address":"BEACH 43 STREET","borough":"Queens","bbl":"4159650069","zipcode":"11691","agency":"Housing Preservation and Development","agencyshort":"HPD","sqft":"1152","acres":"0.026446","vacant":"TRUE"}},{"type":"Feature","geometry":{"type":"Point","coordinates":[-73.96444134,40.71172745]},"properties":{"address":"99 SOUTH 5 STREET","borough":"Brooklyn","bbl":"3024430041","zipcode":"11211","agency":"Department of Citywide Administrative Services","agencyshort":"DCAS","sqft":"1171","acres":"0.026882","vacant":"TRUE"}},{"type":"Feature","geometry":{"type":"Point","coordinates":[-73.98401864,40.71993043]},"properties":{"address":"181 STANTON ST","borough":"Manhattan","bbl":"1003440153","zipcode":"10002","agency":"Housing Preservation and Development","agencyshort":"HPD","sqft":"1197","acres":"0.027479","vacant":"TRUE"}},{"type":"Feature","geometry":{"type":"Point","coordinates":[-73.92126563,40.6771823]},"properties":{"address":"1903A ATLANTIC AVENUE","borough":"Brooklyn","bbl":"3015560033","zipcode":"11233","agency":"Housing Preservation and Development","agencyshort":"HPD","sqft":"1200","acres":"0.027548","vacant":"TRUE"}},{"type":"Feature","geometry":{"type":"Point","coordinates":[-73.90791814,40.82671174]},"properties":{"address":"3341 3 AVE","borough":"Bronx","bbl":"2023700143","zipcode":"10456","agency":"Housing Preservation and Development","agencyshort":"HPD","sqft":"1220","acres":"0.028007","vacant":"TRUE"}},{"type":"Feature","geometry":{"type":"Point","coordinates":[-73.77172474,40.59413494]},"properties":{"address":"ROCKAWAY BEACH BLVD","borough":"Queens","bbl":"4158480052","zipcode":"11691","agency":"Housing Preservation and Development","agencyshort":"HPD","sqft":"1224","acres":"0.028099","vacant":"TRUE"}},{"type":"Feature","geometry":{"type":"Point","coordinates":[-73.913974,40.671087]},"properties":{"address":"1451 EAST NEW YORK AVENUE","borough":"Brooklyn","bbl":"3014690022","zipcode":"11212","agency":"NY Police Department","agencyshort":"NYPD","sqft":"1234","acres":"0.028329","vacant":"TRUE"}},{"type":"Feature","geometry":{"type":"Point","coordinates":[-73.94450173,40.81092831]},"properties":{"address":"123 WEST 129 STREET","borough":"Manhattan","bbl":"1019140022","zipcode":"10027","agency":"Department of Citywide Administrative Services","agencyshort":"DCAS","sqft":"1249","acres":"0.028673","vacant":"TRUE"}},{"type":"Feature","geometry":{"type":"Point","coordinates":[-73.9258058,40.6979456]},"properties":{"address":"1278 MYRTLE AVENUE","borough":"Brooklyn","bbl":"3032320042","zipcode":"11221","agency":"Department of Parks & Recreation","agencyshort":"Parks","sqft":"1256","acres":"0.028834","vacant":"TRUE"}},{"type":"Feature","geometry":{"type":"Point","coordinates":[-74.09058221,40.57446624]},"properties":{"address":"590 HUNTER AVENUE","borough":"Staten Island","bbl":"5038050042","zipcode":"10306","agency":"Department of Citywide Administrative Services","agencyshort":"DCAS","sqft":"1260","acres":"0.028926","vacant":"TRUE"}},{"type":"Feature","geometry":{"type":"Point","coordinates":[-73.77163944,40.59415187]},"properties":{"address":"39-11 ROCKAWAY BEACH BOULEVARD","borough":"Queens","bbl":"4158480054","zipcode":"11691","agency":"Housing Preservation and Development","agencyshort":"HPD","sqft":"1275","acres":"0.02927","vacant":"TRUE"}},{"type":"Feature","geometry":{"type":"Point","coordinates":[-73.926255,40.697424]},"properties":{"address":"1297 DE KALB AVENUE","borough":"Brooklyn","bbl":"3032320055","zipcode":"11221","agency":"NY Police Department","agencyshort":"NYPD","sqft":"1275","acres":"0.02927","vacant":"TRUE"}},{"type":"Feature","geometry":{"type":"Point","coordinates":[-73.82983054,40.65863752]},"properties":{"address":"160 AVENUE","borough":"Queens","bbl":"4142340300","zipcode":"11414","agency":"Department of Citywide Administrative Services","agencyshort":"DCAS","sqft":"1276","acres":"0.029293","vacant":"TRUE"}},{"type":"Feature","geometry":{"type":"Point","coordinates":[-73.82943373,40.65717201]},"properties":{"address":"HAWTREE CREEK R","borough":"Queens","bbl":"4142340510","zipcode":"11414","agency":"Department of Citywide Administrative Services","agencyshort":"DCAS","sqft":"1276","acres":"0.029293","vacant":"TRUE"}},{"type":"Feature","geometry":{"type":"Point","coordinates":[-73.90806712,40.67442225]},"properties":{"address":"203 MOTHER GASTON BLVD","borough":"Brooklyn","bbl":"3014500009","zipcode":"11233","agency":"Department of Citywide Administrative Services","agencyshort":"DCAS","sqft":"1278","acres":"0.029339","vacant":"TRUE"}},{"type":"Feature","geometry":{"type":"Point","coordinates":[-74.09598809,40.57617158]},"properties":{"address":"MASON AVENUE","borough":"Staten Island","bbl":"5037290143","zipcode":"10306","agency":"Department of Citywide Administrative Services","agencyshort":"DCAS","sqft":"1280","acres":"0.029385","vacant":"TRUE"}},{"type":"Feature","geometry":{"type":"Point","coordinates":[-73.91075836,40.67573088]},"properties":{"address":"        PACIFIC STREET","borough":"Brooklyn","bbl":"3014350086","zipcode":"11233","agency":"Housing Preservation and Development","agencyshort":"HPD","sqft":"1280","acres":"0.029385","vacant":"TRUE"}},{"type":"Feature","geometry":{"type":"Point","coordinates":[-73.90809243,40.67437012]},"properties":{"address":"205 MOTHER GASTON BLVD","borough":"Brooklyn","bbl":"3014500008","zipcode":"11233","agency":"Housing Preservation and Development","agencyshort":"HPD","sqft":"1282","acres":"0.029431","vacant":"TRUE"}},{"type":"Feature","geometry":{"type":"Point","coordinates":[-73.91117858,40.82309127]},"properties":{"address":"872 WASHINGTON AVENUE","borough":"Bronx","bbl":"2023650012","zipcode":"10451","agency":"Housing Preservation and Development","agencyshort":"HPD","sqft":"1284","acres":"0.029477","vacant":"TRUE"}},{"type":"Feature","geometry":{"type":"Point","coordinates":[-73.916139,40.694635]},"properties":{"address":"203 PALMETTO STREET","borough":"Brooklyn","bbl":"3033420043","zipcode":"11221","agency":"Housing Preservation and Development","agencyshort":"HPD","sqft":"1285","acres":"0.0295","vacant":"TRUE"}},{"type":"Feature","geometry":{"type":"Point","coordinates":[-74.14389062,40.63552821]},"properties":{"address":"JOHN ST","borough":"Staten Island","bbl":"5011240070","zipcode":"10302","agency":"Department of Citywide Administrative Services","agencyshort":"DCAS","sqft":"1300","acres":"0.029844","vacant":"TRUE"}},{"type":"Feature","geometry":{"type":"Point","coordinates":[-73.9134135,40.67159928]},"properties":{"address":"        PARK PLACE","borough":"Brooklyn","bbl":"3014650063","zipcode":"11233","agency":"Housing Preservation and Development","agencyshort":"HPD","sqft":"1300","acres":"0.029844","vacant":"TRUE"}},{"type":"Feature","geometry":{"type":"Point","coordinates":[-73.77145988,40.59418757]},"properties":{"address":"ROCKAWAY BEACH BLVD","borough":"Queens","bbl":"4158480057","zipcode":"11691","agency":"Housing Preservation and Development","agencyshort":"HPD","sqft":"1326","acres":"0.030441","vacant":"TRUE"}},{"type":"Feature","geometry":{"type":"Point","coordinates":[-73.77136936,40.59420556]},"properties":{"address":"ROCKAWAY BEACH BLVD","borough":"Queens","bbl":"4158480058","zipcode":"11691","agency":"Housing Preservation and Development","agencyshort":"HPD","sqft":"1326","acres":"0.030441","vacant":"TRUE"}},{"type":"Feature","geometry":{"type":"Point","coordinates":[-73.91209602,40.67191959]},"properties":{"address":"        EAST NEW YORK AVENUE","borough":"Brooklyn","bbl":"3014650042","zipcode":"0","agency":"Department of Citywide Administrative Services","agencyshort":"DCAS","sqft":"1328","acres":"0.030487","vacant":"TRUE"}},{"type":"Feature","geometry":{"type":"Point","coordinates":[-73.95444029,40.68329087]},"properties":{"address":"        PUTNAM AVENUE","borough":"Brooklyn","bbl":"3019960025","zipcode":"11216","agency":"Housing Preservation and Development","agencyshort":"HPD","sqft":"1333","acres":"0.030601","vacant":"TRUE"}},{"type":"Feature","geometry":{"type":"Point","coordinates":[-73.87961958,40.74120319]},"properties":{"address":"BROADWAY","borough":"Queens","bbl":"4015790002","zipcode":"11373","agency":"Department of Citywide Administrative Services","agencyshort":"DCAS","sqft":"1336","acres":"0.03067","vacant":"TRUE"}},{"type":"Feature","geometry":{"type":"Point","coordinates":[-74.00418953,40.68138671]},"properties":{"address":"        COLUMBIA STREET","borough":"Brooklyn","bbl":"3003630007","zipcode":"11231","agency":"Housing Preservation and Development","agencyshort":"HPD","sqft":"1338","acres":"0.030716","vacant":"TRUE"}},{"type":"Feature","geometry":{"type":"Point","coordinates":[-73.92243516,40.842664]},"properties":{"address":"E L GRANT HWY","borough":"Bronx","bbl":"2028740006","zipcode":"10452","agency":"Housing Preservation and Development","agencyshort":"HPD","sqft":"1342","acres":"0.030808","vacant":"TRUE"}},{"type":"Feature","geometry":{"type":"Point","coordinates":[-73.76406786,40.6561025]},"properties":{"address":"150 ROAD","borough":"Queens","bbl":"4134330002","zipcode":"11434","agency":"Department of Citywide Administrative Services","agencyshort":"DCAS","sqft":"1350","acres":"0.030992","vacant":"TRUE"}},{"type":"Feature","geometry":{"type":"Point","coordinates":[-73.926294,40.69738]},"properties":{"address":"1295 DE KALB AVENUE","borough":"Brooklyn","bbl":"3032320056","zipcode":"11221","agency":"NY Police Department","agencyshort":"NYPD","sqft":"1353","acres":"0.031061","vacant":"TRUE"}},{"type":"Feature","geometry":{"type":"Point","coordinates":[-73.91936987,40.67371708]},"properties":{"address":"1459 ST MARK'S AVENUE","borough":"Brooklyn","bbl":"3014520001","zipcode":"11233","agency":"Housing Preservation and Development","agencyshort":"HPD","sqft":"1363","acres":"0.03129","vacant":"TRUE"}},{"type":"Feature","geometry":{"type":"Point","coordinates":[-73.94597752,40.70154835]},"properties":{"address":"65 BARTLETT STREET","borough":"Brooklyn","bbl":"3022690035","zipcode":"11206","agency":"Department of Citywide Administrative Services","agencyshort":"DCAS","sqft":"1385","acres":"0.031795","vacant":"TRUE"}},{"type":"Feature","geometry":{"type":"Point","coordinates":[-73.90386491,40.66321282]},"properties":{"address":"368 LIVONIA AVENUE","borough":"Brooklyn","bbl":"3038120021","zipcode":"11212","agency":"Housing Preservation and Development","agencyshort":"HPD","sqft":"1391","acres":"0.031933","vacant":"TRUE"}},{"type":"Feature","geometry":{"type":"Point","coordinates":[-73.90394478,40.66312137]},"properties":{"address":"        LIVONIA AVENUE","borough":"Brooklyn","bbl":"3038120020","zipcode":"11212","agency":"Housing Preservation and Development","agencyshort":"HPD","sqft":"1391","acres":"0.031933","vacant":"TRUE"}},{"type":"Feature","geometry":{"type":"Point","coordinates":[-73.90375418,40.66322936]},"properties":{"address":"372 LIVONIA AVENUE","borough":"Brooklyn","bbl":"3038120121","zipcode":"11212","agency":"Housing Preservation and Development","agencyshort":"HPD","sqft":"1391","acres":"0.031933","vacant":"TRUE"}},{"type":"Feature","geometry":{"type":"Point","coordinates":[-74.0896554,40.64460566]},"properties":{"address":"7 HIGHVIEW AVENUE","borough":"Staten Island","bbl":"5000590051","zipcode":"10301","agency":"Department of Citywide Administrative Services","agencyshort":"DCAS","sqft":"1400","acres":"0.03214","vacant":"TRUE"}},{"type":"Feature","geometry":{"type":"Point","coordinates":[-73.92662269,40.69711289]},"properties":{"address":"1277 DE KALB AVENUE","borough":"Brooklyn","bbl":"3032320063","zipcode":"11221","agency":"Housing Preservation and Development","agencyshort":"HPD","sqft":"1411","acres":"0.032392","vacant":"TRUE"}},{"type":"Feature","geometry":{"type":"Point","coordinates":[-73.92137375,40.67721531]},"properties":{"address":"1901 ATLANTIC AVENUE","borough":"Brooklyn","bbl":"3015560035","zipcode":"11233","agency":"Housing Preservation and Development","agencyshort":"HPD","sqft":"1413","acres":"0.032438","vacant":"TRUE"}},{"type":"Feature","geometry":{"type":"Point","coordinates":[-73.86029992,40.66513552]},"properties":{"address":"        WORTMAN AVENUE","borough":"Brooklyn","bbl":"3045360029","zipcode":"0","agency":"Housing Preservation and Development","agencyshort":"HPD","sqft":"1416","acres":"0.032507","vacant":"TRUE"}},{"type":"Feature","geometry":{"type":"Point","coordinates":[-73.92159945,40.66800726]},"properties":{"address":"        EAST NEW YORK AVENUE","borough":"Brooklyn","bbl":"3014770070","zipcode":"0","agency":"Department of Citywide Administrative Services","agencyshort":"DCAS","sqft":"1417","acres":"0.03253","vacant":"TRUE"}},{"type":"Feature","geometry":{"type":"Point","coordinates":[-74.00411383,40.68154316]},"properties":{"address":"307 COLUMBIA STREET","borough":"Brooklyn","bbl":"3003630010","zipcode":"11231","agency":"Housing Preservation and Development","agencyshort":"HPD","sqft":"1418","acres":"0.032553","vacant":"TRUE"}},{"type":"Feature","geometry":{"type":"Point","coordinates":[-73.93599078,40.67945039]},"properties":{"address":"1624 FULTON STREET","borough":"Brooklyn","bbl":"3016990039","zipcode":"11213","agency":"Housing Preservation and Development","agencyshort":"HPD","sqft":"1422","acres":"0.032645","vacant":"TRUE"}},{"type":"Feature","geometry":{"type":"Point","coordinates":[-73.76737624,40.5961059]},"properties":{"address":"FAR ROCKAWAY BOULEVARD","borough":"Queens","bbl":"4159500001","zipcode":"11691","agency":"Department of Parks & Recreation","agencyshort":"Parks","sqft":"1426","acres":"0.032736","vacant":"TRUE"}},{"type":"Feature","geometry":{"type":"Point","coordinates":[-73.9158558,40.6787677]},"properties":{"address":"        FULTON STREET","borough":"Brooklyn","bbl":"3015370029","zipcode":"11233","agency":"Housing Preservation and Development","agencyshort":"HPD","sqft":"1427","acres":"0.032759","vacant":"TRUE"}},{"type":"Feature","geometry":{"type":"Point","coordinates":[-74.0868087,40.57486994]},"properties":{"address":"JEFFERSON AVE","borough":"Staten Island","bbl":"5038560016","zipcode":"","agency":"Department of Citywide Administrative Services","agencyshort":"DCAS","sqft":"1428","acres":"0.032782","vacant":"TRUE"}},{"type":"Feature","geometry":{"type":"Point","coordinates":[-73.77538612,40.59943581]},"properties":{"address":"529 BEACH 43 STREET","borough":"Queens","bbl":"4159620081","zipcode":"11691","agency":"Housing Preservation and Development","agencyshort":"HPD","sqft":"1430","acres":"0.032828","vacant":"TRUE"}},{"type":"Feature","geometry":{"type":"Point","coordinates":[-73.77534217,40.59905199]},"properties":{"address":"DELMORE COURT","borough":"Queens","bbl":"4159620089","zipcode":"11691","agency":"Housing Preservation and Development","agencyshort":"HPD","sqft":"1430","acres":"0.032828","vacant":"TRUE"}},{"type":"Feature","geometry":{"type":"Point","coordinates":[-73.77537912,40.59937541]},"properties":{"address":"527 BEACH 43 STREET","borough":"Queens","bbl":"4159620091","zipcode":"11691","agency":"Housing Preservation and Development","agencyshort":"HPD","sqft":"1430","acres":"0.032828","vacant":"TRUE"}},{"type":"Feature","geometry":{"type":"Point","coordinates":[-73.92055543,40.67715986]},"properties":{"address":"1915A ATLANTIC AVENUE","borough":"Brooklyn","bbl":"3015570034","zipcode":"11233","agency":"Housing Preservation and Development","agencyshort":"HPD","sqft":"1440","acres":"0.033058","vacant":"TRUE"}},{"type":"Feature","geometry":{"type":"Point","coordinates":[-73.92037878,40.6771515]},"properties":{"address":"1921 ATLANTIC AVENUE","borough":"Brooklyn","bbl":"3015570031","zipcode":"11233","agency":"Housing Preservation and Development","agencyshort":"HPD","sqft":"1440","acres":"0.033058","vacant":"TRUE"}},{"type":"Feature","geometry":{"type":"Point","coordinates":[-73.92061311,40.67716264]},"properties":{"address":"1915 ATLANTIC AVENUE","borough":"Brooklyn","bbl":"3015570035","zipcode":"11233","agency":"Housing Preservation and Development","agencyshort":"HPD","sqft":"1440","acres":"0.033058","vacant":"TRUE"}},{"type":"Feature","geometry":{"type":"Point","coordinates":[-73.91929056,40.67371977]},"properties":{"address":"1461 ST MARK'S AVENUE","borough":"Brooklyn","bbl":"3014520087","zipcode":"11233","agency":"Housing Preservation and Development","agencyshort":"HPD","sqft":"1460","acres":"0.033517","vacant":"TRUE"}},{"type":"Feature","geometry":{"type":"Point","coordinates":[-73.91308391,40.8250692]},"properties":{"address":"916 MELROSE AVENUE","borough":"Bronx","bbl":"2023840005","zipcode":"10451","agency":"Housing Preservation and Development","agencyshort":"HPD","sqft":"1474","acres":"0.033838","vacant":"TRUE"}},{"type":"Feature","geometry":{"type":"Point","coordinates":[-74.01687395,40.62862564]},"properties":{"address":"        8 AVENUE","borough":"Brooklyn","bbl":"3059120100","zipcode":"11228","agency":"Department of Citywide Administrative Services","agencyshort":"DCAS","sqft":"1478","acres":"0.03393","vacant":"TRUE"}},{"type":"Feature","geometry":{"type":"Point","coordinates":[-73.92131967,40.67721253]},"properties":{"address":"1903 ATLANTIC AVENUE","borough":"Brooklyn","bbl":"3015560034","zipcode":"11233","agency":"Housing Preservation and Development","agencyshort":"HPD","sqft":"1479","acres":"0.033953","vacant":"TRUE"}},{"type":"Feature","geometry":{"type":"Point","coordinates":[-74.14566462,40.55298634]},"properties":{"address":"LOMAKA AVE","borough":"Staten Island","bbl":"5046330225","zipcode":"10308","agency":"Department of Citywide Administrative Services","agencyshort":"DCAS","sqft":"1480","acres":"0.033976","vacant":"TRUE"}},{"type":"Feature","geometry":{"type":"Point","coordinates":[-73.91007088,40.66211713]},"properties":{"address":"        LIVONIA AVENUE","borough":"Brooklyn","bbl":"3035880034","zipcode":"11212","agency":"Housing Preservation and Development","agencyshort":"HPD","sqft":"1494","acres":"0.034298","vacant":"TRUE"}},{"type":"Feature","geometry":{"type":"Point","coordinates":[-73.87387603,40.87453228]},"properties":{"address":"WEBSTER AVE","borough":"Bronx","bbl":"2033540064","zipcode":"10467","agency":"Department of Citywide Administrative Services","agencyshort":"DCAS","sqft":"1495","acres":"0.03432","vacant":"TRUE"}},{"type":"Feature","geometry":{"type":"Point","coordinates":[-73.88851864,40.75566578]},"properties":{"address":"79 STREET","borough":"Queens","bbl":"4011740134","zipcode":"","agency":"Department of Citywide Administrative Services","agencyshort":"DCAS","sqft":"1500","acres":"0.034435","vacant":"TRUE"}},{"type":"Feature","geometry":{"type":"Point","coordinates":[-73.928865,40.680625]},"properties":{"address":"358 MALCOLM X BOULEVARD","borough":"Brooklyn","bbl":"3016860048","zipcode":"11233","agency":"Housing Preservation and Development","agencyshort":"HPD","sqft":"1500","acres":"0.034435","vacant":"TRUE"}},{"type":"Feature","geometry":{"type":"Point","coordinates":[-73.91074992,40.66048637]},"properties":{"address":"158 RIVERDALE AVENUE","borough":"Brooklyn","bbl":"3036000031","zipcode":"11212","agency":"Housing Preservation and Development","agencyshort":"HPD","sqft":"1500","acres":"0.034435","vacant":"TRUE"}},{"type":"Feature","geometry":{"type":"Point","coordinates":[-73.87792212,40.67605755]},"properties":{"address":"871 GLENMORE AVENUE","borough":"Brooklyn","bbl":"3039920043","zipcode":"11208","agency":"Housing Preservation and Development","agencyshort":"HPD","sqft":"1500","acres":"0.034435","vacant":"TRUE"}},{"type":"Feature","geometry":{"type":"Point","coordinates":[-73.91047233,40.66052459]},"properties":{"address":"        RIVERDALE AVENUE","borough":"Brooklyn","bbl":"3036000134","zipcode":"11212","agency":"Housing Preservation and Development","agencyshort":"HPD","sqft":"1500","acres":"0.034435","vacant":"TRUE"}},{"type":"Feature","geometry":{"type":"Point","coordinates":[-73.91068142,40.66049456]},"properties":{"address":"160 RIVERDALE AVENUE","borough":"Brooklyn","bbl":"3036000032","zipcode":"11212","agency":"Housing Preservation and Development","agencyshort":"HPD","sqft":"1500","acres":"0.034435","vacant":"TRUE"}},{"type":"Feature","geometry":{"type":"Point","coordinates":[-73.91054083,40.6605164]},"properties":{"address":"166 RIVERDALE AVENUE","borough":"Brooklyn","bbl":"3036000034","zipcode":"11212","agency":"Housing Preservation and Development","agencyshort":"HPD","sqft":"1500","acres":"0.034435","vacant":"TRUE"}},{"type":"Feature","geometry":{"type":"Point","coordinates":[-73.901737,40.658195]},"properties":{"address":"95 NEW LOTS AVENUE","borough":"Brooklyn","bbl":"3038570027","zipcode":"11212","agency":"Housing Preservation and Development","agencyshort":"HPD","sqft":"1506","acres":"0.034573","vacant":"TRUE"}},{"type":"Feature","geometry":{"type":"Point","coordinates":[-73.901539,40.658291]},"properties":{"address":"103 NEW LOTS AVENUE","borough":"Brooklyn","bbl":"3038570024","zipcode":"11212","agency":"Department of Citywide Administrative Services","agencyshort":"DCAS","sqft":"1507","acres":"0.034596","vacant":"TRUE"}},{"type":"Feature","geometry":{"type":"Point","coordinates":[-74.14368089,40.63621102]},"properties":{"address":"JOHN STREET","borough":"Staten Island","bbl":"5011230115","zipcode":"10302","agency":"Department of Small Business Services","agencyshort":"SBS","sqft":"1511","acres":"0.034688","vacant":"TRUE"}},{"type":"Feature","geometry":{"type":"Point","coordinates":[-73.96972821,40.68418257]},"properties":{"address":"        FULTON STREET","borough":"Brooklyn","bbl":"3020080033","zipcode":"11238","agency":"Department of Education","agencyshort":"DOE","sqft":"1513","acres":"0.034734","vacant":"TRUE"}},{"type":"Feature","geometry":{"type":"Point","coordinates":[-73.91218039,40.67189458]},"properties":{"address":"        EAST NEW YORK AVENUE","borough":"Brooklyn","bbl":"3014650043","zipcode":"0","agency":"Department of Citywide Administrative Services","agencyshort":"DCAS","sqft":"1518","acres":"0.034848","vacant":"TRUE"}},{"type":"Feature","geometry":{"type":"Point","coordinates":[-73.82976912,40.65332093]},"properties":{"address":"DAVENPORT COURT","borough":"Queens","bbl":"4142431169","zipcode":"11414","agency":"Department of Citywide Administrative Services","agencyshort":"DCAS","sqft":"1520","acres":"0.034894","vacant":"TRUE"}},{"type":"Feature","geometry":{"type":"Point","coordinates":[-73.92073208,40.67716821]},"properties":{"address":"1911A ATLANTIC AVENUE","borough":"Brooklyn","bbl":"3015570037","zipcode":"11233","agency":"Housing Preservation and Development","agencyshort":"HPD","sqft":"1522","acres":"0.03494","vacant":"TRUE"}},{"type":"Feature","geometry":{"type":"Point","coordinates":[-73.92067079,40.67716543]},"properties":{"address":"1913 ATLANTIC AVENUE","borough":"Brooklyn","bbl":"3015570036","zipcode":"11233","agency":"Housing Preservation and Development","agencyshort":"HPD","sqft":"1522","acres":"0.03494","vacant":"TRUE"}},{"type":"Feature","geometry":{"type":"Point","coordinates":[-73.88233484,40.66788545]},"properties":{"address":"980 DUMONT AVENUE","borough":"Brooklyn","bbl":"3040810023","zipcode":"11208","agency":"Housing Preservation and Development","agencyshort":"HPD","sqft":"1533","acres":"0.035193","vacant":"TRUE"}},{"type":"Feature","geometry":{"type":"Point","coordinates":[-73.91356125,40.67163781]},"properties":{"address":"        PARK PLACE","borough":"Brooklyn","bbl":"3014650065","zipcode":"11233","agency":"Housing Preservation and Development","agencyshort":"HPD","sqft":"1537","acres":"0.035285","vacant":"TRUE"}},{"type":"Feature","geometry":{"type":"Point","coordinates":[-73.89382703,40.67446214]},"properties":{"address":"182 WYONA STREET","borough":"Brooklyn","bbl":"3037060025","zipcode":"11207","agency":"Housing Preservation and Development","agencyshort":"HPD","sqft":"1540","acres":"0.035354","vacant":"TRUE"}},{"type":"Feature","geometry":{"type":"Point","coordinates":[-73.77560967,40.59935389]},"properties":{"address":"DELMORE COURT","borough":"Queens","bbl":"4159620082","zipcode":"11691","agency":"Housing Preservation and Development","agencyshort":"HPD","sqft":"1540","acres":"0.035354","vacant":"TRUE"}},{"type":"Feature","geometry":{"type":"Point","coordinates":[-73.77568937,40.59934862]},"properties":{"address":"DELMORE COURT","borough":"Queens","bbl":"4159620083","zipcode":"11691","agency":"Housing Preservation and Development","agencyshort":"HPD","sqft":"1540","acres":"0.035354","vacant":"TRUE"}},{"type":"Feature","geometry":{"type":"Point","coordinates":[-73.77566031,40.59909822]},"properties":{"address":"DELMORE COURT","borough":"Queens","bbl":"4159620084","zipcode":"11691","agency":"Housing Preservation and Development","agencyshort":"HPD","sqft":"1540","acres":"0.035354","vacant":"TRUE"}},{"type":"Feature","geometry":{"type":"Point","coordinates":[-73.77558113,40.59910346]},"properties":{"address":"DELMORE COURT","borough":"Queens","bbl":"4159620085","zipcode":"11691","agency":"Housing Preservation and Development","agencyshort":"HPD","sqft":"1540","acres":"0.035354","vacant":"TRUE"}},{"type":"Feature","geometry":{"type":"Point","coordinates":[-73.7755022,40.59910871]},"properties":{"address":"DELMORE COURT","borough":"Queens","bbl":"4159620086","zipcode":"11691","agency":"Housing Preservation and Development","agencyshort":"HPD","sqft":"1540","acres":"0.035354","vacant":"TRUE"}},{"type":"Feature","geometry":{"type":"Point","coordinates":[-73.77553075,40.59935913]},"properties":{"address":"DELMORE COURT","borough":"Queens","bbl":"4159620090","zipcode":"11691","agency":"Housing Preservation and Development","agencyshort":"HPD","sqft":"1540","acres":"0.035354","vacant":"TRUE"}},{"type":"Feature","geometry":{"type":"Point","coordinates":[-73.9133397,40.67162269]},"properties":{"address":"        PARK PLACE","borough":"Brooklyn","bbl":"3014650062","zipcode":"0","agency":"Housing Preservation and Development","agencyshort":"HPD","sqft":"1543","acres":"0.035422","vacant":"TRUE"}},{"type":"Feature","geometry":{"type":"Point","coordinates":[-73.92736526,40.68086157]},"properties":{"address":"191 CHAUNCEY STREET","borough":"Brooklyn","bbl":"3016870073","zipcode":"11233","agency":"Housing Preservation and Development","agencyshort":"HPD","sqft":"1547","acres":"0.035514","vacant":"TRUE"}},{"type":"Feature","geometry":{"type":"Point","coordinates":[-73.901605,40.6582549]},"properties":{"address":"101 NEW LOTS AVENUE","borough":"Brooklyn","bbl":"3038570025","zipcode":"11212","agency":"Housing Preservation and Development","agencyshort":"HPD","sqft":"1549","acres":"0.03556","vacant":"TRUE"}},{"type":"Feature","geometry":{"type":"Point","coordinates":[-74.09828672,40.5791653]},"properties":{"address":"0 HAVEN AVENUE","borough":"Staten Island","bbl":"5036730016","zipcode":"10306","agency":"Department of Citywide Administrative Services","agencyshort":"DCAS","sqft":"1550","acres":"0.035583","vacant":"TRUE"}},{"type":"Feature","geometry":{"type":"Point","coordinates":[-73.92275501,40.67330158]},"properties":{"address":"        PROSPECT PLACE","borough":"Brooklyn","bbl":"3013630150","zipcode":"0","agency":"Housing Preservation and Development","agencyshort":"HPD","sqft":"1561","acres":"0.035836","vacant":"TRUE"}},{"type":"Feature","geometry":{"type":"Point","coordinates":[-74.09620243,40.5777472]},"properties":{"address":"395 HUNTER AVENUE","borough":"Staten Island","bbl":"5036840003","zipcode":"10306","agency":"Department of Citywide Administrative Services","agencyshort":"DCAS","sqft":"1580","acres":"0.036272","vacant":"TRUE"}},{"type":"Feature","geometry":{"type":"Point","coordinates":[-73.9514335,40.811678]},"properties":{"address":"330 ST NICHOLAS AVENUE","borough":"Manhattan","bbl":"1019530044","zipcode":"10027","agency":"Department of Citywide Administrative Services","agencyshort":"DCAS","sqft":"1596","acres":"0.036639","vacant":"TRUE"}},{"type":"Feature","geometry":{"type":"Point","coordinates":[-73.93934714,40.69009786]},"properties":{"address":"229 MARCUS GARVEY BLVD","borough":"Brooklyn","bbl":"3016140001","zipcode":"11221","agency":"Department of Citywide Administrative Services","agencyshort":"DCAS","sqft":"1600","acres":"0.036731","vacant":"TRUE"}},{"type":"Feature","geometry":{"type":"Point","coordinates":[-73.94604183,40.80945787]},"properties":{"address":"128 WEST 127 STREET","borough":"Manhattan","bbl":"1019110048","zipcode":"10027","agency":"Department of Citywide Administrative Services","agencyshort":"DCAS","sqft":"1600","acres":"0.036731","vacant":"TRUE"}},{"type":"Feature","geometry":{"type":"Point","coordinates":[-73.83254725,40.65633037]},"properties":{"address":"BAYVIEW AVENUE","borough":"Queens","bbl":"4142280218","zipcode":"","agency":"Department of Citywide Administrative Services","agencyshort":"DCAS","sqft":"1600","acres":"0.036731","vacant":"TRUE"}},{"type":"Feature","geometry":{"type":"Point","coordinates":[-73.82774333,40.65203079]},"properties":{"address":"104 STREET","borough":"Queens","bbl":"4142531513","zipcode":"11414","agency":"Department of Citywide Administrative Services","agencyshort":"DCAS","sqft":"1600","acres":"0.036731","vacant":"TRUE"}},{"type":"Feature","geometry":{"type":"Point","coordinates":[-73.82763564,40.65160031]},"properties":{"address":"16424 104 STREET","borough":"Queens","bbl":"4142541638","zipcode":"11414","agency":"Department of Citywide Administrative Services","agencyshort":"DCAS","sqft":"1600","acres":"0.036731","vacant":"TRUE"}},{"type":"Feature","geometry":{"type":"Point","coordinates":[-73.82764973,40.65165315]},"properties":{"address":"104 STREET","borough":"Queens","bbl":"4142541639","zipcode":"11414","agency":"Department of Citywide Administrative Services","agencyshort":"DCAS","sqft":"1600","acres":"0.036731","vacant":"TRUE"}},{"type":"Feature","geometry":{"type":"Point","coordinates":[-73.82762321,40.65154728]},"properties":{"address":"104 STREET","borough":"Queens","bbl":"4142542037","zipcode":"11414","agency":"Department of Citywide Administrative Services","agencyshort":"DCAS","sqft":"1600","acres":"0.036731","vacant":"TRUE"}},{"type":"Feature","geometry":{"type":"Point","coordinates":[-74.09086308,40.57699552]},"properties":{"address":"JEFFERSON AVENU","borough":"Staten Island","bbl":"5037650006","zipcode":"","agency":"Department of Citywide Administrative Services","agencyshort":"DCAS","sqft":"1600","acres":"0.036731","vacant":"TRUE"}},{"type":"Feature","geometry":{"type":"Point","coordinates":[-73.82766248,40.65170403]},"properties":{"address":"        104 STREET","borough":"Queens","bbl":"4142541640","zipcode":"11414","agency":"Department of Citywide Administrative Services","agencyshort":"DCAS","sqft":"1600","acres":"0.036731","vacant":"TRUE"}},{"type":"Feature","geometry":{"type":"Point","coordinates":[-73.82775702,40.65208468]},"properties":{"address":"        104 STREET","borough":"Queens","bbl":"4142531512","zipcode":"11414","agency":"Department of Citywide Administrative Services","agencyshort":"DCAS","sqft":"1600","acres":"0.036731","vacant":"TRUE"}},{"type":"Feature","geometry":{"type":"Point","coordinates":[-73.9167396,40.6785188]},"properties":{"address":"2034 FULTON STREET","borough":"Brooklyn","bbl":"3015490030","zipcode":"11233","agency":"Housing Preservation and Development","agencyshort":"HPD","sqft":"1600","acres":"0.036731","vacant":"TRUE"}},{"type":"Feature","geometry":{"type":"Point","coordinates":[-73.91653875,40.67473075]},"properties":{"address":"319 SARATOGA AVENUE","borough":"Brooklyn","bbl":"3014470008","zipcode":"11233","agency":"Housing Preservation and Development","agencyshort":"HPD","sqft":"1600","acres":"0.036731","vacant":"TRUE"}},{"type":"Feature","geometry":{"type":"Point","coordinates":[-73.90458296,40.66298466]},"properties":{"address":"        LIVONIA AVENUE","borough":"Brooklyn","bbl":"3038110023","zipcode":"11212","agency":"Housing Preservation and Development","agencyshort":"HPD","sqft":"1600","acres":"0.036731","vacant":"TRUE"}},{"type":"Feature","geometry":{"type":"Point","coordinates":[-73.916862,40.686637]},"properties":{"address":"1531 BROADWAY","borough":"Brooklyn","bbl":"3033870001","zipcode":"11221","agency":"Housing Preservation and Development","agencyshort":"HPD","sqft":"1600","acres":"0.036731","vacant":"TRUE"}},{"type":"Feature","geometry":{"type":"Point","coordinates":[-73.90452536,40.66311564]},"properties":{"address":"354 LIVONIA AVENUE","borough":"Brooklyn","bbl":"3038110124","zipcode":"11212","agency":"Housing Preservation and Development","agencyshort":"HPD","sqft":"1600","acres":"0.036731","vacant":"TRUE"}},{"type":"Feature","geometry":{"type":"Point","coordinates":[-73.90429815,40.66302834]},"properties":{"address":"        LIVONIA AVENUE","borough":"Brooklyn","bbl":"3038110026","zipcode":"11212","agency":"Housing Preservation and Development","agencyshort":"HPD","sqft":"1600","acres":"0.036731","vacant":"TRUE"}},{"type":"Feature","geometry":{"type":"Point","coordinates":[-73.90458382,40.66310718]},"properties":{"address":"352 LIVONIA AVENUE","borough":"Brooklyn","bbl":"3038110024","zipcode":"11212","agency":"Housing Preservation and Development","agencyshort":"HPD","sqft":"1600","acres":"0.036731","vacant":"TRUE"}},{"type":"Feature","geometry":{"type":"Point","coordinates":[-73.77712865,40.59846754]},"properties":{"address":"4506 BEACH 45 STREET","borough":"Queens","bbl":"4159640063","zipcode":"11691","agency":"Housing Preservation and Development","agencyshort":"HPD","sqft":"1600","acres":"0.036731","vacant":"TRUE"}},{"type":"Feature","geometry":{"type":"Point","coordinates":[-73.77727993,40.59845685]},"properties":{"address":"4510 BEACH 45 STREET","borough":"Queens","bbl":"4159640065","zipcode":"11691","agency":"Housing Preservation and Development","agencyshort":"HPD","sqft":"1600","acres":"0.036731","vacant":"TRUE"}},{"type":"Feature","geometry":{"type":"Point","coordinates":[-73.77632704,40.59912199]},"properties":{"address":"4404 HOUGH PLACE","borough":"Queens","bbl":"4159630047","zipcode":"11691","agency":"Housing Preservation and Development","agencyshort":"HPD","sqft":"1600","acres":"0.036731","vacant":"TRUE"}},{"type":"Feature","geometry":{"type":"Point","coordinates":[-73.77639548,40.59911663]},"properties":{"address":"4406 HOUGH PLACE","borough":"Queens","bbl":"4159630048","zipcode":"11691","agency":"Housing Preservation and Development","agencyshort":"HPD","sqft":"1600","acres":"0.036731","vacant":"TRUE"}},{"type":"Feature","geometry":{"type":"Point","coordinates":[-73.77706023,40.59847015]},"properties":{"address":"4504 NORTON AVENUE","borough":"Queens","bbl":"4159640062","zipcode":"11691","agency":"Housing Preservation and Development","agencyshort":"HPD","sqft":"1600","acres":"0.036731","vacant":"TRUE"}},{"type":"Feature","geometry":{"type":"Point","coordinates":[-73.77720429,40.59846219]},"properties":{"address":"45-08 BEACH 45 STREET","borough":"Queens","bbl":"4159640064","zipcode":"11691","agency":"Housing Preservation and Development","agencyshort":"HPD","sqft":"1600","acres":"0.036731","vacant":"TRUE"}},{"type":"Feature","geometry":{"type":"Point","coordinates":[-73.87946602,40.6715797]},"properties":{"address":"        BERRIMAN STREET","borough":"Brooklyn","bbl":"3040530024","zipcode":"11208","agency":"NY Police Department","agencyshort":"NYPD","sqft":"1600","acres":"0.036731","vacant":"TRUE"}},{"type":"Feature","geometry":{"type":"Point","coordinates":[-73.90475074,40.67169673]},"properties":{"address":"162 GLENMORE AVENUE","borough":"Brooklyn","bbl":"3037090016","zipcode":"11212","agency":"NYC Housing Authority","agencyshort":"NYCHA","sqft":"1600","acres":"0.036731","vacant":"TRUE"}},{"type":"Feature","geometry":{"type":"Point","coordinates":[-73.90908743,40.66114656]},"properties":{"address":"227 RIVERDALE AVENUE","borough":"Brooklyn","bbl":"3035890006","zipcode":"11212","agency":"Housing Preservation and Development","agencyshort":"HPD","sqft":"1603","acres":"0.0368","vacant":"TRUE"}},{"type":"Feature","geometry":{"type":"Point","coordinates":[-73.90922803,40.66112472]},"properties":{"address":"        RIVERDALE AVENUE","borough":"Brooklyn","bbl":"3035890008","zipcode":"11212","agency":"Housing Preservation and Development","agencyshort":"HPD","sqft":"1603","acres":"0.0368","vacant":"TRUE"}},{"type":"Feature","geometry":{"type":"Point","coordinates":[-73.90930013,40.6611138]},"properties":{"address":"219 RIVERDALE AVENUE","borough":"Brooklyn","bbl":"3035890009","zipcode":"11212","agency":"Housing Preservation and Development","agencyshort":"HPD","sqft":"1603","acres":"0.0368","vacant":"TRUE"}},{"type":"Feature","geometry":{"type":"Point","coordinates":[-73.90915953,40.66113564]},"properties":{"address":"225 RIVERDALE AVENUE","borough":"Brooklyn","bbl":"3035890007","zipcode":"11212","agency":"Housing Preservation and Development","agencyshort":"HPD","sqft":"1603","acres":"0.0368","vacant":"TRUE"}},{"type":"Feature","geometry":{"type":"Point","coordinates":[-73.90936863,40.66110287]},"properties":{"address":"        RIVERDALE AVENUE","borough":"Brooklyn","bbl":"3035890010","zipcode":"11212","agency":"Housing Preservation and Development","agencyshort":"HPD","sqft":"1603","acres":"0.0368","vacant":"TRUE"}},{"type":"Feature","geometry":{"type":"Point","coordinates":[-73.98628856,40.57584883]},"properties":{"address":"        WEST 19 STREET","borough":"Brooklyn","bbl":"3070600048","zipcode":"11224","agency":"Housing Preservation and Development","agencyshort":"HPD","sqft":"1635","acres":"0.037534","vacant":"TRUE"}},{"type":"Feature","geometry":{"type":"Point","coordinates":[-73.98616,40.575626]},"properties":{"address":"2938A WEST 19 STREET","borough":"Brooklyn","bbl":"3070600051","zipcode":"11224","agency":"Housing Preservation and Development","agencyshort":"HPD","sqft":"1635","acres":"0.037534","vacant":"TRUE"}},{"type":"Feature","geometry":{"type":"Point","coordinates":[-73.98622016,40.57585706]},"properties":{"address":"        WEST 19 STREET","borough":"Brooklyn","bbl":"3070600049","zipcode":"11224","agency":"Housing Preservation and Development","agencyshort":"HPD","sqft":"1635","acres":"0.037534","vacant":"TRUE"}},{"type":"Feature","geometry":{"type":"Point","coordinates":[-73.98616,40.575626]},"properties":{"address":"2938 WEST 19 STREET","borough":"Brooklyn","bbl":"3070600050","zipcode":"11224","agency":"Housing Preservation and Development","agencyshort":"HPD","sqft":"1635","acres":"0.037534","vacant":"TRUE"}},{"type":"Feature","geometry":{"type":"Point","coordinates":[-73.901668,40.658222]},"properties":{"address":"99 NEW LOTS AVENUE","borough":"Brooklyn","bbl":"3038570026","zipcode":"11212","agency":"Housing Preservation and Development","agencyshort":"HPD","sqft":"1637","acres":"0.03758","vacant":"TRUE"}},{"type":"Feature","geometry":{"type":"Point","coordinates":[-73.83058082,40.65604539]},"properties":{"address":"102 STREET","borough":"Queens","bbl":"4142280851","zipcode":"","agency":"Department of Citywide Administrative Services","agencyshort":"DCAS","sqft":"1645","acres":"0.037764","vacant":"TRUE"}},{"type":"Feature","geometry":{"type":"Point","coordinates":[-73.90330625,40.67528173]},"properties":{"address":"1762 EAST NEW YORK AVENUE","borough":"Brooklyn","bbl":"3036800029","zipcode":"11207","agency":"Economic Development Corporation","agencyshort":"EDC","sqft":"1650","acres":"0.037879","vacant":"TRUE"}},{"type":"Feature","geometry":{"type":"Point","coordinates":[-73.94405006,40.81105984]},"properties":{"address":"112 WEST 130 STREET","borough":"Manhattan","bbl":"1019140040","zipcode":"10027","agency":"Department of Citywide Administrative Services","agencyshort":"DCAS","sqft":"1665","acres":"0.038223","vacant":"TRUE"}},{"type":"Feature","geometry":{"type":"Point","coordinates":[-73.94104433,40.8153154]},"properties":{"address":"113 WEST 136 STREET","borough":"Manhattan","bbl":"1019210124","zipcode":"10030","agency":"Department of Citywide Administrative Services","agencyshort":"DCAS","sqft":"1665","acres":"0.038223","vacant":"TRUE"}},{"type":"Feature","geometry":{"type":"Point","coordinates":[-73.95139036,40.81138704]},"properties":{"address":"317 WEST 126 STREET","borough":"Manhattan","bbl":"1019530024","zipcode":"10027","agency":"Department of Citywide Administrative Services","agencyshort":"DCAS","sqft":"1665","acres":"0.038223","vacant":"TRUE"}},{"type":"Feature","geometry":{"type":"Point","coordinates":[-73.87804473,40.67604121]},"properties":{"address":"867 GLENMORE AVENUE","borough":"Brooklyn","bbl":"3039920045","zipcode":"11208","agency":"Housing Preservation and Development","agencyshort":"HPD","sqft":"1665","acres":"0.038223","vacant":"TRUE"}},{"type":"Feature","geometry":{"type":"Point","coordinates":[-73.93955787,40.8091692]},"properties":{"address":"2 EAST 130 STREET","borough":"Manhattan","bbl":"1017540068","zipcode":"10037","agency":"Housing Preservation and Development","agencyshort":"HPD","sqft":"1665","acres":"0.038223","vacant":"TRUE"}},{"type":"Feature","geometry":{"type":"Point","coordinates":[-73.9106505,40.68358085]},"properties":{"address":"9 MOFFAT STREET","borough":"Brooklyn","bbl":"3034380063","zipcode":"11207","agency":"Department of Citywide Administrative Services","agencyshort":"DCAS","sqft":"1667","acres":"0.038269","vacant":"TRUE"}},{"type":"Feature","geometry":{"type":"Point","coordinates":[-73.91549841,40.67629439]},"properties":{"address":"2150 ATLANTIC AVENUE","borough":"Brooklyn","bbl":"3014330019","zipcode":"11233","agency":"Housing Preservation and Development","agencyshort":"HPD","sqft":"1667","acres":"0.038269","vacant":"TRUE"}},{"type":"Feature","geometry":{"type":"Point","coordinates":[-73.91733727,40.67611457]},"properties":{"address":"        PACIFIC STREET","borough":"Brooklyn","bbl":"3014320043","zipcode":"11233","agency":"Housing Preservation and Development","agencyshort":"HPD","sqft":"1667","acres":"0.038269","vacant":"TRUE"}},{"type":"Feature","geometry":{"type":"Point","coordinates":[-73.90563473,40.67369566]},"properties":{"address":"183 SACKMAN STREET","borough":"Brooklyn","bbl":"3036770005","zipcode":"11212","agency":"Housing Preservation and Development","agencyshort":"HPD","sqft":"1667","acres":"0.038269","vacant":"TRUE"}},{"type":"Feature","geometry":{"type":"Point","coordinates":[-73.91739494,40.67611736]},"properties":{"address":"2103 PACIFIC STREET","borough":"Brooklyn","bbl":"3014320044","zipcode":"11233","agency":"Housing Preservation and Development","agencyshort":"HPD","sqft":"1667","acres":"0.038269","vacant":"TRUE"}},{"type":"Feature","geometry":{"type":"Point","coordinates":[-73.90567059,40.67383018]},"properties":{"address":"177 SACKMAN STREET","borough":"Brooklyn","bbl":"3036770008","zipcode":"11212","agency":"Housing Preservation and Development","agencyshort":"HPD","sqft":"1667","acres":"0.038269","vacant":"TRUE"}},{"type":"Feature","geometry":{"type":"Point","coordinates":[-73.90565983,40.67378626]},"properties":{"address":"179 SACKMAN STREET","borough":"Brooklyn","bbl":"3036770007","zipcode":"11212","agency":"Housing Preservation and Development","agencyshort":"HPD","sqft":"1667","acres":"0.038269","vacant":"TRUE"}},{"type":"Feature","geometry":{"type":"Point","coordinates":[-73.90965846,40.67597431]},"properties":{"address":"        ATLANTIC AVENUE","borough":"Brooklyn","bbl":"3014350022","zipcode":"11233","agency":"Housing Preservation and Development","agencyshort":"HPD","sqft":"1667","acres":"0.038269","vacant":"TRUE"}},{"type":"Feature","geometry":{"type":"Point","coordinates":[-73.90562398,40.67364899]},"properties":{"address":"185 SACKMAN STREET","borough":"Brooklyn","bbl":"3036770004","zipcode":"11212","agency":"Housing Preservation and Development","agencyshort":"HPD","sqft":"1667","acres":"0.038269","vacant":"TRUE"}},{"type":"Feature","geometry":{"type":"Point","coordinates":[-73.90564548,40.67373958]},"properties":{"address":"181 SACKMAN STREET","borough":"Brooklyn","bbl":"3036770006","zipcode":"11212","agency":"Housing Preservation and Development","agencyshort":"HPD","sqft":"1667","acres":"0.038269","vacant":"TRUE"}},{"type":"Feature","geometry":{"type":"Point","coordinates":[-73.90568134,40.67387411]},"properties":{"address":"175 SACKMAN STREET","borough":"Brooklyn","bbl":"3036770009","zipcode":"11212","agency":"Housing Preservation and Development","agencyshort":"HPD","sqft":"1667","acres":"0.038269","vacant":"TRUE"}},{"type":"Feature","geometry":{"type":"Point","coordinates":[-73.90569209,40.67391803]},"properties":{"address":"173 SACKMAN STREET","borough":"Brooklyn","bbl":"3036770010","zipcode":"11212","agency":"Housing Preservation and Development","agencyshort":"HPD","sqft":"1667","acres":"0.038269","vacant":"TRUE"}},{"type":"Feature","geometry":{"type":"Point","coordinates":[-73.91227055,40.82248003]},"properties":{"address":"463 EAST 159 STREET","borough":"Bronx","bbl":"2023810064","zipcode":"10451","agency":"Housing Preservation and Development","agencyshort":"HPD","sqft":"1667","acres":"0.038269","vacant":"TRUE"}},{"type":"Feature","geometry":{"type":"Point","coordinates":[-73.91342075,40.82430339]},"properties":{"address":"405 EAST 161 STREET","borough":"Bronx","bbl":"2023830048","zipcode":"10451","agency":"Housing Preservation and Development","agencyshort":"HPD","sqft":"1671","acres":"0.038361","vacant":"TRUE"}},{"type":"Feature","geometry":{"type":"Point","coordinates":[-73.79223692,40.68803921]},"properties":{"address":"113 AVENUE","borough":"Queens","bbl":"4121700033","zipcode":"11433","agency":"Housing Preservation and Development","agencyshort":"HPD","sqft":"1672","acres":"0.038384","vacant":"TRUE"}},{"type":"Feature","geometry":{"type":"Point","coordinates":[-73.94288486,40.74482787]},"properties":{"address":"COURT SQUARE","borough":"Queens","bbl":"4000840075","zipcode":"11101","agency":"Department of Citywide Administrative Services","agencyshort":"DCAS","sqft":"1680","acres":"0.038567","vacant":"TRUE"}},{"type":"Feature","geometry":{"type":"Point","coordinates":[-73.9018059,40.658173]},"properties":{"address":"93 NEW LOTS AVENUE","borough":"Brooklyn","bbl":"3038570001","zipcode":"11212","agency":"Housing Preservation and Development","agencyshort":"HPD","sqft":"1680","acres":"0.038567","vacant":"TRUE"}},{"type":"Feature","geometry":{"type":"Point","coordinates":[-73.95781187,40.80234845]},"properties":{"address":"313 WEST 112 STREET","borough":"Manhattan","bbl":"1018470013","zipcode":"10026","agency":"Housing Preservation and Development","agencyshort":"HPD","sqft":"1682","acres":"0.038613","vacant":"TRUE"}},{"type":"Feature","geometry":{"type":"Point","coordinates":[-73.91801219,40.66962915]},"properties":{"address":"        ST JOHNS PLACE","borough":"Brooklyn","bbl":"3014740030","zipcode":"11233","agency":"Housing Preservation and Development","agencyshort":"HPD","sqft":"1689","acres":"0.038774","vacant":"TRUE"}},{"type":"Feature","geometry":{"type":"Point","coordinates":[-73.93893131,40.68887479]},"properties":{"address":"        MARCUS GARVEY BLVD","borough":"Brooklyn","bbl":"3016240009","zipcode":"11221","agency":"Department of Citywide Administrative Services","agencyshort":"DCAS","sqft":"1700","acres":"0.039027","vacant":"TRUE"}},{"type":"Feature","geometry":{"type":"Point","coordinates":[-73.93894569,40.68892969]},"properties":{"address":"        MARCUS GARVEY BLVD","borough":"Brooklyn","bbl":"3016240010","zipcode":"11221","agency":"Department of Citywide Administrative Services","agencyshort":"DCAS","sqft":"1700","acres":"0.039027","vacant":"TRUE"}},{"type":"Feature","geometry":{"type":"Point","coordinates":[-73.938915,40.688806]},"properties":{"address":"259A MARCUS GARVEY BLVD","borough":"Brooklyn","bbl":"3016240008","zipcode":"11221","agency":"Department of Citywide Administrative Services","agencyshort":"DCAS","sqft":"1700","acres":"0.039027","vacant":"TRUE"}},{"type":"Feature","geometry":{"type":"Point","coordinates":[-73.939084,40.688773]},"properties":{"address":"261 MARCUS GARVEY BLVD","borough":"Brooklyn","bbl":"3016240007","zipcode":"11221","agency":"Department of Citywide Administrative Services","agencyshort":"DCAS","sqft":"1700","acres":"0.039027","vacant":"TRUE"}},{"type":"Feature","geometry":{"type":"Point","coordinates":[-73.98544614,40.57584109]},"properties":{"address":"        WEST 19 STREET","borough":"Brooklyn","bbl":"3070610040","zipcode":"11224","agency":"Housing Preservation and Development","agencyshort":"HPD","sqft":"1700","acres":"0.039027","vacant":"TRUE"}},{"type":"Feature","geometry":{"type":"Point","coordinates":[-73.91226677,40.67187837]},"properties":{"address":"        EAST NEW YORK AVENUE","borough":"Brooklyn","bbl":"3014650044","zipcode":"11212","agency":"Department of Citywide Administrative Services","agencyshort":"DCAS","sqft":"1709","acres":"0.039233","vacant":"TRUE"}},{"type":"Feature","geometry":{"type":"Point","coordinates":[-73.91363334,40.67164336]},"properties":{"address":"        PARK PLACE","borough":"Brooklyn","bbl":"3014650066","zipcode":"11233","agency":"Housing Preservation and Development","agencyshort":"HPD","sqft":"1714","acres":"0.039348","vacant":"TRUE"}},{"type":"Feature","geometry":{"type":"Point","coordinates":[-73.94452393,40.79296408]},"properties":{"address":"174 E 108 ST","borough":"Manhattan","bbl":"1016350043","zipcode":"10029","agency":"Housing Preservation and Development","agencyshort":"HPD","sqft":"1716","acres":"0.039394","vacant":"TRUE"}},{"type":"Feature","geometry":{"type":"Point","coordinates":[-73.99243459,40.72360926]},"properties":{"address":"271 BOWERY","borough":"Manhattan","bbl":"1004270014","zipcode":"10002","agency":"Housing Preservation and Development","agencyshort":"HPD","sqft":"1730","acres":"0.039715","vacant":"FALSE"}},{"type":"Feature","geometry":{"type":"Point","coordinates":[-73.91125917,40.8243592]},"properties":{"address":"915 BROOK AVENUE","borough":"Bronx","bbl":"2023840032","zipcode":"10451","agency":"Housing Preservation and Development","agencyshort":"HPD","sqft":"1733","acres":"0.039784","vacant":"TRUE"}},{"type":"Feature","geometry":{"type":"Point","coordinates":[-73.76503291,40.6913375]},"properties":{"address":"LOVINGHAM PLACE","borough":"Queens","bbl":"4124370075","zipcode":"11412","agency":"Department of Citywide Administrative Services","agencyshort":"DCAS","sqft":"1740","acres":"0.039945","vacant":"TRUE"}},{"type":"Feature","geometry":{"type":"Point","coordinates":[-73.83022612,40.65346866]},"properties":{"address":"DAVENPORT COURT","borough":"Queens","bbl":"4142431116","zipcode":"11414","agency":"Department of Citywide Administrative Services","agencyshort":"DCAS","sqft":"1746","acres":"0.040083","vacant":"TRUE"}},{"type":"Feature","geometry":{"type":"Point","coordinates":[-73.8285625,40.65034808]},"properties":{"address":"165 AVENUE","borough":"Queens","bbl":"4142552783","zipcode":"11414","agency":"Department of Citywide Administrative Services","agencyshort":"DCAS","sqft":"1746","acres":"0.040083","vacant":"TRUE"}},{"type":"Feature","geometry":{"type":"Point","coordinates":[-73.9460955,40.70193163]},"properties":{"address":"90 THROOP AVENUE","borough":"Brooklyn","bbl":"3022690030","zipcode":"11206","agency":"Department of Citywide Administrative Services","agencyshort":"DCAS","sqft":"1750","acres":"0.040174","vacant":"TRUE"}},{"type":"Feature","geometry":{"type":"Point","coordinates":[-73.95745875,40.72754587]},"properties":{"address":"61 FRANKLIN STREET","borough":"Brooklyn","bbl":"3025710021","zipcode":"11222","agency":"Department of Parks & Recreation","agencyshort":"Parks","sqft":"1750","acres":"0.040174","vacant":"TRUE"}},{"type":"Feature","geometry":{"type":"Point","coordinates":[-73.88325537,40.84218057]},"properties":{"address":"1976 DALY AVENUE","borough":"Bronx","bbl":"2031260017","zipcode":"10460","agency":"Fire Department","agencyshort":"FDNY","sqft":"1750","acres":"0.040174","vacant":"TRUE"}},{"type":"Feature","geometry":{"type":"Point","coordinates":[-73.946148,40.70197875]},"properties":{"address":"88 THROOP AVENUE","borough":"Brooklyn","bbl":"3022690029","zipcode":"11206","agency":"Housing Preservation and Development","agencyshort":"HPD","sqft":"1750","acres":"0.040174","vacant":"TRUE"}},{"type":"Feature","geometry":{"type":"Point","coordinates":[-73.946253,40.702073]},"properties":{"address":"84 THROOP AVENUE","borough":"Brooklyn","bbl":"3022690027","zipcode":"11206","agency":"Housing Preservation and Development","agencyshort":"HPD","sqft":"1750","acres":"0.040174","vacant":"TRUE"}},{"type":"Feature","geometry":{"type":"Point","coordinates":[-73.94630197,40.70193533]},"properties":{"address":"        THROOP AVENUE","borough":"Brooklyn","bbl":"3022690028","zipcode":"11206","agency":"Housing Preservation and Development","agencyshort":"HPD","sqft":"1750","acres":"0.040174","vacant":"TRUE"}},{"type":"Feature","geometry":{"type":"Point","coordinates":[-73.77785119,40.59776352]},"properties":{"address":"479 BEACH 46 STREET","borough":"Queens","bbl":"4159690042","zipcode":"11691","agency":"Housing Preservation and Development","agencyshort":"HPD","sqft":"1750","acres":"0.040174","vacant":"TRUE"}},{"type":"Feature","geometry":{"type":"Point","coordinates":[-73.879057,40.68044764]},"properties":{"address":"232 NORWOOD AVENUE","borough":"Brooklyn","bbl":"3039600045","zipcode":"11208","agency":"Housing Preservation and Development","agencyshort":"HPD","sqft":"1752","acres":"0.04022","vacant":"TRUE"}},{"type":"Feature","geometry":{"type":"Point","coordinates":[-73.73437749,40.76477165]},"properties":{"address":"MORENCI LANE","borough":"Queens","bbl":"4082350145","zipcode":"11362","agency":"Department of Citywide Administrative Services","agencyshort":"DCAS","sqft":"1754","acres":"0.040266","vacant":"TRUE"}},{"type":"Feature","geometry":{"type":"Point","coordinates":[-73.916068,40.694727]},"properties":{"address":"207 PALMETTO STREET","borough":"Brooklyn","bbl":"3033420041","zipcode":"11221","agency":"Housing Preservation and Development","agencyshort":"HPD","sqft":"1755","acres":"0.040289","vacant":"TRUE"}},{"type":"Feature","geometry":{"type":"Point","coordinates":[-73.91076331,40.82291254]},"properties":{"address":"881 BROOK AVENUE","borough":"Bronx","bbl":"2023650023","zipcode":"10451","agency":"Housing Preservation and Development","agencyshort":"HPD","sqft":"1764","acres":"0.040496","vacant":"TRUE"}},{"type":"Feature","geometry":{"type":"Point","coordinates":[-73.9141693,40.6713262]},"properties":{"address":"381 HOPKINSON AVENUE","borough":"Brooklyn","bbl":"3014690004","zipcode":"11233","agency":"NY Police Department","agencyshort":"NYPD","sqft":"1764","acres":"0.040496","vacant":"TRUE"}},{"type":"Feature","geometry":{"type":"Point","coordinates":[-73.92807884,40.67779336]},"properties":{"address":"13 HUNTERFLY PLACE","borough":"Brooklyn","bbl":"3017080067","zipcode":"11233","agency":"Housing Preservation and Development","agencyshort":"HPD","sqft":"1770","acres":"0.040634","vacant":"TRUE"}},{"type":"Feature","geometry":{"type":"Point","coordinates":[-74.00290976,40.68523767]},"properties":{"address":"204 COLUMBIA STREET","borough":"Brooklyn","bbl":"3003290039","zipcode":"11231","agency":"Housing Preservation and Development","agencyshort":"HPD","sqft":"1772","acres":"0.04068","vacant":"TRUE"}},{"type":"Feature","geometry":{"type":"Point","coordinates":[-73.885302,40.6732129]},"properties":{"address":"2358 PITKIN AVENUE","borough":"Brooklyn","bbl":"3040150022","zipcode":"11207","agency":"Housing Preservation and Development","agencyshort":"HPD","sqft":"1778","acres":"0.040817","vacant":"TRUE"}},{"type":"Feature","geometry":{"type":"Point","coordinates":[-73.91186205,40.8199189]},"properties":{"address":"501 EAST 156 STREET","borough":"Bronx","bbl":"2023600003","zipcode":"10451","agency":"Housing Preservation and Development","agencyshort":"HPD","sqft":"1780","acres":"0.040863","vacant":"TRUE"}},{"type":"Feature","geometry":{"type":"Point","coordinates":[-73.94551487,40.80891691]},"properties":{"address":"109 WEST 126 STREET","borough":"Manhattan","bbl":"1019110026","zipcode":"10027","agency":"Housing Preservation and Development","agencyshort":"HPD","sqft":"1782","acres":"0.040909","vacant":"TRUE"}},{"type":"Feature","geometry":{"type":"Point","coordinates":[-73.90711511,40.67202804]},"properties":{"address":"299 MOTHER GASTON BLVD","borough":"Brooklyn","bbl":"3036920006","zipcode":"11212","agency":"Housing Preservation and Development","agencyshort":"HPD","sqft":"1783","acres":"0.040932","vacant":"TRUE"}},{"type":"Feature","geometry":{"type":"Point","coordinates":[-73.95409931,40.68104551]},"properties":{"address":"        FULTON STREET","borough":"Brooklyn","bbl":"3020000043","zipcode":"11216","agency":"Housing Preservation and Development","agencyshort":"HPD","sqft":"1786","acres":"0.041001","vacant":"TRUE"}},{"type":"Feature","geometry":{"type":"Point","coordinates":[-73.91706905,40.67726993]},"properties":{"address":"17 LOUIS PLACE","borough":"Brooklyn","bbl":"3015610009","zipcode":"11233","agency":"Housing Preservation and Development","agencyshort":"HPD","sqft":"1788","acres":"0.041047","vacant":"TRUE"}},{"type":"Feature","geometry":{"type":"Point","coordinates":[-73.95893566,40.71378418]},"properties":{"address":"        GRAND STREET","borough":"Brooklyn","bbl":"3023820028","zipcode":"11211","agency":"Housing Preservation and Development","agencyshort":"HPD","sqft":"1794","acres":"0.041185","vacant":"TRUE"}},{"type":"Feature","geometry":{"type":"Point","coordinates":[-74.23004201,40.52040244]},"properties":{"address":"RICHMOND VALLEY RD","borough":"Staten Island","bbl":"5075630021","zipcode":"10309","agency":"Department of Citywide Administrative Services","agencyshort":"DCAS","sqft":"1798","acres":"0.041276","vacant":"TRUE"}},{"type":"Feature","geometry":{"type":"Point","coordinates":[-73.74618933,40.77742622]},"properties":{"address":"33 AVENUE","borough":"Queens","bbl":"4080370043","zipcode":"11363","agency":"Department of Citywide Administrative Services","agencyshort":"DCAS","sqft":"1800","acres":"0.041322","vacant":"TRUE"}},{"type":"Feature","geometry":{"type":"Point","coordinates":[-73.72776102,40.67765885]},"properties":{"address":"24315 130 ROAD","borough":"Queens","bbl":"4129190300","zipcode":"11422","agency":"Department of Citywide Administrative Services","agencyshort":"DCAS","sqft":"1800","acres":"0.041322","vacant":"TRUE"}},{"type":"Feature","geometry":{"type":"Point","coordinates":[-74.08971993,40.57674639]},"properties":{"address":"OLYMPIA BLVD","borough":"Staten Island","bbl":"5037660035","zipcode":"10305","agency":"Department of Citywide Administrative Services","agencyshort":"DCAS","sqft":"1800","acres":"0.041322","vacant":"TRUE"}},{"type":"Feature","geometry":{"type":"Point","coordinates":[-74.08450884,40.57695869]},"properties":{"address":"0 SEAVER AVENUE","borough":"Staten Island","bbl":"5038260006","zipcode":"10305","agency":"Department of Citywide Administrative Services","agencyshort":"DCAS","sqft":"1800","acres":"0.041322","vacant":"TRUE"}},{"type":"Feature","geometry":{"type":"Point","coordinates":[-73.91978756,40.67412635]},"properties":{"address":"398 HOWARD AVENUE","borough":"Brooklyn","bbl":"3014510040","zipcode":"11233","agency":"Housing Preservation and Development","agencyshort":"HPD","sqft":"1800","acres":"0.041322","vacant":"TRUE"}},{"type":"Feature","geometry":{"type":"Point","coordinates":[-73.91179033,40.68356]},"properties":{"address":"1712 BROADWAY","borough":"Brooklyn","bbl":"3015070041","zipcode":"11207","agency":"Housing Preservation and Development","agencyshort":"HPD","sqft":"1800","acres":"0.041322","vacant":"TRUE"}},{"type":"Feature","geometry":{"type":"Point","coordinates":[-73.9232269,40.67347074]},"properties":{"address":"        ST MARKS AVENUE","borough":"Brooklyn","bbl":"3013630031","zipcode":"0","agency":"Housing Preservation and Development","agencyshort":"HPD","sqft":"1800","acres":"0.041322","vacant":"TRUE"}},{"type":"Feature","geometry":{"type":"Point","coordinates":[-73.87818176,40.67602214]},"properties":{"address":"863 GLENMORE AVENUE","borough":"Brooklyn","bbl":"3039920047","zipcode":"11208","agency":"Housing Preservation and Development","agencyshort":"HPD","sqft":"1800","acres":"0.041322","vacant":"TRUE"}},{"type":"Feature","geometry":{"type":"Point","coordinates":[-73.92482108,40.67335846]},"properties":{"address":"175 BUFFALO AVENUE","borough":"Brooklyn","bbl":"3013630007","zipcode":"11213","agency":"Housing Preservation and Development","agencyshort":"HPD","sqft":"1800","acres":"0.041322","vacant":"TRUE"}},{"type":"Feature","geometry":{"type":"Point","coordinates":[-73.87640776,40.67032758]},"properties":{"address":"        BLAKE AVENUE","borough":"Brooklyn","bbl":"3040720027","zipcode":"11208","agency":"Housing Preservation and Development","agencyshort":"HPD","sqft":"1800","acres":"0.041322","vacant":"TRUE"}},{"type":"Feature","geometry":{"type":"Point","coordinates":[-73.89791531,40.65789286]},"properties":{"address":"1745 LINDEN BOULEVARD","borough":"Brooklyn","bbl":"3038660068","zipcode":"11207","agency":"Housing Preservation and Development","agencyshort":"HPD","sqft":"1800","acres":"0.041322","vacant":"TRUE"}},{"type":"Feature","geometry":{"type":"Point","coordinates":[-73.88205208,40.67082207]},"properties":{"address":"        LINWOOD STREET","borough":"Brooklyn","bbl":"3040500025","zipcode":"11208","agency":"Housing Preservation and Development","agencyshort":"HPD","sqft":"1800","acres":"0.041322","vacant":"TRUE"}},{"type":"Feature","geometry":{"type":"Point","coordinates":[-73.9170089,40.687089]},"properties":{"address":"1032 JEFFERSON AVENUE","borough":"Brooklyn","bbl":"3033870011","zipcode":"11221","agency":"Housing Preservation and Development","agencyshort":"HPD","sqft":"1800","acres":"0.041322","vacant":"TRUE"}},{"type":"Feature","geometry":{"type":"Point","coordinates":[-73.87654839,40.67030577]},"properties":{"address":"1118 BLAKE AVENUE","borough":"Brooklyn","bbl":"3040720025","zipcode":"11208","agency":"Housing Preservation and Development","agencyshort":"HPD","sqft":"1800","acres":"0.041322","vacant":"TRUE"}},{"type":"Feature","geometry":{"type":"Point","coordinates":[-73.885229,40.67322]},"properties":{"address":"2362 PITKIN AVENUE","borough":"Brooklyn","bbl":"3040150023","zipcode":"11207","agency":"Housing Preservation and Development","agencyshort":"HPD","sqft":"1800","acres":"0.041322","vacant":"TRUE"}},{"type":"Feature","geometry":{"type":"Point","coordinates":[-73.916969,40.68713]},"properties":{"address":"1034 JEFFERSON AVENUE","borough":"Brooklyn","bbl":"3033870012","zipcode":"11221","agency":"Housing Preservation and Development","agencyshort":"HPD","sqft":"1800","acres":"0.041322","vacant":"TRUE"}},{"type":"Feature","geometry":{"type":"Point","coordinates":[-73.9500456,40.70190957]},"properties":{"address":"        WALTON STREET","borough":"Brooklyn","bbl":"3022450149","zipcode":"11206","agency":"Housing Preservation and Development","agencyshort":"HPD","sqft":"1813","acres":"0.041621","vacant":"TRUE"}},{"type":"Feature","geometry":{"type":"Point","coordinates":[-73.92636278,40.69734328]},"properties":{"address":"1291 DE KALB AVENUE","borough":"Brooklyn","bbl":"3032320057","zipcode":"11221","agency":"NY Police Department","agencyshort":"NYPD","sqft":"1816","acres":"0.04169","vacant":"TRUE"}},{"type":"Feature","geometry":{"type":"Point","coordinates":[-73.76686891,40.67950648]},"properties":{"address":"130 AVENUE","borough":"Queens","bbl":"4125350060","zipcode":"11434","agency":"Department of Citywide Administrative Services","agencyshort":"DCAS","sqft":"1817","acres":"0.041713","vacant":"TRUE"}},{"type":"Feature","geometry":{"type":"Point","coordinates":[-73.91122033,40.82429898]},"properties":{"address":"913 BROOK AVENUE","borough":"Bronx","bbl":"2023840033","zipcode":"10451","agency":"Housing Preservation and Development","agencyshort":"HPD","sqft":"1817","acres":"0.041713","vacant":"TRUE"}},{"type":"Feature","geometry":{"type":"Point","coordinates":[-73.91118066,40.82423582]},"properties":{"address":"911 BROOK AVENUE","borough":"Bronx","bbl":"2023840034","zipcode":"10451","agency":"Housing Preservation and Development","agencyshort":"HPD","sqft":"1818","acres":"0.041736","vacant":"TRUE"}},{"type":"Feature","geometry":{"type":"Point","coordinates":[-73.90322014,40.67530258]},"properties":{"address":"1764 EAST NEW YORK AVENUE","borough":"Brooklyn","bbl":"3036800129","zipcode":"11207","agency":"Economic Development Corporation","agencyshort":"EDC","sqft":"1819","acres":"0.041758","vacant":"TRUE"}},{"type":"Feature","geometry":{"type":"Point","coordinates":[-73.87967595,40.74122006]},"properties":{"address":"5  AVENUE","borough":"Queens","bbl":"4015790101","zipcode":"11373","agency":"Department of Transportation","agencyshort":"DOT","sqft":"1820","acres":"0.041781","vacant":"TRUE"}},{"type":"Feature","geometry":{"type":"Point","coordinates":[-73.91887059,40.66925921]},"properties":{"address":"1717 LINCOLN PLACE","borough":"Brooklyn","bbl":"3014740065","zipcode":"11233","agency":"Housing Preservation and Development","agencyshort":"HPD","sqft":"1836","acres":"0.042149","vacant":"TRUE"}},{"type":"Feature","geometry":{"type":"Point","coordinates":[-73.91231829,40.67205717]},"properties":{"address":"        PROSPECT PLACE","borough":"Brooklyn","bbl":"3014650029","zipcode":"0","agency":"Department of Citywide Administrative Services","agencyshort":"DCAS","sqft":"1840","acres":"0.042241","vacant":"TRUE"}},{"type":"Feature","geometry":{"type":"Point","coordinates":[-73.9274505,40.68536579]},"properties":{"address":"687A HANCOCK STREET","borough":"Brooklyn","bbl":"3016570059","zipcode":"11233","agency":"Housing Preservation and Development","agencyshort":"HPD","sqft":"1850","acres":"0.04247","vacant":"TRUE"}},{"type":"Feature","geometry":{"type":"Point","coordinates":[-73.91212367,40.683748]},"properties":{"address":"1696 BROADWAY","borough":"Brooklyn","bbl":"3015070035","zipcode":"11207","agency":"Housing Preservation and Development","agencyshort":"HPD","sqft":"1852","acres":"0.042516","vacant":"TRUE"}},{"type":"Feature","geometry":{"type":"Point","coordinates":[-73.87378048,40.87466545]},"properties":{"address":"WEBSTER AVE","borough":"Bronx","bbl":"2033540066","zipcode":"10467","agency":"Department of Citywide Administrative Services","agencyshort":"DCAS","sqft":"1855","acres":"0.042585","vacant":"TRUE"}},{"type":"Feature","geometry":{"type":"Point","coordinates":[-73.928499,40.693262]},"properties":{"address":"1151 BROADWAY","borough":"Brooklyn","bbl":"3032410063","zipcode":"11221","agency":"Department of Education","agencyshort":"DOE","sqft":"1859","acres":"0.042677","vacant":"TRUE"}},{"type":"Feature","geometry":{"type":"Point","coordinates":[-73.94658093,40.70037643]},"properties":{"address":"665 FLUSHING AVENUE","borough":"Brooklyn","bbl":"3022720051","zipcode":"11206","agency":"Housing Preservation and Development","agencyshort":"HPD","sqft":"1860","acres":"0.0427","vacant":"TRUE"}},{"type":"Feature","geometry":{"type":"Point","coordinates":[-73.92760993,40.67468049]},"properties":{"address":"1662 BERGEN STREET","borough":"Brooklyn","bbl":"3013560006","zipcode":"11213","agency":"Housing Preservation and Development","agencyshort":"HPD","sqft":"1866","acres":"0.042837","vacant":"TRUE"}},{"type":"Feature","geometry":{"type":"Point","coordinates":[-73.91890305,40.68110569]},"properties":{"address":"261 MARION STREET","borough":"Brooklyn","bbl":"3015140059","zipcode":"11233","agency":"Housing Preservation and Development","agencyshort":"HPD","sqft":"1875","acres":"0.043044","vacant":"TRUE"}},{"type":"Feature","geometry":{"type":"Point","coordinates":[-73.88195186,40.67245786]},"properties":{"address":"527 LINWOOD STREET","borough":"Brooklyn","bbl":"3040350013","zipcode":"11208","agency":"Housing Preservation and Development","agencyshort":"HPD","sqft":"1875","acres":"0.043044","vacant":"TRUE"}},{"type":"Feature","geometry":{"type":"Point","coordinates":[-73.82928315,40.6573495]},"properties":{"address":"HAWTREE CREEK R","borough":"Queens","bbl":"4142340517","zipcode":"11414","agency":"Department of Citywide Administrative Services","agencyshort":"DCAS","sqft":"1885","acres":"0.043274","vacant":"TRUE"}},{"type":"Feature","geometry":{"type":"Point","coordinates":[-73.89416722,40.67363079]},"properties":{"address":"437 GLENMORE AVENUE","borough":"Brooklyn","bbl":"3037060001","zipcode":"11207","agency":"Housing Preservation and Development","agencyshort":"HPD","sqft":"1885","acres":"0.043274","vacant":"TRUE"}},{"type":"Feature","geometry":{"type":"Point","coordinates":[-73.90381179,40.8203324]},"properties":{"address":"840 TINTON AVENUE","borough":"Bronx","bbl":"2026670001","zipcode":"10456","agency":"Housing Preservation and Development","agencyshort":"HPD","sqft":"1886","acres":"0.043297","vacant":"TRUE"}},{"type":"Feature","geometry":{"type":"Point","coordinates":[-73.93043024,40.62174907]},"properties":{"address":"        SCHENECTADY AVENUE","borough":"Brooklyn","bbl":"3078440072","zipcode":"11234","agency":"Department of Citywide Administrative Services","agencyshort":"DCAS","sqft":"1887","acres":"0.04332","vacant":"TRUE"}},{"type":"Feature","geometry":{"type":"Point","coordinates":[-74.09182973,40.58385652]},"properties":{"address":"DONGAN HILLS AVE","borough":"Staten Island","bbl":"5036510089","zipcode":"10305","agency":"Department of Citywide Administrative Services","agencyshort":"DCAS","sqft":"1890","acres":"0.043388","vacant":"TRUE"}},{"type":"Feature","geometry":{"type":"Point","coordinates":[-73.95435089,40.80335445]},"properties":{"address":"227 WEST 115 STREET","borough":"Manhattan","bbl":"1018310016","zipcode":"10026","agency":"Department of Citywide Administrative Services","agencyshort":"DCAS","sqft":"1892","acres":"0.043434","vacant":"TRUE"}},{"type":"Feature","geometry":{"type":"Point","coordinates":[-74.09184493,40.57609354]},"properties":{"address":"GRIMSBY STREET","borough":"Staten Island","bbl":"5037900016","zipcode":"10306","agency":"Department of Citywide Administrative Services","agencyshort":"DCAS","sqft":"1900","acres":"0.043618","vacant":"TRUE"}},{"type":"Feature","geometry":{"type":"Point","coordinates":[-74.09090035,40.57547333]},"properties":{"address":"947 OLYMPIA BOULEVARD","borough":"Staten Island","bbl":"5037910054","zipcode":"10306","agency":"Department of Citywide Administrative Services","agencyshort":"DCAS","sqft":"1900","acres":"0.043618","vacant":"TRUE"}},{"type":"Feature","geometry":{"type":"Point","coordinates":[-74.0896948,40.57485355]},"properties":{"address":"COLONY AVE","borough":"Staten Island","bbl":"5037930014","zipcode":"","agency":"Department of Citywide Administrative Services","agencyshort":"DCAS","sqft":"1900","acres":"0.043618","vacant":"TRUE"}},{"type":"Feature","geometry":{"type":"Point","coordinates":[-74.08921067,40.5753545]},"properties":{"address":"122 COLONY AVE","borough":"Staten Island","bbl":"5037930028","zipcode":"","agency":"Department of Citywide Administrative Services","agencyshort":"DCAS","sqft":"1900","acres":"0.043618","vacant":"TRUE"}},{"type":"Feature","geometry":{"type":"Point","coordinates":[-74.08916858,40.57539905]},"properties":{"address":"COLONY AVE","borough":"Staten Island","bbl":"5037930029","zipcode":"","agency":"Department of Citywide Administrative Services","agencyshort":"DCAS","sqft":"1900","acres":"0.043618","vacant":"TRUE"}},{"type":"Feature","geometry":{"type":"Point","coordinates":[-74.08842735,40.57456079]},"properties":{"address":"PATTERSON AVENU","borough":"Staten Island","bbl":"5037940056","zipcode":"10306","agency":"Department of Citywide Administrative Services","agencyshort":"DCAS","sqft":"1900","acres":"0.043618","vacant":"TRUE"}},{"type":"Feature","geometry":{"type":"Point","coordinates":[-73.94443975,40.6904421]},"properties":{"address":"716 LAFAYETTE AVENUE","borough":"Brooklyn","bbl":"3017910017","zipcode":"11221","agency":"Housing Preservation and Development","agencyshort":"HPD","sqft":"1900","acres":"0.043618","vacant":"TRUE"}},{"type":"Feature","geometry":{"type":"Point","coordinates":[-73.77593036,40.59956519]},"properties":{"address":"BEACH 44 STREET","borough":"Queens","bbl":"4159620011","zipcode":"11691","agency":"Housing Preservation and Development","agencyshort":"HPD","sqft":"1901","acres":"0.043641","vacant":"TRUE"}},{"type":"Feature","geometry":{"type":"Point","coordinates":[-73.77790889,40.59493964]},"properties":{"address":"BEACH 47 STREET","borough":"Queens","bbl":"4158380020","zipcode":"11691","agency":"Housing Preservation and Development","agencyshort":"HPD","sqft":"1902","acres":"0.043664","vacant":"TRUE"}},{"type":"Feature","geometry":{"type":"Point","coordinates":[-73.77790398,40.59488432]},"properties":{"address":"350 BEACH 47 STREET","borough":"Queens","bbl":"4158380019","zipcode":"11691","agency":"Housing Preservation and Development","agencyshort":"HPD","sqft":"1902","acres":"0.043664","vacant":"TRUE"}},{"type":"Feature","geometry":{"type":"Point","coordinates":[-73.77718071,40.59581615]},"properties":{"address":"406 BEACH 46 STREET","borough":"Queens","bbl":"4159680005","zipcode":"11691","agency":"Housing Preservation and Development","agencyshort":"HPD","sqft":"1902","acres":"0.043664","vacant":"TRUE"}},{"type":"Feature","geometry":{"type":"Point","coordinates":[-73.90180531,40.90406839]},"properties":{"address":"FARADAY AVE","borough":"Bronx","bbl":"2058481783","zipcode":"10471","agency":"Department of Citywide Administrative Services","agencyshort":"DCAS","sqft":"1904","acres":"0.04371","vacant":"TRUE"}},{"type":"Feature","geometry":{"type":"Point","coordinates":[-73.77647184,40.59997316]},"properties":{"address":"553 BEACH 44 STREET","borough":"Queens","bbl":"4159630032","zipcode":"11691","agency":"Housing Preservation and Development","agencyshort":"HPD","sqft":"1915","acres":"0.043962","vacant":"TRUE"}},{"type":"Feature","geometry":{"type":"Point","coordinates":[-73.77646482,40.59991825]},"properties":{"address":"551 BEACH 44 STREET","borough":"Queens","bbl":"4159630033","zipcode":"11691","agency":"Housing Preservation and Development","agencyshort":"HPD","sqft":"1915","acres":"0.043962","vacant":"TRUE"}},{"type":"Feature","geometry":{"type":"Point","coordinates":[-73.77643128,40.59964161]},"properties":{"address":"BEACH 44 STREET","borough":"Queens","bbl":"4159630038","zipcode":"11691","agency":"Housing Preservation and Development","agencyshort":"HPD","sqft":"1915","acres":"0.043962","vacant":"TRUE"}},{"type":"Feature","geometry":{"type":"Point","coordinates":[-73.77642491,40.59958834]},"properties":{"address":"BEACH 44 STREET","borough":"Queens","bbl":"4159630039","zipcode":"11691","agency":"Housing Preservation and Development","agencyshort":"HPD","sqft":"1915","acres":"0.043962","vacant":"TRUE"}},{"type":"Feature","geometry":{"type":"Point","coordinates":[-73.77641836,40.59953367]},"properties":{"address":"BEACH 44 STREET","borough":"Queens","bbl":"4159630040","zipcode":"11691","agency":"Housing Preservation and Development","agencyshort":"HPD","sqft":"1915","acres":"0.043962","vacant":"TRUE"}},{"type":"Feature","geometry":{"type":"Point","coordinates":[-73.77641182,40.59947901]},"properties":{"address":"BEACH 44 STREET","borough":"Queens","bbl":"4159630041","zipcode":"11691","agency":"Housing Preservation and Development","agencyshort":"HPD","sqft":"1915","acres":"0.043962","vacant":"TRUE"}},{"type":"Feature","geometry":{"type":"Point","coordinates":[-73.77639871,40.59936953]},"properties":{"address":"BEACH 44 STREET","borough":"Queens","bbl":"4159630043","zipcode":"11691","agency":"Housing Preservation and Development","agencyshort":"HPD","sqft":"1915","acres":"0.043962","vacant":"TRUE"}},{"type":"Feature","geometry":{"type":"Point","coordinates":[-73.77638422,40.59925385]},"properties":{"address":"527 BEACH 44 STREET","borough":"Queens","bbl":"4159630045","zipcode":"11691","agency":"Housing Preservation and Development","agencyshort":"HPD","sqft":"1915","acres":"0.043962","vacant":"TRUE"}},{"type":"Feature","geometry":{"type":"Point","coordinates":[-73.77569097,40.59748185]},"properties":{"address":"BEACH 44 STREET","borough":"Queens","bbl":"4159650034","zipcode":"11691","agency":"Housing Preservation and Development","agencyshort":"HPD","sqft":"1915","acres":"0.043962","vacant":"TRUE"}},{"type":"Feature","geometry":{"type":"Point","coordinates":[-73.77569718,40.59753654]},"properties":{"address":"BEACH 44 STREET","borough":"Queens","bbl":"4159650035","zipcode":"11691","agency":"Housing Preservation and Development","agencyshort":"HPD","sqft":"1915","acres":"0.043962","vacant":"TRUE"}},{"type":"Feature","geometry":{"type":"Point","coordinates":[-73.77622316,40.59788388]},"properties":{"address":"477 BEACH 44 STREET","borough":"Queens","bbl":"4159660061","zipcode":"11691","agency":"Housing Preservation and Development","agencyshort":"HPD","sqft":"1915","acres":"0.043962","vacant":"TRUE"}},{"type":"Feature","geometry":{"type":"Point","coordinates":[-73.77613565,40.59712296]},"properties":{"address":"BEACH 44 STREET","borough":"Queens","bbl":"4159660075","zipcode":"11691","agency":"Housing Preservation and Development","agencyshort":"HPD","sqft":"1915","acres":"0.043962","vacant":"TRUE"}},{"type":"Feature","geometry":{"type":"Point","coordinates":[-73.77612867,40.59706849]},"properties":{"address":"447 BEACH 44 STREET","borough":"Queens","bbl":"4159660076","zipcode":"11691","agency":"Housing Preservation and Development","agencyshort":"HPD","sqft":"1915","acres":"0.043962","vacant":"TRUE"}},{"type":"Feature","geometry":{"type":"Point","coordinates":[-73.77611122,40.59690376]},"properties":{"address":"441 BEACH 44 STREET","borough":"Queens","bbl":"4159660079","zipcode":"11691","agency":"Housing Preservation and Development","agencyshort":"HPD","sqft":"1915","acres":"0.043962","vacant":"TRUE"}},{"type":"Feature","geometry":{"type":"Point","coordinates":[-73.7764578,40.59986334]},"properties":{"address":"549 BEACH 44 STREET","borough":"Queens","bbl":"4159630034","zipcode":"11691","agency":"Housing Preservation and Development","agencyshort":"HPD","sqft":"1915","acres":"0.043962","vacant":"TRUE"}},{"type":"Feature","geometry":{"type":"Point","coordinates":[-73.77645078,40.59980843]},"properties":{"address":"547 BEACH 44 STREET","borough":"Queens","bbl":"4159630035","zipcode":"11691","agency":"Housing Preservation and Development","agencyshort":"HPD","sqft":"1915","acres":"0.043962","vacant":"TRUE"}},{"type":"Feature","geometry":{"type":"Point","coordinates":[-73.77644376,40.59975352]},"properties":{"address":"545 BEACH 44 STREET","borough":"Queens","bbl":"4159630036","zipcode":"11691","agency":"Housing Preservation and Development","agencyshort":"HPD","sqft":"1915","acres":"0.043962","vacant":"TRUE"}},{"type":"Feature","geometry":{"type":"Point","coordinates":[-73.77640527,40.59942434]},"properties":{"address":"BEACH 44 STREET","borough":"Queens","bbl":"4159630042","zipcode":"11691","agency":"Housing Preservation and Development","agencyshort":"HPD","sqft":"1915","acres":"0.043962","vacant":"TRUE"}},{"type":"Feature","geometry":{"type":"Point","coordinates":[-73.77639123,40.59931151]},"properties":{"address":"529 BEACH 44 STREET","borough":"Queens","bbl":"4159630044","zipcode":"11691","agency":"Housing Preservation and Development","agencyshort":"HPD","sqft":"1915","acres":"0.043962","vacant":"TRUE"}},{"type":"Feature","geometry":{"type":"Point","coordinates":[-73.77672639,40.59923256]},"properties":{"address":"528 BEACH 45 STREET","borough":"Queens","bbl":"4159630055","zipcode":"11691","agency":"Housing Preservation and Development","agencyshort":"HPD","sqft":"1915","acres":"0.043962","vacant":"TRUE"}},{"type":"Feature","geometry":{"type":"Point","coordinates":[-73.7758035,40.59846496]},"properties":{"address":"498 BEACH 44 STREET","borough":"Queens","bbl":"4159650051","zipcode":"11691","agency":"Housing Preservation and Development","agencyshort":"HPD","sqft":"1915","acres":"0.043962","vacant":"TRUE"}},{"type":"Feature","geometry":{"type":"Point","coordinates":[-73.77660042,40.59813713]},"properties":{"address":"502 BEACH 45 STREET","borough":"Queens","bbl":"4159660027","zipcode":"11691","agency":"Housing Preservation and Development","agencyshort":"HPD","sqft":"1915","acres":"0.043962","vacant":"TRUE"}},{"type":"Feature","geometry":{"type":"Point","coordinates":[-73.77661086,40.5982442]},"properties":{"address":"BEACH 45 STREET","borough":"Queens","bbl":"4159660029","zipcode":"11691","agency":"Housing Preservation and Development","agencyshort":"HPD","sqft":"1915","acres":"0.043962","vacant":"TRUE"}},{"type":"Feature","geometry":{"type":"Point","coordinates":[-73.77611654,40.59695793]},"properties":{"address":"BEACH 44 STREET","borough":"Queens","bbl":"4159660078","zipcode":"11691","agency":"Housing Preservation and Development","agencyshort":"HPD","sqft":"1915","acres":"0.043962","vacant":"TRUE"}},{"type":"Feature","geometry":{"type":"Point","coordinates":[-73.89953261,40.65709164]},"properties":{"address":"        LINDEN BOULEVARD","borough":"Brooklyn","bbl":"3038710051","zipcode":"0","agency":"Human Resources Administration","agencyshort":"HRA","sqft":"1918","acres":"0.044031","vacant":"TRUE"}},{"type":"Feature","geometry":{"type":"Point","coordinates":[-73.91060425,40.81759315]},"properties":{"address":"675 EAGLE AVENUE","borough":"Bronx","bbl":"2026170070","zipcode":"10455","agency":"Housing Preservation and Development","agencyshort":"HPD","sqft":"1931","acres":"0.04433","vacant":"TRUE"}},{"type":"Feature","geometry":{"type":"Point","coordinates":[-73.99882149,40.57498861]},"properties":{"address":"3216 MERMAID AVENUE","borough":"Brooklyn","bbl":"3070480006","zipcode":"11224","agency":"Housing Preservation and Development","agencyshort":"HPD","sqft":"1933","acres":"0.044376","vacant":"TRUE"}},{"type":"Feature","geometry":{"type":"Point","coordinates":[-73.90572836,40.67886415]},"properties":{"address":"99 TRUXTON STREET","borough":"Brooklyn","bbl":"3015440053","zipcode":"11233","agency":"Housing Preservation and Development","agencyshort":"HPD","sqft":"1950","acres":"0.044766","vacant":"TRUE"}},{"type":"Feature","geometry":{"type":"Point","coordinates":[-73.91808431,40.66961548]},"properties":{"address":"        ST JOHNS PLACE","borough":"Brooklyn","bbl":"3014740029","zipcode":"11233","agency":"Housing Preservation and Development","agencyshort":"HPD","sqft":"1953","acres":"0.044835","vacant":"TRUE"}},{"type":"Feature","geometry":{"type":"Point","coordinates":[-73.92443202,40.67311392]},"properties":{"address":"1563 PROSPECT PLACE","borough":"Brooklyn","bbl":"3013630090","zipcode":"11233","agency":"Housing Preservation and Development","agencyshort":"HPD","sqft":"1954","acres":"0.044858","vacant":"TRUE"}},{"type":"Feature","geometry":{"type":"Point","coordinates":[-73.99150706,40.57596724]},"properties":{"address":"2427 MERMAID AVENUE","borough":"Brooklyn","bbl":"3070140053","zipcode":"11224","agency":"Housing Preservation and Development","agencyshort":"HPD","sqft":"1958","acres":"0.044949","vacant":"TRUE"}},{"type":"Feature","geometry":{"type":"Point","coordinates":[-73.95481942,40.70908635]},"properties":{"address":"        KEAP STREET","borough":"Brooklyn","bbl":"3024360120","zipcode":"11211","agency":"Housing Preservation and Development","agencyshort":"HPD","sqft":"1958","acres":"0.044949","vacant":"TRUE"}},{"type":"Feature","geometry":{"type":"Point","coordinates":[-73.83068986,40.65531051]},"properties":{"address":"RUSSELL STREET","borough":"Queens","bbl":"4142281029","zipcode":"","agency":"Department of Citywide Administrative Services","agencyshort":"DCAS","sqft":"1960","acres":"0.044995","vacant":"TRUE"}},{"type":"Feature","geometry":{"type":"Point","coordinates":[-73.985989,40.575832]},"properties":{"address":"2924 WEST 19 STREET","borough":"Brooklyn","bbl":"3070600018","zipcode":"11224","agency":"Housing Preservation and Development","agencyshort":"HPD","sqft":"1980","acres":"0.045455","vacant":"TRUE"}},{"type":"Feature","geometry":{"type":"Point","coordinates":[-73.98600417,40.57589821]},"properties":{"address":"        WEST 19 STREET","borough":"Brooklyn","bbl":"3070600017","zipcode":"11224","agency":"Housing Preservation and Development","agencyshort":"HPD","sqft":"1980","acres":"0.045455","vacant":"TRUE"}},{"type":"Feature","geometry":{"type":"Point","coordinates":[-73.91833857,40.678772]},"properties":{"address":"1937 FULTON STREET","borough":"Brooklyn","bbl":"3015310065","zipcode":"11233","agency":"Housing Preservation and Development","agencyshort":"HPD","sqft":"1993","acres":"0.045753","vacant":"TRUE"}},{"type":"Feature","geometry":{"type":"Point","coordinates":[-74.002298,40.685225]},"properties":{"address":"199 COLUMBIA STREET","borough":"Brooklyn","bbl":"3003300004","zipcode":"11231","agency":"Housing Preservation and Development","agencyshort":"HPD","sqft":"1995","acres":"0.045799","vacant":"TRUE"}},{"type":"Feature","geometry":{"type":"Point","coordinates":[-73.94215017,40.81075423]},"properties":{"address":"61 W 130 ST","borough":"Manhattan","bbl":"1017280009","zipcode":"10037","agency":"Housing Preservation and Development","agencyshort":"HPD","sqft":"1998","acres":"0.045868","vacant":"TRUE"}},{"type":"Feature","geometry":{"type":"Point","coordinates":[-73.94989527,40.81075786]},"properties":{"address":"265 WEST 126 STREET","borough":"Manhattan","bbl":"1019320007","zipcode":"10027","agency":"Housing Preservation and Development","agencyshort":"HPD","sqft":"1998","acres":"0.045868","vacant":"TRUE"}},{"type":"Feature","geometry":{"type":"Point","coordinates":[-73.9212963,40.68785126]},"properties":{"address":"908 MADISON STREET","borough":"Brooklyn","bbl":"3014830035","zipcode":"11221","agency":"Department of Citywide Administrative Services","agencyshort":"DCAS","sqft":"2000","acres":"0.045914","vacant":"TRUE"}},{"type":"Feature","geometry":{"type":"Point","coordinates":[-73.90173239,40.6748452]},"properties":{"address":"        HINSDALE STREET","borough":"Brooklyn","bbl":"3036810036","zipcode":"11207","agency":"Department of Citywide Administrative Services","agencyshort":"DCAS","sqft":"2000","acres":"0.045914","vacant":"TRUE"}},{"type":"Feature","geometry":{"type":"Point","coordinates":[-73.91438963,40.66380209]},"properties":{"address":"254 HERZL STREET","borough":"Brooklyn","bbl":"3035550046","zipcode":"11212","agency":"Department of Citywide Administrative Services","agencyshort":"DCAS","sqft":"2000","acres":"0.045914","vacant":"TRUE"}},{"type":"Feature","geometry":{"type":"Point","coordinates":[-73.78032447,40.69187819]},"properties":{"address":"MERRICK BOULEVA","borough":"Queens","bbl":"4123260060","zipcode":"","agency":"Department of Citywide Administrative Services","agencyshort":"DCAS","sqft":"2000","acres":"0.045914","vacant":"TRUE"}},{"type":"Feature","geometry":{"type":"Point","coordinates":[-73.83188486,40.65517628]},"properties":{"address":"HAWTREE BASIN","borough":"Queens","bbl":"4142310770","zipcode":"","agency":"Department of Citywide Administrative Services","agencyshort":"DCAS","sqft":"2000","acres":"0.045914","vacant":"TRUE"}},{"type":"Feature","geometry":{"type":"Point","coordinates":[-74.08509034,40.57777526]},"properties":{"address":"PATTERSON AV","borough":"Staten Island","bbl":"5037570001","zipcode":"","agency":"Department of Citywide Administrative Services","agencyshort":"DCAS","sqft":"2000","acres":"0.045914","vacant":"TRUE"}},{"type":"Feature","geometry":{"type":"Point","coordinates":[-74.0904772,40.57708978]},"properties":{"address":"FREEBORN STREET","borough":"Staten Island","bbl":"5037650037","zipcode":"","agency":"Department of Citywide Administrative Services","agencyshort":"DCAS","sqft":"2000","acres":"0.045914","vacant":"TRUE"}},{"type":"Feature","geometry":{"type":"Point","coordinates":[-73.98043651,40.68257087]},"properties":{"address":"348 BERGEN STREET","borough":"Brooklyn","bbl":"3003890029","zipcode":"11217","agency":"Housing Preservation and Development","agencyshort":"HPD","sqft":"2000","acres":"0.045914","vacant":"TRUE"}},{"type":"Feature","geometry":{"type":"Point","coordinates":[-73.98608271,40.57639914]},"properties":{"address":"1914 MERMAID AVENUE","borough":"Brooklyn","bbl":"3070600007","zipcode":"11224","agency":"Housing Preservation and Development","agencyshort":"HPD","sqft":"2000","acres":"0.045914","vacant":"TRUE"}},{"type":"Feature","geometry":{"type":"Point","coordinates":[-73.98614312,40.57639237]},"properties":{"address":"1922 MERMAID AVENUE","borough":"Brooklyn","bbl":"3070600004","zipcode":"11224","agency":"Housing Preservation and Development","agencyshort":"HPD","sqft":"2000","acres":"0.045914","vacant":"TRUE"}},{"type":"Feature","geometry":{"type":"Point","coordinates":[-73.98606761,40.57640084]},"properties":{"address":"1912 MERMAID AVENUE","borough":"Brooklyn","bbl":"3070600008","zipcode":"11224","agency":"Housing Preservation and Development","agencyshort":"HPD","sqft":"2000","acres":"0.045914","vacant":"TRUE"}},{"type":"Feature","geometry":{"type":"Point","coordinates":[-73.98605251,40.57640253]},"properties":{"address":"1910 MERMAID AVENUE","borough":"Brooklyn","bbl":"3070600009","zipcode":"11224","agency":"Housing Preservation and Development","agencyshort":"HPD","sqft":"2000","acres":"0.045914","vacant":"TRUE"}},{"type":"Feature","geometry":{"type":"Point","coordinates":[-73.98615822,40.57639067]},"properties":{"address":"1924 MERMAID AVENUE","borough":"Brooklyn","bbl":"3070600003","zipcode":"11224","agency":"Housing Preservation and Development","agencyshort":"HPD","sqft":"2000","acres":"0.045914","vacant":"TRUE"}},{"type":"Feature","geometry":{"type":"Point","coordinates":[-73.98611292,40.57639576]},"properties":{"address":"1918 MERMAID AVENUE","borough":"Brooklyn","bbl":"3070600005","zipcode":"11224","agency":"Housing Preservation and Development","agencyshort":"HPD","sqft":"2000","acres":"0.045914","vacant":"TRUE"}},{"type":"Feature","geometry":{"type":"Point","coordinates":[-73.93890446,40.67882616]},"properties":{"address":"440 HERKIMER STREET","borough":"Brooklyn","bbl":"3018710042","zipcode":"11213","agency":"Housing Preservation and Development","agencyshort":"HPD","sqft":"2000","acres":"0.045914","vacant":"TRUE"}},{"type":"Feature","geometry":{"type":"Point","coordinates":[-73.91452091,40.67105115]},"properties":{"address":"416 HOPKINSON AVENUE","borough":"Brooklyn","bbl":"3014680064","zipcode":"11212","agency":"Housing Preservation and Development","agencyshort":"HPD","sqft":"2000","acres":"0.045914","vacant":"TRUE"}},{"type":"Feature","geometry":{"type":"Point","coordinates":[-73.91440688,40.6812534]},"properties":{"address":"106 HOPKINSON AVENUE","borough":"Brooklyn","bbl":"3015200041","zipcode":"11233","agency":"Housing Preservation and Development","agencyshort":"HPD","sqft":"2000","acres":"0.045914","vacant":"TRUE"}},{"type":"Feature","geometry":{"type":"Point","coordinates":[-73.9434425,40.681545]},"properties":{"address":"463 TOMPKINS AVENUE","borough":"Brooklyn","bbl":"3018520008","zipcode":"11216","agency":"Housing Preservation and Development","agencyshort":"HPD","sqft":"2000","acres":"0.045914","vacant":"TRUE"}},{"type":"Feature","geometry":{"type":"Point","coordinates":[-73.94616297,40.68649319]},"properties":{"address":"494 GATES AVENUE","borough":"Brooklyn","bbl":"3018140015","zipcode":"11216","agency":"Housing Preservation and Development","agencyshort":"HPD","sqft":"2000","acres":"0.045914","vacant":"TRUE"}},{"type":"Feature","geometry":{"type":"Point","coordinates":[-73.9176581,40.67613402]},"properties":{"address":"2097 PACIFIC STREET","borough":"Brooklyn","bbl":"3014320048","zipcode":"11233","agency":"Housing Preservation and Development","agencyshort":"HPD","sqft":"2000","acres":"0.045914","vacant":"TRUE"}},{"type":"Feature","geometry":{"type":"Point","coordinates":[-73.92263685,40.67301392]},"properties":{"address":"        PROSPECT PLACE","borough":"Brooklyn","bbl":"3013630060","zipcode":"11233","agency":"Housing Preservation and Development","agencyshort":"HPD","sqft":"2000","acres":"0.045914","vacant":"TRUE"}},{"type":"Feature","geometry":{"type":"Point","coordinates":[-73.92003792,40.67870028]},"properties":{"address":"1966 FULTON STREET","borough":"Brooklyn","bbl":"3015480028","zipcode":"11233","agency":"Housing Preservation and Development","agencyshort":"HPD","sqft":"2000","acres":"0.045914","vacant":"TRUE"}},{"type":"Feature","geometry":{"type":"Point","coordinates":[-73.93627562,40.67942584]},"properties":{"address":"        FULTON STREET","borough":"Brooklyn","bbl":"3016990035","zipcode":"11213","agency":"Housing Preservation and Development","agencyshort":"HPD","sqft":"2000","acres":"0.045914","vacant":"TRUE"}},{"type":"Feature","geometry":{"type":"Point","coordinates":[-73.9172768,40.6785484]},"properties":{"address":"2018 FULTON STREET","borough":"Brooklyn","bbl":"3015490021","zipcode":"11233","agency":"Housing Preservation and Development","agencyshort":"HPD","sqft":"2000","acres":"0.045914","vacant":"TRUE"}},{"type":"Feature","geometry":{"type":"Point","coordinates":[-73.92021968,40.67871012]},"properties":{"address":"1962 FULTON STREET","borough":"Brooklyn","bbl":"3015480026","zipcode":"11233","agency":"Housing Preservation and Development","agencyshort":"HPD","sqft":"2000","acres":"0.045914","vacant":"TRUE"}},{"type":"Feature","geometry":{"type":"Point","coordinates":[-73.91985616,40.67869044]},"properties":{"address":"1970 FULTON STREET","borough":"Brooklyn","bbl":"3015480029","zipcode":"11233","agency":"Housing Preservation and Development","agencyshort":"HPD","sqft":"2000","acres":"0.045914","vacant":"TRUE"}},{"type":"Feature","geometry":{"type":"Point","coordinates":[-73.914499,40.67127071]},"properties":{"address":"408 HOPKINSON AVENUE","borough":"Brooklyn","bbl":"3014680060","zipcode":"11212","agency":"Housing Preservation and Development","agencyshort":"HPD","sqft":"2000","acres":"0.045914","vacant":"TRUE"}},{"type":"Feature","geometry":{"type":"Point","coordinates":[-73.91994704,40.67869536]},"properties":{"address":"1968 FULTON STREET","borough":"Brooklyn","bbl":"3015480128","zipcode":"11233","agency":"Housing Preservation and Development","agencyshort":"HPD","sqft":"2000","acres":"0.045914","vacant":"TRUE"}},{"type":"Feature","geometry":{"type":"Point","coordinates":[-73.91846286,40.678614]},"properties":{"address":"1994 FULTON STREET","borough":"Brooklyn","bbl":"3015490006","zipcode":"11233","agency":"Housing Preservation and Development","agencyshort":"HPD","sqft":"2000","acres":"0.045914","vacant":"TRUE"}},{"type":"Feature","geometry":{"type":"Point","coordinates":[-73.93883236,40.67882063]},"properties":{"address":"444 HERKIMER STREET","borough":"Brooklyn","bbl":"3018710043","zipcode":"11213","agency":"Housing Preservation and Development","agencyshort":"HPD","sqft":"2000","acres":"0.045914","vacant":"TRUE"}},{"type":"Feature","geometry":{"type":"Point","coordinates":[-73.93943756,40.67916754]},"properties":{"address":"421 HERKIMER STREET","borough":"Brooklyn","bbl":"3018640049","zipcode":"11213","agency":"Housing Preservation and Development","agencyshort":"HPD","sqft":"2000","acres":"0.045914","vacant":"TRUE"}},{"type":"Feature","geometry":{"type":"Point","coordinates":[-73.89932409,40.66774238]},"properties":{"address":"303 HINSDALE STREET","borough":"Brooklyn","bbl":"3037670005","zipcode":"11207","agency":"Housing Preservation and Development","agencyshort":"HPD","sqft":"2000","acres":"0.045914","vacant":"TRUE"}},{"type":"Feature","geometry":{"type":"Point","coordinates":[-73.9393779,40.67916434]},"properties":{"address":"423 HERKIMER STREET","borough":"Brooklyn","bbl":"3018640048","zipcode":"11213","agency":"Housing Preservation and Development","agencyshort":"HPD","sqft":"2000","acres":"0.045914","vacant":"TRUE"}},{"type":"Feature","geometry":{"type":"Point","coordinates":[-73.89943519,40.66817066]},"properties":{"address":"285 HINSDALE STREET","borough":"Brooklyn","bbl":"3037670013","zipcode":"11207","agency":"Housing Preservation and Development","agencyshort":"HPD","sqft":"2000","acres":"0.045914","vacant":"TRUE"}},{"type":"Feature","geometry":{"type":"Point","coordinates":[-73.90001445,40.66410065]},"properties":{"address":"        LIVONIA AVENUE","borough":"Brooklyn","bbl":"3037990046","zipcode":"11207","agency":"Housing Preservation and Development","agencyshort":"HPD","sqft":"2000","acres":"0.045914","vacant":"TRUE"}},{"type":"Feature","geometry":{"type":"Point","coordinates":[-73.893586,40.66813]},"properties":{"address":"461 NEW JERSEY AVENUE","borough":"Brooklyn","bbl":"3037730056","zipcode":"11207","agency":"Housing Preservation and Development","agencyshort":"HPD","sqft":"2000","acres":"0.045914","vacant":"TRUE"}},{"type":"Feature","geometry":{"type":"Point","coordinates":[-73.9177266,40.67613681]},"properties":{"address":"2095 PACIFIC STREET","borough":"Brooklyn","bbl":"3014320049","zipcode":"11233","agency":"Housing Preservation and Development","agencyshort":"HPD","sqft":"2000","acres":"0.045914","vacant":"TRUE"}},{"type":"Feature","geometry":{"type":"Point","coordinates":[-73.9201288,40.6787052]},"properties":{"address":"1964 FULTON STREET","borough":"Brooklyn","bbl":"3015480027","zipcode":"11233","agency":"Housing Preservation and Development","agencyshort":"HPD","sqft":"2000","acres":"0.045914","vacant":"TRUE"}},{"type":"Feature","geometry":{"type":"Point","coordinates":[-73.91451724,40.67110604]},"properties":{"address":"        HOPKINSON AVENUE","borough":"Brooklyn","bbl":"3014680063","zipcode":"11212","agency":"Housing Preservation and Development","agencyshort":"HPD","sqft":"2000","acres":"0.045914","vacant":"TRUE"}},{"type":"Feature","geometry":{"type":"Point","coordinates":[-73.89567384,40.65998237]},"properties":{"address":"21 MALTA STREET","borough":"Brooklyn","bbl":"3042950072","zipcode":"11207","agency":"Housing Preservation and Development","agencyshort":"HPD","sqft":"2000","acres":"0.045914","vacant":"TRUE"}},{"type":"Feature","geometry":{"type":"Point","coordinates":[-73.89900256,40.66106953]},"properties":{"address":"429 NEWPORT STREET","borough":"Brooklyn","bbl":"3038330047","zipcode":"11207","agency":"Housing Preservation and Development","agencyshort":"HPD","sqft":"2000","acres":"0.045914","vacant":"TRUE"}},{"type":"Feature","geometry":{"type":"Point","coordinates":[-73.91507,40.661266]},"properties":{"address":"791 SARATOGA AVENUE","borough":"Brooklyn","bbl":"3035830027","zipcode":"11212","agency":"Housing Preservation and Development","agencyshort":"HPD","sqft":"2000","acres":"0.045914","vacant":"TRUE"}},{"type":"Feature","geometry":{"type":"Point","coordinates":[-73.897052,40.663951]},"properties":{"address":"490 ALABAMA AVENUE","borough":"Brooklyn","bbl":"3038190130","zipcode":"11207","agency":"Housing Preservation and Development","agencyshort":"HPD","sqft":"2000","acres":"0.045914","vacant":"TRUE"}},{"type":"Feature","geometry":{"type":"Point","coordinates":[-73.900105,40.66409]},"properties":{"address":"469 LIVONIA AVENUE","borough":"Brooklyn","bbl":"3037990047","zipcode":"11207","agency":"Housing Preservation and Development","agencyshort":"HPD","sqft":"2000","acres":"0.045914","vacant":"TRUE"}},{"type":"Feature","geometry":{"type":"Point","coordinates":[-73.90015866,40.66408157]},"properties":{"address":"467 LIVONIA AVENUE","borough":"Brooklyn","bbl":"3037990048","zipcode":"11207","agency":"Housing Preservation and Development","agencyshort":"HPD","sqft":"2000","acres":"0.045914","vacant":"TRUE"}},{"type":"Feature","geometry":{"type":"Point","coordinates":[-73.9047889,40.662902]},"properties":{"address":"647 MOTHER GASTON BLVD","borough":"Brooklyn","bbl":"3038110019","zipcode":"11212","agency":"Housing Preservation and Development","agencyshort":"HPD","sqft":"2000","acres":"0.045914","vacant":"TRUE"}},{"type":"Feature","geometry":{"type":"Point","coordinates":[-73.90847307,40.66038617]},"properties":{"address":"792 ROCKAWAY AVENUE","borough":"Brooklyn","bbl":"3036020044","zipcode":"11212","agency":"Housing Preservation and Development","agencyshort":"HPD","sqft":"2000","acres":"0.045914","vacant":"TRUE"}},{"type":"Feature","geometry":{"type":"Point","coordinates":[-73.89221521,40.66798571]},"properties":{"address":"        WYONA STREET","borough":"Brooklyn","bbl":"3037910028","zipcode":"11207","agency":"Housing Preservation and Development","agencyshort":"HPD","sqft":"2000","acres":"0.045914","vacant":"TRUE"}},{"type":"Feature","geometry":{"type":"Point","coordinates":[-73.90022715,40.66407339]},"properties":{"address":"465 LIVONIA AVENUE","borough":"Brooklyn","bbl":"3037990049","zipcode":"11207","agency":"Housing Preservation and Development","agencyshort":"HPD","sqft":"2000","acres":"0.045914","vacant":"TRUE"}},{"type":"Feature","geometry":{"type":"Point","coordinates":[-73.91098774,40.66053048]},"properties":{"address":"156 RIVERDALE AVENUE","borough":"Brooklyn","bbl":"3036000029","zipcode":"11212","agency":"Housing Preservation and Development","agencyshort":"HPD","sqft":"2000","acres":"0.045914","vacant":"TRUE"}},{"type":"Feature","geometry":{"type":"Point","coordinates":[-73.89375558,40.6740531]},"properties":{"address":"202 WYONA STREET","borough":"Brooklyn","bbl":"3037060032","zipcode":"11207","agency":"Housing Preservation and Development","agencyshort":"HPD","sqft":"2000","acres":"0.045914","vacant":"TRUE"}},{"type":"Feature","geometry":{"type":"Point","coordinates":[-73.89942085,40.66811849]},"properties":{"address":"287 HINSDALE STREET","borough":"Brooklyn","bbl":"3037670012","zipcode":"11207","agency":"Housing Preservation and Development","agencyshort":"HPD","sqft":"2000","acres":"0.045914","vacant":"TRUE"}},{"type":"Feature","geometry":{"type":"Point","coordinates":[-73.90943269,40.65904708]},"properties":{"address":"156 NEWPORT STREET","borough":"Brooklyn","bbl":"3036130033","zipcode":"11212","agency":"Housing Preservation and Development","agencyshort":"HPD","sqft":"2000","acres":"0.045914","vacant":"TRUE"}},{"type":"Feature","geometry":{"type":"Point","coordinates":[-73.89994594,40.66411157]},"properties":{"address":"        LIVONIA AVENUE","borough":"Brooklyn","bbl":"3037990045","zipcode":"11207","agency":"Housing Preservation and Development","agencyshort":"HPD","sqft":"2000","acres":"0.045914","vacant":"TRUE"}},{"type":"Feature","geometry":{"type":"Point","coordinates":[-73.88480952,40.66681749]},"properties":{"address":"581 JEROME STREET","borough":"Brooklyn","bbl":"3040780011","zipcode":"11207","agency":"Housing Preservation and Development","agencyshort":"HPD","sqft":"2000","acres":"0.045914","vacant":"TRUE"}},{"type":"Feature","geometry":{"type":"Point","coordinates":[-73.88566637,40.67164092]},"properties":{"address":"482 WARWICK STREET","borough":"Brooklyn","bbl":"3040300020","zipcode":"11207","agency":"Housing Preservation and Development","agencyshort":"HPD","sqft":"2000","acres":"0.045914","vacant":"TRUE"}},{"type":"Feature","geometry":{"type":"Point","coordinates":[-73.89940651,40.66806633]},"properties":{"address":"289 HINSDALE STREET","borough":"Brooklyn","bbl":"3037670011","zipcode":"11207","agency":"Housing Preservation and Development","agencyshort":"HPD","sqft":"2000","acres":"0.045914","vacant":"TRUE"}},{"type":"Feature","geometry":{"type":"Point","coordinates":[-73.90029926,40.66406247]},"properties":{"address":"461 LIVONIA AVENUE","borough":"Brooklyn","bbl":"3037990050","zipcode":"11207","agency":"Housing Preservation and Development","agencyshort":"HPD","sqft":"2000","acres":"0.045914","vacant":"TRUE"}},{"type":"Feature","geometry":{"type":"Point","coordinates":[-73.90440651,40.66286924]},"properties":{"address":"        CHRISTOPHER AVENUE","borough":"Brooklyn","bbl":"3038110027","zipcode":"11212","agency":"Housing Preservation and Development","agencyshort":"HPD","sqft":"2000","acres":"0.045914","vacant":"TRUE"}},{"type":"Feature","geometry":{"type":"Point","coordinates":[-73.904762,40.662794]},"properties":{"address":"651 MOTHER GASTON BLVD","borough":"Brooklyn","bbl":"3038110017","zipcode":"11212","agency":"Housing Preservation and Development","agencyshort":"HPD","sqft":"2000","acres":"0.045914","vacant":"TRUE"}},{"type":"Feature","geometry":{"type":"Point","coordinates":[-73.8856807,40.67169309]},"properties":{"address":"480 WARWICK STREET","borough":"Brooklyn","bbl":"3040300019","zipcode":"11207","agency":"Housing Preservation and Development","agencyshort":"HPD","sqft":"2000","acres":"0.045914","vacant":"TRUE"}},{"type":"Feature","geometry":{"type":"Point","coordinates":[-73.904776,40.6628479]},"properties":{"address":"649 MOTHER GASTON BLVD","borough":"Brooklyn","bbl":"3038110018","zipcode":"11212","agency":"Housing Preservation and Development","agencyshort":"HPD","sqft":"2000","acres":"0.045914","vacant":"TRUE"}},{"type":"Feature","geometry":{"type":"Point","coordinates":[-73.892583,40.668042]},"properties":{"address":"467 VERMONT STREET","borough":"Brooklyn","bbl":"3037910025","zipcode":"11207","agency":"Housing Preservation and Development","agencyshort":"HPD","sqft":"2000","acres":"0.045914","vacant":"TRUE"}},{"type":"Feature","geometry":{"type":"Point","coordinates":[-73.91440398,40.663857]},"properties":{"address":"250 HERZL STREET","borough":"Brooklyn","bbl":"3035550045","zipcode":"11212","agency":"Housing Preservation and Development","agencyshort":"HPD","sqft":"2000","acres":"0.045914","vacant":"TRUE"}},{"type":"Feature","geometry":{"type":"Point","coordinates":[-73.90950119,40.65903615]},"properties":{"address":"154 NEWPORT STREET","borough":"Brooklyn","bbl":"3036130032","zipcode":"11212","agency":"Housing Preservation and Development","agencyshort":"HPD","sqft":"2000","acres":"0.045914","vacant":"TRUE"}},{"type":"Feature","geometry":{"type":"Point","coordinates":[-73.89939578,40.66801143]},"properties":{"address":"291 HINSDALE STREET","borough":"Brooklyn","bbl":"3037670010","zipcode":"11207","agency":"Housing Preservation and Development","agencyshort":"HPD","sqft":"2000","acres":"0.045914","vacant":"TRUE"}},{"type":"Feature","geometry":{"type":"Point","coordinates":[-73.90957328,40.65902798]},"properties":{"address":"152 NEWPORT STREET","borough":"Brooklyn","bbl":"3036130031","zipcode":"11212","agency":"Housing Preservation and Development","agencyshort":"HPD","sqft":"2000","acres":"0.045914","vacant":"TRUE"}},{"type":"Feature","geometry":{"type":"Point","coordinates":[-73.94675766,40.70036828]},"properties":{"address":"663 FLUSHING AVENUE","borough":"Brooklyn","bbl":"3022720053","zipcode":"11206","agency":"Housing Preservation and Development","agencyshort":"HPD","sqft":"2000","acres":"0.045914","vacant":"TRUE"}},{"type":"Feature","geometry":{"type":"Point","coordinates":[-73.94666749,40.70037921]},"properties":{"address":"665 FLUSHING AVENUE","borough":"Brooklyn","bbl":"3022720052","zipcode":"11206","agency":"Housing Preservation and Development","agencyshort":"HPD","sqft":"2000","acres":"0.045914","vacant":"TRUE"}},{"type":"Feature","geometry":{"type":"Point","coordinates":[-73.94026921,40.82559672]},"properties":{"address":"2803 8 AVENUE","borough":"Manhattan","bbl":"1020450089","zipcode":"10039","agency":"Housing Preservation and Development","agencyshort":"HPD","sqft":"2000","acres":"0.045914","vacant":"TRUE"}},{"type":"Feature","geometry":{"type":"Point","coordinates":[-73.77702045,40.59748764]},"properties":{"address":"465 BEACH 45 STREET","borough":"Queens","bbl":"4159680079","zipcode":"11691","agency":"Housing Preservation and Development","agencyshort":"HPD","sqft":"2000","acres":"0.045914","vacant":"TRUE"}},{"type":"Feature","geometry":{"type":"Point","coordinates":[-73.79269809,40.69959632]},"properties":{"address":"164 STREET","borough":"Queens","bbl":"4101610016","zipcode":"11433","agency":"Housing Preservation and Development","agencyshort":"HPD","sqft":"2000","acres":"0.045914","vacant":"TRUE"}},{"type":"Feature","geometry":{"type":"Point","coordinates":[-73.7925639,40.69884049]},"properties":{"address":"106-39 GUY R BREWER BOULEVARD","borough":"Queens","bbl":"4101610052","zipcode":"11433","agency":"Housing Preservation and Development","agencyshort":"HPD","sqft":"2000","acres":"0.045914","vacant":"TRUE"}},{"type":"Feature","geometry":{"type":"Point","coordinates":[-73.77460719,40.59656321]},"properties":{"address":"422 BEACH 43 STREET","borough":"Queens","bbl":"4159600016","zipcode":"11691","agency":"Housing Preservation and Development","agencyshort":"HPD","sqft":"2000","acres":"0.045914","vacant":"TRUE"}},{"type":"Feature","geometry":{"type":"Point","coordinates":[-73.77461061,40.59661812]},"properties":{"address":"424 BEACH 43 STREET","borough":"Queens","bbl":"4159600017","zipcode":"11691","agency":"Housing Preservation and Development","agencyshort":"HPD","sqft":"2000","acres":"0.045914","vacant":"TRUE"}},{"type":"Feature","geometry":{"type":"Point","coordinates":[-73.77464209,40.59689266]},"properties":{"address":"434 BEACH 43 STREET","borough":"Queens","bbl":"4159600022","zipcode":"11691","agency":"Housing Preservation and Development","agencyshort":"HPD","sqft":"2000","acres":"0.045914","vacant":"TRUE"}},{"type":"Feature","geometry":{"type":"Point","coordinates":[-73.77464912,40.59694482]},"properties":{"address":"436 BEACH 43 STREET","borough":"Queens","bbl":"4159600023","zipcode":"11691","agency":"Housing Preservation and Development","agencyshort":"HPD","sqft":"2000","acres":"0.045914","vacant":"TRUE"}},{"type":"Feature","geometry":{"type":"Point","coordinates":[-73.77468233,40.59722574]},"properties":{"address":"BEACH 43 STREET","borough":"Queens","bbl":"4159600028","zipcode":"11691","agency":"Housing Preservation and Development","agencyshort":"HPD","sqft":"2000","acres":"0.045914","vacant":"TRUE"}},{"type":"Feature","geometry":{"type":"Point","coordinates":[-73.77468834,40.59727758]},"properties":{"address":"BEACH 43 STREET","borough":"Queens","bbl":"4159600029","zipcode":"11691","agency":"Housing Preservation and Development","agencyshort":"HPD","sqft":"2000","acres":"0.045914","vacant":"TRUE"}},{"type":"Feature","geometry":{"type":"Point","coordinates":[-73.77476461,40.59793318]},"properties":{"address":"476 BEACH 43 STREET","borough":"Queens","bbl":"4159600041","zipcode":"11691","agency":"Housing Preservation and Development","agencyshort":"HPD","sqft":"2000","acres":"0.045914","vacant":"TRUE"}},{"type":"Feature","geometry":{"type":"Point","coordinates":[-73.77683655,40.59908592]},"properties":{"address":"4420 NORTON AVENUE","borough":"Queens","bbl":"4159630054","zipcode":"11691","agency":"Housing Preservation and Development","agencyshort":"HPD","sqft":"2000","acres":"0.045914","vacant":"TRUE"}},{"type":"Feature","geometry":{"type":"Point","coordinates":[-73.77701327,40.59743527]},"properties":{"address":"463 BEACH 45 STREET","borough":"Queens","bbl":"4159680080","zipcode":"11691","agency":"Housing Preservation and Development","agencyshort":"HPD","sqft":"2000","acres":"0.045914","vacant":"TRUE"}},{"type":"Feature","geometry":{"type":"Point","coordinates":[-73.7769888,40.59721563]},"properties":{"address":"455 BEACH 45 STREET","borough":"Queens","bbl":"4159680084","zipcode":"11691","agency":"Housing Preservation and Development","agencyshort":"HPD","sqft":"2000","acres":"0.045914","vacant":"TRUE"}},{"type":"Feature","geometry":{"type":"Point","coordinates":[-73.77696432,40.596996]},"properties":{"address":"447 BEACH 45 STREET","borough":"Queens","bbl":"4159680088","zipcode":"11691","agency":"Housing Preservation and Development","agencyshort":"HPD","sqft":"2000","acres":"0.045914","vacant":"TRUE"}},{"type":"Feature","geometry":{"type":"Point","coordinates":[-73.77695028,40.59688893]},"properties":{"address":"443 BEACH 45 STREET","borough":"Queens","bbl":"4159680090","zipcode":"11691","agency":"Housing Preservation and Development","agencyshort":"HPD","sqft":"2000","acres":"0.045914","vacant":"TRUE"}},{"type":"Feature","geometry":{"type":"Point","coordinates":[-73.8300288,40.65349731]},"properties":{"address":"DAVENPORT COURT","borough":"Queens","bbl":"4142431119","zipcode":"11414","agency":"Department of Citywide Administrative Services","agencyshort":"DCAS","sqft":"2005","acres":"0.046028","vacant":"TRUE"}},{"type":"Feature","geometry":{"type":"Point","coordinates":[-73.91685746,40.664803]},"properties":{"address":"89 BLAKE AVENUE","borough":"Brooklyn","bbl":"3035360052","zipcode":"11212","agency":"Housing Preservation and Development","agencyshort":"HPD","sqft":"2008","acres":"0.046097","vacant":"TRUE"}},{"type":"Feature","geometry":{"type":"Point","coordinates":[-73.93981231,40.80342737]},"properties":{"address":"102 EAST 123 STREET","borough":"Manhattan","bbl":"1017710071","zipcode":"10035","agency":"Department of Citywide Administrative Services","agencyshort":"DCAS","sqft":"2018","acres":"0.046327","vacant":"TRUE"}},{"type":"Feature","geometry":{"type":"Point","coordinates":[-74.09164389,40.5840636]},"properties":{"address":"BUEL AVE","borough":"Staten Island","bbl":"5036510035","zipcode":"10305","agency":"Department of Citywide Administrative Services","agencyshort":"DCAS","sqft":"2018","acres":"0.046327","vacant":"TRUE"}},{"type":"Feature","geometry":{"type":"Point","coordinates":[-73.98038544,40.7213544]},"properties":{"address":"276 E 3 ST","borough":"Manhattan","bbl":"1003720011","zipcode":"10009","agency":"Housing Preservation and Development","agencyshort":"HPD","sqft":"2021","acres":"0.046396","vacant":"TRUE"}},{"type":"Feature","geometry":{"type":"Point","coordinates":[-73.9290252,40.6935708]},"properties":{"address":"1135 BROADWAY","borough":"Brooklyn","bbl":"3032410070","zipcode":"11221","agency":"Department of Education","agencyshort":"DOE","sqft":"2025","acres":"0.046488","vacant":"TRUE"}},{"type":"Feature","geometry":{"type":"Point","coordinates":[-73.72886177,40.67019355]},"properties":{"address":"135 AVENUE","borough":"Queens","bbl":"4132270011","zipcode":"11422","agency":"Department of Citywide Administrative Services","agencyshort":"DCAS","sqft":"2027","acres":"0.046534","vacant":"TRUE"}},{"type":"Feature","geometry":{"type":"Point","coordinates":[-73.91173472,40.82406095]},"properties":{"address":"901 ELTON AVENUE","borough":"Bronx","bbl":"2023830029","zipcode":"10451","agency":"Housing Preservation and Development","agencyshort":"HPD","sqft":"2031","acres":"0.046625","vacant":"TRUE"}},{"type":"Feature","geometry":{"type":"Point","coordinates":[-73.77249937,40.59360018]},"properties":{"address":"BEACH 41 STREET","borough":"Queens","bbl":"4158490008","zipcode":"11691","agency":"Housing Preservation and Development","agencyshort":"HPD","sqft":"2031","acres":"0.046625","vacant":"TRUE"}},{"type":"Feature","geometry":{"type":"Point","coordinates":[-73.77250625,40.59365561]},"properties":{"address":"BEACH 41 STREET","borough":"Queens","bbl":"4158490009","zipcode":"11691","agency":"Housing Preservation and Development","agencyshort":"HPD","sqft":"2031","acres":"0.046625","vacant":"TRUE"}},{"type":"Feature","geometry":{"type":"Point","coordinates":[-73.77251281,40.59370841]},"properties":{"address":"BEACH 41 STREET","borough":"Queens","bbl":"4158490010","zipcode":"11691","agency":"Housing Preservation and Development","agencyshort":"HPD","sqft":"2031","acres":"0.046625","vacant":"TRUE"}},{"type":"Feature","geometry":{"type":"Point","coordinates":[-73.92064,40.670281]},"properties":{"address":"1695A ST JOHN'S PLACE","borough":"Brooklyn","bbl":"3014700148","zipcode":"11233","agency":"NYC Housing Authority","agencyshort":"NYCHA","sqft":"2033","acres":"0.046671","vacant":"TRUE"}},{"type":"Feature","geometry":{"type":"Point","coordinates":[-73.90766709,40.67432586]},"properties":{"address":"        DEAN STREET","borough":"Brooklyn","bbl":"3014500014","zipcode":"11233","agency":"Housing Preservation and Development","agencyshort":"HPD","sqft":"2036","acres":"0.04674","vacant":"TRUE"}},{"type":"Feature","geometry":{"type":"Point","coordinates":[-73.92682422,40.67778433]},"properties":{"address":"20 SUYDAM PLACE","borough":"Brooklyn","bbl":"3017090028","zipcode":"11233","agency":"Housing Preservation and Development","agencyshort":"HPD","sqft":"2037","acres":"0.046763","vacant":"TRUE"}},{"type":"Feature","geometry":{"type":"Point","coordinates":[-74.09277116,40.57603225]},"properties":{"address":"HUNTER AVE","borough":"Staten Island","bbl":"5037230003","zipcode":"10306","agency":"Department of Citywide Administrative Services","agencyshort":"DCAS","sqft":"2040","acres":"0.046832","vacant":"TRUE"}},{"type":"Feature","geometry":{"type":"Point","coordinates":[-73.91552198,40.67476283]},"properties":{"address":"2178 DEAN STREET","borough":"Brooklyn","bbl":"3014470020","zipcode":"11233","agency":"Housing Preservation and Development","agencyshort":"HPD","sqft":"2045","acres":"0.046947","vacant":"TRUE"}},{"type":"Feature","geometry":{"type":"Point","coordinates":[-73.90916417,40.67360792]},"properties":{"address":"        BERGEN STREET","borough":"Brooklyn","bbl":"3014550040","zipcode":"11233","agency":"Housing Preservation and Development","agencyshort":"HPD","sqft":"2048","acres":"0.047016","vacant":"TRUE"}},{"type":"Feature","geometry":{"type":"Point","coordinates":[-73.8893166,40.8246341]},"properties":{"address":"1048 FAILE STREET","borough":"Bronx","bbl":"2027480024","zipcode":"10459","agency":"Housing Preservation and Development","agencyshort":"HPD","sqft":"2050","acres":"0.047062","vacant":"TRUE"}},{"type":"Feature","geometry":{"type":"Point","coordinates":[-73.98676125,40.60648909]},"properties":{"address":"1629 STILLWELL AVENUE","borough":"Brooklyn","bbl":"3066180058","zipcode":"11223","agency":"School Construction Authority","agencyshort":"SCA","sqft":"2050","acres":"0.047062","vacant":"TRUE"}},{"type":"Feature","geometry":{"type":"Point","coordinates":[-73.98677204,40.60654673]},"properties":{"address":"1627 STILLWELL AVENUE","borough":"Brooklyn","bbl":"3066180059","zipcode":"11223","agency":"School Construction Authority","agencyshort":"SCA","sqft":"2050","acres":"0.047062","vacant":"TRUE"}},{"type":"Feature","geometry":{"type":"Point","coordinates":[-73.98681522,40.60677181]},"properties":{"address":"1617 STILLWELL AVENUE","borough":"Brooklyn","bbl":"3066180063","zipcode":"11223","agency":"School Construction Authority","agencyshort":"SCA","sqft":"2050","acres":"0.047062","vacant":"TRUE"}},{"type":"Feature","geometry":{"type":"Point","coordinates":[-73.92064166,40.67740695]},"properties":{"address":"        PRESCOTT PLACE","borough":"Brooklyn","bbl":"3015570003","zipcode":"11233","agency":"Housing Preservation and Development","agencyshort":"HPD","sqft":"2055","acres":"0.047176","vacant":"TRUE"}},{"type":"Feature","geometry":{"type":"Point","coordinates":[-73.92718106,40.67785867]},"properties":{"address":"37 ROCHESTER AVENUE","borough":"Brooklyn","bbl":"3017090009","zipcode":"11233","agency":"Housing Preservation and Development","agencyshort":"HPD","sqft":"2058","acres":"0.047245","vacant":"TRUE"}},{"type":"Feature","geometry":{"type":"Point","coordinates":[-73.92891813,40.69350787]},"properties":{"address":"1139 BROADWAY","borough":"Brooklyn","bbl":"3032410068","zipcode":"11221","agency":"Department of Education","agencyshort":"DOE","sqft":"2067","acres":"0.047452","vacant":"TRUE"}},{"type":"Feature","geometry":{"type":"Point","coordinates":[-73.92897167,40.69353933]},"properties":{"address":"1137 BROADWAY","borough":"Brooklyn","bbl":"3032410069","zipcode":"11221","agency":"Department of Education","agencyshort":"DOE","sqft":"2067","acres":"0.047452","vacant":"TRUE"}},{"type":"Feature","geometry":{"type":"Point","coordinates":[-73.87825749,40.67601124]},"properties":{"address":"        GLENMORE AVENUE","borough":"Brooklyn","bbl":"3039920048","zipcode":"11208","agency":"Housing Preservation and Development","agencyshort":"HPD","sqft":"2070","acres":"0.047521","vacant":"TRUE"}},{"type":"Feature","geometry":{"type":"Point","coordinates":[-73.92063798,40.67746733]},"properties":{"address":"        PRESCOTT PLACE","borough":"Brooklyn","bbl":"3015570004","zipcode":"11233","agency":"Housing Preservation and Development","agencyshort":"HPD","sqft":"2070","acres":"0.047521","vacant":"TRUE"}},{"type":"Feature","geometry":{"type":"Point","coordinates":[-73.91344475,40.82529974]},"properties":{"address":"921 EAST 163 STREET","borough":"Bronx","bbl":"2024080046","zipcode":"","agency":"Housing Preservation and Development","agencyshort":"HPD","sqft":"2070","acres":"0.047521","vacant":"TRUE"}},{"type":"Feature","geometry":{"type":"Point","coordinates":[-74.09816961,40.57397418]},"properties":{"address":"00455 LINCOLN AVENUE","borough":"Staten Island","bbl":"5037380006","zipcode":"10306","agency":"Department of Citywide Administrative Services","agencyshort":"DCAS","sqft":"2071","acres":"0.047544","vacant":"TRUE"}},{"type":"Feature","geometry":{"type":"Point","coordinates":[-73.81929803,40.68557067]},"properties":{"address":"104-82 124 STREET","borough":"Queens","bbl":"4095770039","zipcode":"11419","agency":"Department of Citywide Administrative Services","agencyshort":"DCAS","sqft":"2075","acres":"0.047635","vacant":"TRUE"}},{"type":"Feature","geometry":{"type":"Point","coordinates":[-73.912082,40.6837245]},"properties":{"address":"1698 BROADWAY","borough":"Brooklyn","bbl":"3015070036","zipcode":"11207","agency":"Housing Preservation and Development","agencyshort":"HPD","sqft":"2080","acres":"0.04775","vacant":"TRUE"}},{"type":"Feature","geometry":{"type":"Point","coordinates":[-73.98056629,40.68262029]},"properties":{"address":"        BERGEN STREET","borough":"Brooklyn","bbl":"3003890027","zipcode":"11217","agency":"Housing Preservation and Development","agencyshort":"HPD","sqft":"2083","acres":"0.047819","vacant":"TRUE"}},{"type":"Feature","geometry":{"type":"Point","coordinates":[-73.89029169,40.67151917]},"properties":{"address":"342 VAN SICLEN AVENUE","borough":"Brooklyn","bbl":"3040090047","zipcode":"11207","agency":"Housing Preservation and Development","agencyshort":"HPD","sqft":"2090","acres":"0.04798","vacant":"TRUE"}},{"type":"Feature","geometry":{"type":"Point","coordinates":[-73.93907,40.688703]},"properties":{"address":"263 MARCUS GARVEY BLVD","borough":"Brooklyn","bbl":"3016240006","zipcode":"11221","agency":"Department of Citywide Administrative Services","agencyshort":"DCAS","sqft":"2100","acres":"0.048209","vacant":"TRUE"}},{"type":"Feature","geometry":{"type":"Point","coordinates":[-73.775723,40.59777311]},"properties":{"address":"472 BEACH 44 STREET","borough":"Queens","bbl":"4159650039","zipcode":"11691","agency":"Housing Preservation and Development","agencyshort":"HPD","sqft":"2103","acres":"0.048278","vacant":"TRUE"}},{"type":"Feature","geometry":{"type":"Point","coordinates":[-73.775702,40.59759466]},"properties":{"address":"466 BEACH 44 STREET","borough":"Queens","bbl":"4159650036","zipcode":"11691","agency":"Housing Preservation and Development","agencyshort":"HPD","sqft":"2107","acres":"0.04837","vacant":"TRUE"}},{"type":"Feature","geometry":{"type":"Point","coordinates":[-73.775709,40.59765506]},"properties":{"address":"468 BEACH 44 STREET","borough":"Queens","bbl":"4159650037","zipcode":"11691","agency":"Housing Preservation and Development","agencyshort":"HPD","sqft":"2107","acres":"0.04837","vacant":"TRUE"}},{"type":"Feature","geometry":{"type":"Point","coordinates":[-73.77571736,40.59771429]},"properties":{"address":"BEACH 44 STREET","borough":"Queens","bbl":"4159650038","zipcode":"11691","agency":"Housing Preservation and Development","agencyshort":"HPD","sqft":"2107","acres":"0.04837","vacant":"TRUE"}},{"type":"Feature","geometry":{"type":"Point","coordinates":[-73.94315368,40.81162756]},"properties":{"address":"415 LENOX AVE","borough":"Manhattan","bbl":"1019150036","zipcode":"10037","agency":"Housing Preservation and Development","agencyshort":"HPD","sqft":"2126","acres":"0.048806","vacant":"TRUE"}},{"type":"Feature","geometry":{"type":"Point","coordinates":[-73.91636605,40.81571611]},"properties":{"address":"EAST 149 STREET","borough":"Bronx","bbl":"2022940028","zipcode":"10455","agency":"Housing Preservation and Development","agencyshort":"HPD","sqft":"2126","acres":"0.048806","vacant":"TRUE"}},{"type":"Feature","geometry":{"type":"Point","coordinates":[-73.91423168,40.8230826]},"properties":{"address":"828 MELROSE AVENUE","borough":"Bronx","bbl":"2023810001","zipcode":"10451","agency":"Housing Preservation and Development","agencyshort":"HPD","sqft":"2126","acres":"0.048806","vacant":"TRUE"}},{"type":"Feature","geometry":{"type":"Point","coordinates":[-73.77802981,40.5960264]},"properties":{"address":"414 BEACH 47 STREET","borough":"Queens","bbl":"4159690007","zipcode":"11691","agency":"Housing Preservation and Development","agencyshort":"HPD","sqft":"2127","acres":"0.048829","vacant":"TRUE"}},{"type":"Feature","geometry":{"type":"Point","coordinates":[-73.93956139,40.67400943]},"properties":{"address":"        PROSPECT PLACE","borough":"Brooklyn","bbl":"3012300050","zipcode":"11213","agency":"Department of Citywide Administrative Services","agencyshort":"DCAS","sqft":"2129","acres":"0.048875","vacant":"TRUE"}},{"type":"Feature","geometry":{"type":"Point","coordinates":[-73.93962267,40.67401221]},"properties":{"address":"        PROSPECT PLACE","borough":"Brooklyn","bbl":"3012300051","zipcode":"11213","agency":"Department of Citywide Administrative Services","agencyshort":"DCAS","sqft":"2129","acres":"0.048875","vacant":"TRUE"}},{"type":"Feature","geometry":{"type":"Point","coordinates":[-73.9394965,40.67400665]},"properties":{"address":"        PROSPECT PLACE","borough":"Brooklyn","bbl":"3012300049","zipcode":"11213","agency":"Department of Citywide Administrative Services","agencyshort":"DCAS","sqft":"2129","acres":"0.048875","vacant":"TRUE"}},{"type":"Feature","geometry":{"type":"Point","coordinates":[-73.90943502,40.67325955]},"properties":{"address":"1733 ST MARK'S AVENUE","borough":"Brooklyn","bbl":"3014550065","zipcode":"11233","agency":"Housing Preservation and Development","agencyshort":"HPD","sqft":"2129","acres":"0.048875","vacant":"TRUE"}},{"type":"Feature","geometry":{"type":"Point","coordinates":[-73.90585589,40.67280379]},"properties":{"address":"122 LIBERTY AVENUE","borough":"Brooklyn","bbl":"3036930023","zipcode":"11212","agency":"Housing Preservation and Development","agencyshort":"HPD","sqft":"2131","acres":"0.048921","vacant":"TRUE"}},{"type":"Feature","geometry":{"type":"Point","coordinates":[-73.77725769,40.59648878]},"properties":{"address":"430 BEACH 46 STREET","borough":"Queens","bbl":"4159680016","zipcode":"11691","agency":"Housing Preservation and Development","agencyshort":"HPD","sqft":"2140","acres":"0.049128","vacant":"TRUE"}},{"type":"Feature","geometry":{"type":"Point","coordinates":[-73.7772647,40.59654644]},"properties":{"address":"432 BEACH 46 STREET","borough":"Queens","bbl":"4159680017","zipcode":"11691","agency":"Housing Preservation and Development","agencyshort":"HPD","sqft":"2140","acres":"0.049128","vacant":"TRUE"}},{"type":"Feature","geometry":{"type":"Point","coordinates":[-73.77777874,40.59681093]},"properties":{"address":"443 BEACH 46 STREET","borough":"Queens","bbl":"4159690057","zipcode":"11691","agency":"Housing Preservation and Development","agencyshort":"HPD","sqft":"2140","acres":"0.049128","vacant":"TRUE"}},{"type":"Feature","geometry":{"type":"Point","coordinates":[-73.9056903,40.62416076]},"properties":{"address":"        AVENUE T","borough":"Brooklyn","bbl":"3084160063","zipcode":"11234","agency":"Department of Transportation","agencyshort":"DOT","sqft":"2142","acres":"0.049174","vacant":"TRUE"}},{"type":"Feature","geometry":{"type":"Point","coordinates":[-73.91616029,40.67433359]},"properties":{"address":"1953 BERGEN STREET","borough":"Brooklyn","bbl":"3014470077","zipcode":"11233","agency":"Housing Preservation and Development","agencyshort":"HPD","sqft":"2143","acres":"0.049197","vacant":"TRUE"}},{"type":"Feature","geometry":{"type":"Point","coordinates":[-73.91556201,40.67446368]},"properties":{"address":"1973 BERGEN STREET","borough":"Brooklyn","bbl":"3014470069","zipcode":"11233","agency":"Housing Preservation and Development","agencyshort":"HPD","sqft":"2143","acres":"0.049197","vacant":"TRUE"}},{"type":"Feature","geometry":{"type":"Point","coordinates":[-73.915854,40.67447761]},"properties":{"address":"        BERGEN STREET","borough":"Brooklyn","bbl":"3014470073","zipcode":"11233","agency":"Housing Preservation and Development","agencyshort":"HPD","sqft":"2143","acres":"0.049197","vacant":"TRUE"}},{"type":"Feature","geometry":{"type":"Point","coordinates":[-73.91542422,40.67445534]},"properties":{"address":"1973A BERGEN STREET","borough":"Brooklyn","bbl":"3014470067","zipcode":"11233","agency":"Housing Preservation and Development","agencyshort":"HPD","sqft":"2143","acres":"0.049197","vacant":"TRUE"}},{"type":"Feature","geometry":{"type":"Point","coordinates":[-73.91772491,40.67458052]},"properties":{"address":"        BERGEN STREET","borough":"Brooklyn","bbl":"3014460056","zipcode":"11233","agency":"Housing Preservation and Development","agencyshort":"HPD","sqft":"2143","acres":"0.049197","vacant":"TRUE"}},{"type":"Feature","geometry":{"type":"Point","coordinates":[-73.91593653,40.67478509]},"properties":{"address":"2164 DEAN STREET","borough":"Brooklyn","bbl":"3014470014","zipcode":"11233","agency":"Housing Preservation and Development","agencyshort":"HPD","sqft":"2143","acres":"0.049197","vacant":"TRUE"}},{"type":"Feature","geometry":{"type":"Point","coordinates":[-73.89895171,40.65895052]},"properties":{"address":"        NEW LOTS AVENUE","borough":"Brooklyn","bbl":"3038650026","zipcode":"11207","agency":"Housing Preservation and Development","agencyshort":"HPD","sqft":"2149","acres":"0.049334","vacant":"TRUE"}},{"type":"Feature","geometry":{"type":"Point","coordinates":[-73.950987,40.688183]},"properties":{"address":"492 GREENE AVENUE","borough":"Brooklyn","bbl":"3017980007","zipcode":"11216","agency":"NYC Housing Authority","agencyshort":"NYCHA","sqft":"2150","acres":"0.049357","vacant":"TRUE"}},{"type":"Feature","geometry":{"type":"Point","coordinates":[-73.91816695,40.67571169]},"properties":{"address":"2040 PACIFIC STREET","borough":"Brooklyn","bbl":"3014390022","zipcode":"11233","agency":"Housing Preservation and Development","agencyshort":"HPD","sqft":"2151","acres":"0.04938","vacant":"TRUE"}},{"type":"Feature","geometry":{"type":"Point","coordinates":[-73.77640609,40.59644133]},"properties":{"address":"BEACH 45 STREET","borough":"Queens","bbl":"4159670013","zipcode":"11691","agency":"Housing Preservation and Development","agencyshort":"HPD","sqft":"2155","acres":"0.049472","vacant":"TRUE"}},{"type":"Feature","geometry":{"type":"Point","coordinates":[-73.78894558,40.69159085]},"properties":{"address":"16029 111 AVENUE","borough":"Queens","bbl":"4121640067","zipcode":"11433","agency":"Housing Preservation and Development","agencyshort":"HPD","sqft":"2157","acres":"0.049518","vacant":"TRUE"}},{"type":"Feature","geometry":{"type":"Point","coordinates":[-74.01793759,40.63069037]},"properties":{"address":"        OVINGTON AVENUE","borough":"Brooklyn","bbl":"3058940019","zipcode":"11209","agency":"Department of Citywide Administrative Services","agencyshort":"DCAS","sqft":"2180","acres":"0.050046","vacant":"TRUE"}},{"type":"Feature","geometry":{"type":"Point","coordinates":[-73.90728373,40.67261281]},"properties":{"address":"273 MOTHER GASTON BLVD","borough":"Brooklyn","bbl":"3036920015","zipcode":"11212","agency":"Housing Preservation and Development","agencyshort":"HPD","sqft":"2188","acres":"0.05023","vacant":"TRUE"}},{"type":"Feature","geometry":{"type":"Point","coordinates":[-73.92890552,40.69368885]},"properties":{"address":"        BROADWAY","borough":"Brooklyn","bbl":"3032410071","zipcode":"11221","agency":"Department of Education","agencyshort":"DOE","sqft":"2200","acres":"0.050505","vacant":"TRUE"}},{"type":"Feature","geometry":{"type":"Point","coordinates":[-73.92321469,40.68463294]},"properties":{"address":"        HALSEY STREET","borough":"Brooklyn","bbl":"3016680048","zipcode":"11233","agency":"Housing Preservation and Development","agencyshort":"HPD","sqft":"2200","acres":"0.050505","vacant":"TRUE"}},{"type":"Feature","geometry":{"type":"Point","coordinates":[-73.77639123,40.59631347]},"properties":{"address":"BEACH 45 STREET","borough":"Queens","bbl":"4159670111","zipcode":"11691","agency":"Housing Preservation and Development","agencyshort":"HPD","sqft":"2203","acres":"0.050574","vacant":"TRUE"}},{"type":"Feature","geometry":{"type":"Point","coordinates":[-73.77459658,40.5965083]},"properties":{"address":"420 BEACH 43 STREET","borough":"Queens","bbl":"4159600015","zipcode":"11691","agency":"Housing Preservation and Development","agencyshort":"HPD","sqft":"2205","acres":"0.05062","vacant":"TRUE"}},{"type":"Feature","geometry":{"type":"Point","coordinates":[-73.91727034,40.68648154]},"properties":{"address":"1520 BROADWAY","borough":"Brooklyn","bbl":"3014890016","zipcode":"11221","agency":"Housing Preservation and Development","agencyshort":"HPD","sqft":"2206","acres":"0.050643","vacant":"TRUE"}},{"type":"Feature","geometry":{"type":"Point","coordinates":[-73.89605628,40.83128366]},"properties":{"address":"CHISHOLM STREET","borough":"Bronx","bbl":"2029710035","zipcode":"10459","agency":"Housing Preservation and Development","agencyshort":"HPD","sqft":"2210","acres":"0.050735","vacant":"TRUE"}},{"type":"Feature","geometry":{"type":"Point","coordinates":[-73.79100334,40.69506635]},"properties":{"address":"UNION HALL STREET","borough":"Queens","bbl":"4101500007","zipcode":"11433","agency":"Housing Preservation and Development","agencyshort":"HPD","sqft":"2220","acres":"0.050964","vacant":"TRUE"}},{"type":"Feature","geometry":{"type":"Point","coordinates":[-73.78984714,40.69348325]},"properties":{"address":"109-47 UNION HALL STREET","borough":"Queens","bbl":"4121520008","zipcode":"11433","agency":"Housing Preservation and Development","agencyshort":"HPD","sqft":"2220","acres":"0.050964","vacant":"TRUE"}},{"type":"Feature","geometry":{"type":"Point","coordinates":[-73.78988152,40.69353225]},"properties":{"address":"UNION HALL STRE","borough":"Queens","bbl":"4121520009","zipcode":"11433","agency":"Housing Preservation and Development","agencyshort":"HPD","sqft":"2220","acres":"0.050964","vacant":"TRUE"}},{"type":"Feature","geometry":{"type":"Point","coordinates":[-73.91769333,40.68711425]},"properties":{"address":"1512 BROADWAY","borough":"Brooklyn","bbl":"3014890012","zipcode":"11221","agency":"Housing Preservation and Development","agencyshort":"HPD","sqft":"2223","acres":"0.051033","vacant":"TRUE"}},{"type":"Feature","geometry":{"type":"Point","coordinates":[-73.90690142,40.672747]},"properties":{"address":"        LIBERTY AVENUE","borough":"Brooklyn","bbl":"3036920019","zipcode":"11212","agency":"Housing Preservation and Development","agencyshort":"HPD","sqft":"2225","acres":"0.051079","vacant":"TRUE"}},{"type":"Feature","geometry":{"type":"Point","coordinates":[-73.91325372,40.82494004]},"properties":{"address":"403 EAST 162 STREET","borough":"Bronx","bbl":"2023840001","zipcode":"10451","agency":"Housing Preservation and Development","agencyshort":"HPD","sqft":"2235","acres":"0.051309","vacant":"TRUE"}},{"type":"Feature","geometry":{"type":"Point","coordinates":[-74.0807109,40.57816427]},"properties":{"address":"0 FATHER CAPODANNO BOULEVA","borough":"Staten Island","bbl":"5038380001","zipcode":"10305","agency":"Department of Citywide Administrative Services","agencyshort":"DCAS","sqft":"2240","acres":"0.051423","vacant":"TRUE"}},{"type":"Feature","geometry":{"type":"Point","coordinates":[-73.91593433,40.81381493]},"properties":{"address":"493 BROOK AVENUE","borough":"Bronx","bbl":"2022920049","zipcode":"10455","agency":"Housing Preservation and Development","agencyshort":"HPD","sqft":"2249","acres":"0.05163","vacant":"TRUE"}},{"type":"Feature","geometry":{"type":"Point","coordinates":[-73.92146692,40.67769846]},"properties":{"address":"329 RALPH AVENUE","borough":"Brooklyn","bbl":"3015560008","zipcode":"11233","agency":"Housing Preservation and Development","agencyshort":"HPD","sqft":"2250","acres":"0.051653","vacant":"TRUE"}},{"type":"Feature","geometry":{"type":"Point","coordinates":[-73.89843022,40.65820897]},"properties":{"address":"668 SNEDIKER AVENUE","borough":"Brooklyn","bbl":"3038650047","zipcode":"11207","agency":"Housing Preservation and Development","agencyshort":"HPD","sqft":"2250","acres":"0.051653","vacant":"TRUE"}},{"type":"Feature","geometry":{"type":"Point","coordinates":[-73.92147421,40.67762984]},"properties":{"address":"331 RALPH AVENUE","borough":"Brooklyn","bbl":"3015560007","zipcode":"11233","agency":"Housing Preservation and Development","agencyshort":"HPD","sqft":"2250","acres":"0.051653","vacant":"TRUE"}},{"type":"Feature","geometry":{"type":"Point","coordinates":[-73.89844815,40.65827211]},"properties":{"address":"666 SNEDIKER AVENUE","borough":"Brooklyn","bbl":"3038650046","zipcode":"11207","agency":"Housing Preservation and Development","agencyshort":"HPD","sqft":"2250","acres":"0.051653","vacant":"TRUE"}},{"type":"Feature","geometry":{"type":"Point","coordinates":[-73.88492315,40.67408303]},"properties":{"address":"        ASHFORD STREET","borough":"Brooklyn","bbl":"3040000003","zipcode":"11207","agency":"Housing Preservation and Development","agencyshort":"HPD","sqft":"2250","acres":"0.051653","vacant":"TRUE"}},{"type":"Feature","geometry":{"type":"Point","coordinates":[-73.77658641,40.59801908]},"properties":{"address":"482 BEACH 45 STREET","borough":"Queens","bbl":"4159660025","zipcode":"11691","agency":"Housing Preservation and Development","agencyshort":"HPD","sqft":"2251","acres":"0.051676","vacant":"TRUE"}},{"type":"Feature","geometry":{"type":"Point","coordinates":[-73.79925956,40.8844646]},"properties":{"address":"BEECH TREE LANE","borough":"Bronx","bbl":"2056510185","zipcode":"10803","agency":"Department of Citywide Administrative Services","agencyshort":"DCAS","sqft":"2253","acres":"0.051722","vacant":"TRUE"}},{"type":"Feature","geometry":{"type":"Point","coordinates":[-73.79273451,40.69964502]},"properties":{"address":"10422 164 STREET","borough":"Queens","bbl":"4101610015","zipcode":"11433","agency":"Housing Preservation and Development","agencyshort":"HPD","sqft":"2254","acres":"0.051745","vacant":"TRUE"}},{"type":"Feature","geometry":{"type":"Point","coordinates":[-73.8992113,40.66127832]},"properties":{"address":"554 SNEDIKER AVENUE","borough":"Brooklyn","bbl":"3038330043","zipcode":"11207","agency":"Housing Preservation and Development","agencyshort":"HPD","sqft":"2258","acres":"0.051837","vacant":"TRUE"}},{"type":"Feature","geometry":{"type":"Point","coordinates":[-74.10882497,40.64559125]},"properties":{"address":"BARD AVENUE","borough":"Staten Island","bbl":"5001840188","zipcode":"10310","agency":"Department of Small Business Services","agencyshort":"SBS","sqft":"2266","acres":"0.05202","vacant":"TRUE"}},{"type":"Feature","geometry":{"type":"Point","coordinates":[-73.85185106,40.73567431]},"properties":{"address":"105-45 62 DRIVE","borough":"Queens","bbl":"4021440039","zipcode":"11375","agency":"Department of Citywide Administrative Services","agencyshort":"DCAS","sqft":"2280","acres":"0.052342","vacant":"TRUE"}},{"type":"Feature","geometry":{"type":"Point","coordinates":[-74.15025984,40.5559195]},"properties":{"address":"SCHLEY AVE","borough":"Staten Island","bbl":"5046170020","zipcode":"10308","agency":"Department of Citywide Administrative Services","agencyshort":"DCAS","sqft":"2280","acres":"0.052342","vacant":"TRUE"}},{"type":"Feature","geometry":{"type":"Point","coordinates":[-73.95723648,40.6859681]},"properties":{"address":"100 QUINCY STREET","borough":"Brooklyn","bbl":"3019730038","zipcode":"11238","agency":"Department of Parks & Recreation","agencyshort":"Parks","sqft":"2300","acres":"0.052801","vacant":"TRUE"}},{"type":"Feature","geometry":{"type":"Point","coordinates":[-73.98635405,40.67813891]},"properties":{"address":"503 PRESIDENT STREET","borough":"Brooklyn","bbl":"3004400045","zipcode":"11215","agency":"Housing Preservation and Development","agencyshort":"HPD","sqft":"2300","acres":"0.052801","vacant":"TRUE"}},{"type":"Feature","geometry":{"type":"Point","coordinates":[-73.89606186,40.67928675]},"properties":{"address":"36 VERMONT STREET","borough":"Brooklyn","bbl":"3034860033","zipcode":"11207","agency":"Housing Preservation and Development","agencyshort":"HPD","sqft":"2300","acres":"0.052801","vacant":"TRUE"}},{"type":"Feature","geometry":{"type":"Point","coordinates":[-73.90618836,40.65684865]},"properties":{"address":"        THATFORD AVENUE","borough":"Brooklyn","bbl":"3036270055","zipcode":"11212","agency":"Housing Preservation and Development","agencyshort":"HPD","sqft":"2300","acres":"0.052801","vacant":"TRUE"}},{"type":"Feature","geometry":{"type":"Point","coordinates":[-73.89524496,40.65996551]},"properties":{"address":"650 ALABAMA AVENUE","borough":"Brooklyn","bbl":"3042950019","zipcode":"11207","agency":"Housing Preservation and Development","agencyshort":"HPD","sqft":"2320","acres":"0.05326","vacant":"TRUE"}},{"type":"Feature","geometry":{"type":"Point","coordinates":[-73.80993736,40.59080809]},"properties":{"address":"312 BEACH   84 STREET","borough":"Queens","bbl":"4161030080","zipcode":"11693","agency":"Department of Citywide Administrative Services","agencyshort":"DCAS","sqft":"2322","acres":"0.053306","vacant":"TRUE"}},{"type":"Feature","geometry":{"type":"Point","coordinates":[-73.9227619,40.72625328]},"properties":{"address":"0 56 ROAD","borough":"Queens","bbl":"4025520075","zipcode":"11378","agency":"Department of Citywide Administrative Services","agencyshort":"DCAS","sqft":"2324","acres":"0.053352","vacant":"TRUE"}},{"type":"Feature","geometry":{"type":"Point","coordinates":[-73.77454764,40.59607178]},"properties":{"address":"408 BEACH 43 STREET","borough":"Queens","bbl":"4159600007","zipcode":"11691","agency":"Housing Preservation and Development","agencyshort":"HPD","sqft":"2330","acres":"0.053489","vacant":"TRUE"}},{"type":"Feature","geometry":{"type":"Point","coordinates":[-73.77455821,40.59614042]},"properties":{"address":"410 BEACH 43 STREET","borough":"Queens","bbl":"4159600008","zipcode":"11691","agency":"Housing Preservation and Development","agencyshort":"HPD","sqft":"2330","acres":"0.053489","vacant":"TRUE"}},{"type":"Feature","geometry":{"type":"Point","coordinates":[-73.79111825,40.69522301]},"properties":{"address":"UNION HALL STREET","borough":"Queens","bbl":"4101500010","zipcode":"11433","agency":"Housing Preservation and Development","agencyshort":"HPD","sqft":"2331","acres":"0.053512","vacant":"TRUE"}},{"type":"Feature","geometry":{"type":"Point","coordinates":[-73.953637,40.707761]},"properties":{"address":"375 South 5th Street","borough":"Brooklyn","bbl":"3024500028","zipcode":"11211","agency":"Housing Preservation and Development","agencyshort":"HPD","sqft":"2341","acres":"0.05374","vacant":"TRUE"}},{"type":"Feature","geometry":{"type":"Point","coordinates":[-74.15066244,40.55486355]},"properties":{"address":"DEWEY AVE","borough":"Staten Island","bbl":"5046160054","zipcode":"10308","agency":"Department of Citywide Administrative Services","agencyshort":"DCAS","sqft":"2350","acres":"0.053949","vacant":"TRUE"}},{"type":"Feature","geometry":{"type":"Point","coordinates":[-74.15074612,40.55484078]},"properties":{"address":"DEWEY AVE","borough":"Staten Island","bbl":"5046160055","zipcode":"10308","agency":"Department of Citywide Administrative Services","agencyshort":"DCAS","sqft":"2350","acres":"0.053949","vacant":"TRUE"}},{"type":"Feature","geometry":{"type":"Point","coordinates":[-74.15083291,40.55481965]},"properties":{"address":"DEWEY AVE","borough":"Staten Island","bbl":"5046160056","zipcode":"10308","agency":"Department of Citywide Administrative Services","agencyshort":"DCAS","sqft":"2350","acres":"0.053949","vacant":"TRUE"}},{"type":"Feature","geometry":{"type":"Point","coordinates":[-73.88109983,40.66911659]},"properties":{"address":"659 LINWOOD STREET","borough":"Brooklyn","bbl":"3040670012","zipcode":"11208","agency":"Housing Preservation and Development","agencyshort":"HPD","sqft":"2356","acres":"0.054086","vacant":"TRUE"}},{"type":"Feature","geometry":{"type":"Point","coordinates":[-73.88111413,40.66918522]},"properties":{"address":"655 LINWOOD STREET","borough":"Brooklyn","bbl":"3040670013","zipcode":"11208","agency":"Housing Preservation and Development","agencyshort":"HPD","sqft":"2356","acres":"0.054086","vacant":"TRUE"}},{"type":"Feature","geometry":{"type":"Point","coordinates":[-73.77639862,40.59637704]},"properties":{"address":"BEACH 45 STREET","borough":"Queens","bbl":"4159670012","zipcode":"11691","agency":"Housing Preservation and Development","agencyshort":"HPD","sqft":"2357","acres":"0.054109","vacant":"TRUE"}},{"type":"Feature","geometry":{"type":"Point","coordinates":[-73.92111337,40.66875299]},"properties":{"address":"        EASTERN PARKWAY","borough":"Brooklyn","bbl":"3014750041","zipcode":"11233","agency":"Housing Preservation and Development","agencyshort":"HPD","sqft":"2358","acres":"0.054132","vacant":"TRUE"}},{"type":"Feature","geometry":{"type":"Point","coordinates":[-73.88113203,40.66925111]},"properties":{"address":"653 LINWOOD STREET","borough":"Brooklyn","bbl":"3040670014","zipcode":"11208","agency":"Housing Preservation and Development","agencyshort":"HPD","sqft":"2358","acres":"0.054132","vacant":"TRUE"}},{"type":"Feature","geometry":{"type":"Point","coordinates":[-73.775408,40.59860103]},"properties":{"address":"BEACH 43 STREET","borough":"Queens","bbl":"4159650068","zipcode":"11691","agency":"Housing Preservation and Development","agencyshort":"HPD","sqft":"2359","acres":"0.054155","vacant":"TRUE"}},{"type":"Feature","geometry":{"type":"Point","coordinates":[-73.89693897,40.66941767]},"properties":{"address":"299 Georgia Ave","borough":"Brooklyn","bbl":"3037530003","zipcode":"11207","agency":"Economic Development Corporation","agencyshort":"EDC","sqft":"2367","acres":"","vacant":"TRUE"}},{"type":"Feature","geometry":{"type":"Point","coordinates":[-73.88889368,40.65811506]},"properties":{"address":"881 NEW JERSEY AVENUE","borough":"Brooklyn","bbl":"3043480050","zipcode":"11207","agency":"Housing Preservation and Development","agencyshort":"HPD","sqft":"2367","acres":"0.054339","vacant":"TRUE"}},{"type":"Feature","geometry":{"type":"Point","coordinates":[-73.85655203,40.66762548]},"properties":{"address":"SAPPHIRE STREET","borough":"Queens","bbl":"4114100048","zipcode":"11414","agency":"Department of Citywide Administrative Services","agencyshort":"DCAS","sqft":"2370","acres":"0.054408","vacant":"TRUE"}},{"type":"Feature","geometry":{"type":"Point","coordinates":[-73.9288646,40.6934764]},"properties":{"address":"1141 BROADWAY","borough":"Brooklyn","bbl":"3032410067","zipcode":"11221","agency":"Department of Education","agencyshort":"DOE","sqft":"2375","acres":"0.054522","vacant":"TRUE"}},{"type":"Feature","geometry":{"type":"Point","coordinates":[-73.98740059,40.57736409]},"properties":{"address":"        WEST 20 STREET","borough":"Brooklyn","bbl":"3070180030","zipcode":"11224","agency":"Housing Preservation and Development","agencyshort":"HPD","sqft":"2375","acres":"0.054522","vacant":"TRUE"}},{"type":"Feature","geometry":{"type":"Point","coordinates":[-73.98739187,40.57730932]},"properties":{"address":"        WEST 20 STREET","borough":"Brooklyn","bbl":"3070180031","zipcode":"11224","agency":"Housing Preservation and Development","agencyshort":"HPD","sqft":"2375","acres":"0.054522","vacant":"TRUE"}},{"type":"Feature","geometry":{"type":"Point","coordinates":[-73.89507334,40.66595996]},"properties":{"address":"447 SHEFFIELD AVENUE","borough":"Brooklyn","bbl":"3038050023","zipcode":"11207","agency":"Housing Preservation and Development","agencyshort":"HPD","sqft":"2375","acres":"0.054522","vacant":"TRUE"}},{"type":"Feature","geometry":{"type":"Point","coordinates":[-73.89603908,40.83106632]},"properties":{"address":"0 CHISHOLM STREET","borough":"Bronx","bbl":"2029710039","zipcode":"10459","agency":"Housing Preservation and Development","agencyshort":"HPD","sqft":"2375","acres":"0.054522","vacant":"TRUE"}},{"type":"Feature","geometry":{"type":"Point","coordinates":[-73.77722727,40.59621838]},"properties":{"address":"BEACH 46 STREET","borough":"Queens","bbl":"4159680011","zipcode":"11691","agency":"Housing Preservation and Development","agencyshort":"HPD","sqft":"2378","acres":"0.054591","vacant":"TRUE"}},{"type":"Feature","geometry":{"type":"Point","coordinates":[-73.77802284,40.59595777]},"properties":{"address":"414 BEACH 47 STREET","borough":"Queens","bbl":"4159690006","zipcode":"11691","agency":"Housing Preservation and Development","agencyshort":"HPD","sqft":"2378","acres":"0.054591","vacant":"TRUE"}},{"type":"Feature","geometry":{"type":"Point","coordinates":[-73.77782578,40.59722083]},"properties":{"address":"BEACH 46 STREET","borough":"Queens","bbl":"4159690050","zipcode":"11691","agency":"Housing Preservation and Development","agencyshort":"HPD","sqft":"2378","acres":"0.054591","vacant":"TRUE"}},{"type":"Feature","geometry":{"type":"Point","coordinates":[-73.77776479,40.59667641]},"properties":{"address":"439 BEACH 46 STREET","borough":"Queens","bbl":"4159690059","zipcode":"11691","agency":"Housing Preservation and Development","agencyshort":"HPD","sqft":"2378","acres":"0.054591","vacant":"TRUE"}},{"type":"Feature","geometry":{"type":"Point","coordinates":[-73.77136398,40.59396353]},"properties":{"address":"BEACH 39 STREET","borough":"Queens","bbl":"4158480065","zipcode":"11691","agency":"Housing Preservation and Development","agencyshort":"HPD","sqft":"2386","acres":"0.054775","vacant":"TRUE"}},{"type":"Feature","geometry":{"type":"Point","coordinates":[-73.78995844,40.69363716]},"properties":{"address":"109-41A UNION HALL STREET","borough":"Queens","bbl":"4121520011","zipcode":"11433","agency":"Housing Preservation and Development","agencyshort":"HPD","sqft":"2387","acres":"0.054798","vacant":"TRUE"}},{"type":"Feature","geometry":{"type":"Point","coordinates":[-73.89604444,40.83111961]},"properties":{"address":"CHISHOLM ST","borough":"Bronx","bbl":"2029710038","zipcode":"10459","agency":"Housing Preservation and Development","agencyshort":"HPD","sqft":"2390","acres":"0.054867","vacant":"TRUE"}},{"type":"Feature","geometry":{"type":"Point","coordinates":[-73.7759085,40.59936821]},"properties":{"address":"530 BEACH 44 STREET","borough":"Queens","bbl":"4159620007","zipcode":"11691","agency":"Housing Preservation and Development","agencyshort":"HPD","sqft":"2390","acres":"0.054867","vacant":"TRUE"}},{"type":"Feature","geometry":{"type":"Point","coordinates":[-73.77591548,40.59943409]},"properties":{"address":"534 BEACH 44 STREET","borough":"Queens","bbl":"4159620009","zipcode":"11691","agency":"Housing Preservation and Development","agencyshort":"HPD","sqft":"2390","acres":"0.054867","vacant":"TRUE"}},{"type":"Feature","geometry":{"type":"Point","coordinates":[-73.77592245,40.59950273]},"properties":{"address":"536 BEACH 44 STREET","borough":"Queens","bbl":"4159620010","zipcode":"11691","agency":"Housing Preservation and Development","agencyshort":"HPD","sqft":"2390","acres":"0.054867","vacant":"TRUE"}},{"type":"Feature","geometry":{"type":"Point","coordinates":[-73.77585251,40.59888227]},"properties":{"address":"514 BEACH 44 STREET","borough":"Queens","bbl":"4159620104","zipcode":"11691","agency":"Housing Preservation and Development","agencyshort":"HPD","sqft":"2394","acres":"0.054959","vacant":"TRUE"}},{"type":"Feature","geometry":{"type":"Point","coordinates":[-73.77583497,40.59874499]},"properties":{"address":"508 BEACH 44 STREET","borough":"Queens","bbl":"4159620101","zipcode":"11691","agency":"Housing Preservation and Development","agencyshort":"HPD","sqft":"2394","acres":"0.054959","vacant":"TRUE"}},{"type":"Feature","geometry":{"type":"Point","coordinates":[-73.77585887,40.59895108]},"properties":{"address":"516 BEACH 44 STREET","borough":"Queens","bbl":"4159620105","zipcode":"11691","agency":"Housing Preservation and Development","agencyshort":"HPD","sqft":"2394","acres":"0.054959","vacant":"TRUE"}},{"type":"Feature","geometry":{"type":"Point","coordinates":[-74.1681232,40.62688914]},"properties":{"address":"25 LILAC CT","borough":"Staten Island","bbl":"5017070032","zipcode":"10303","agency":"Department of Citywide Administrative Services","agencyshort":"DCAS","sqft":"2400","acres":"0.055096","vacant":"TRUE"}},{"type":"Feature","geometry":{"type":"Point","coordinates":[-73.93026247,40.68579297]},"properties":{"address":"        JEFFERSON AVENUE","borough":"Brooklyn","bbl":"3016510052","zipcode":"11221","agency":"Housing Preservation and Development","agencyshort":"HPD","sqft":"2400","acres":"0.055096","vacant":"TRUE"}},{"type":"Feature","geometry":{"type":"Point","coordinates":[-73.84436035,40.67353576]},"properties":{"address":"9043 DESARC ROAD","borough":"Queens","bbl":"4113730088","zipcode":"11417","agency":"Housing Preservation and Development","agencyshort":"HPD","sqft":"2400","acres":"0.055096","vacant":"TRUE"}},{"type":"Feature","geometry":{"type":"Point","coordinates":[-73.95095315,40.81152684]},"properties":{"address":"306 WEST 127 STREET","borough":"Manhattan","bbl":"1019530038","zipcode":"10027","agency":"Housing Preservation and Development","agencyshort":"HPD","sqft":"2412","acres":"0.055372","vacant":"TRUE"}},{"type":"Feature","geometry":{"type":"Point","coordinates":[-73.88754554,40.84208602]},"properties":{"address":"1900 MARMION AVENUE","borough":"Bronx","bbl":"2029600021","zipcode":"10460","agency":"Housing Preservation and Development","agencyshort":"HPD","sqft":"2415","acres":"0.055441","vacant":"TRUE"}},{"type":"Feature","geometry":{"type":"Point","coordinates":[-73.91658853,40.82221425]},"properties":{"address":"359 EAST 157 STREET","borough":"Bronx","bbl":"2024040001","zipcode":"10451","agency":"Housing Preservation and Development","agencyshort":"HPD","sqft":"2440","acres":"0.056015","vacant":"TRUE"}},{"type":"Feature","geometry":{"type":"Point","coordinates":[-73.985937,40.5755709]},"properties":{"address":"2936 WEST 19 STREET","borough":"Brooklyn","bbl":"3070600022","zipcode":"11224","agency":"Housing Preservation and Development","agencyshort":"HPD","sqft":"2442","acres":"0.056061","vacant":"TRUE"}},{"type":"Feature","geometry":{"type":"Point","coordinates":[-73.79096743,40.69501688]},"properties":{"address":"10851 UNION HALL STREET","borough":"Queens","bbl":"4101500006","zipcode":"11433","agency":"Housing Preservation and Development","agencyshort":"HPD","sqft":"2442","acres":"0.056061","vacant":"TRUE"}},{"type":"Feature","geometry":{"type":"Point","coordinates":[-73.98601604,40.57595983]},"properties":{"address":"        WEST 19 STREET","borough":"Brooklyn","bbl":"3070600016","zipcode":"11224","agency":"Housing Preservation and Development","agencyshort":"HPD","sqft":"2450","acres":"0.056244","vacant":"TRUE"}},{"type":"Feature","geometry":{"type":"Point","coordinates":[-73.92755997,40.68084797]},"properties":{"address":"187 CHAUNCEY STREET","borough":"Brooklyn","bbl":"3016870076","zipcode":"11233","agency":"Housing Preservation and Development","agencyshort":"HPD","sqft":"2450","acres":"0.056244","vacant":"TRUE"}},{"type":"Feature","geometry":{"type":"Point","coordinates":[-73.92007843,40.66304862]},"properties":{"address":"200 TAPSCOTT STREET","borough":"Brooklyn","bbl":"3035490044","zipcode":"11212","agency":"NYC Housing Authority","agencyshort":"NYCHA","sqft":"2450","acres":"0.056244","vacant":"TRUE"}},{"type":"Feature","geometry":{"type":"Point","coordinates":[-73.92009276,40.66311725]},"properties":{"address":"198 TAPSCOTT STREET","borough":"Brooklyn","bbl":"3035490043","zipcode":"11212","agency":"NYC Housing Authority","agencyshort":"NYCHA","sqft":"2450","acres":"0.056244","vacant":"TRUE"}},{"type":"Feature","geometry":{"type":"Point","coordinates":[-73.77139235,40.59409968]},"properties":{"address":"219 BEACH 39 STREET","borough":"Queens","bbl":"4158480062","zipcode":"11691","agency":"Housing Preservation and Development","agencyshort":"HPD","sqft":"2459","acres":"0.056451","vacant":"TRUE"}},{"type":"Feature","geometry":{"type":"Point","coordinates":[-73.77137843,40.5940287]},"properties":{"address":"BEACH 39 STREET","borough":"Queens","bbl":"4158480063","zipcode":"11691","agency":"Housing Preservation and Development","agencyshort":"HPD","sqft":"2459","acres":"0.056451","vacant":"TRUE"}},{"type":"Feature","geometry":{"type":"Point","coordinates":[-73.78911705,40.69172526]},"properties":{"address":"UNION HALL STRE","borough":"Queens","bbl":"4121640059","zipcode":"11433","agency":"Housing Preservation and Development","agencyshort":"HPD","sqft":"2459","acres":"0.056451","vacant":"TRUE"}},{"type":"Feature","geometry":{"type":"Point","coordinates":[-73.92706707,40.68648267]},"properties":{"address":"        PATCHEN AVENUE","borough":"Brooklyn","bbl":"3016520039","zipcode":"11221","agency":"Housing Preservation and Development","agencyshort":"HPD","sqft":"2470","acres":"0.056703","vacant":"TRUE"}},{"type":"Feature","geometry":{"type":"Point","coordinates":[-73.91166999,40.67064002]},"properties":{"address":"47 CHESTER STREET","borough":"Brooklyn","bbl":"3034990015","zipcode":"11212","agency":"Housing Preservation and Development","agencyshort":"HPD","sqft":"2471","acres":"0.056726","vacant":"TRUE"}},{"type":"Feature","geometry":{"type":"Point","coordinates":[-73.77784932,40.5974328]},"properties":{"address":"BEACH 46 STREET","borough":"Queens","bbl":"4159690047","zipcode":"11691","agency":"Housing Preservation and Development","agencyshort":"HPD","sqft":"2473","acres":"0.056772","vacant":"TRUE"}},{"type":"Feature","geometry":{"type":"Point","coordinates":[-73.77784143,40.59736169]},"properties":{"address":"BEACH 46 STREET","borough":"Queens","bbl":"4159690048","zipcode":"11691","agency":"Housing Preservation and Development","agencyshort":"HPD","sqft":"2473","acres":"0.056772","vacant":"TRUE"}},{"type":"Feature","geometry":{"type":"Point","coordinates":[-73.77783353,40.59729058]},"properties":{"address":"BEACH 46 STREET","borough":"Queens","bbl":"4159690049","zipcode":"11691","agency":"Housing Preservation and Development","agencyshort":"HPD","sqft":"2473","acres":"0.056772","vacant":"TRUE"}},{"type":"Feature","geometry":{"type":"Point","coordinates":[-73.98595382,40.57564842]},"properties":{"address":"2934 WEST 19 STREET","borough":"Brooklyn","bbl":"3070600021","zipcode":"11224","agency":"Housing Preservation and Development","agencyshort":"HPD","sqft":"2475","acres":"0.056818","vacant":"TRUE"}},{"type":"Feature","geometry":{"type":"Point","coordinates":[-73.91047911,40.83541999]},"properties":{"address":"01316 FINDLAY AVENUE","borough":"Bronx","bbl":"2027820013","zipcode":"10456","agency":"Housing Preservation and Development","agencyshort":"HPD","sqft":"2485","acres":"0.057048","vacant":"TRUE"}},{"type":"Feature","geometry":{"type":"Point","coordinates":[-73.91166501,40.82410444]},"properties":{"address":"903 ELTON AVENUE","borough":"Bronx","bbl":"2023830027","zipcode":"10451","agency":"Housing Preservation and Development","agencyshort":"HPD","sqft":"2494","acres":"0.057254","vacant":"TRUE"}},{"type":"Feature","geometry":{"type":"Point","coordinates":[-73.93374403,40.80345698]},"properties":{"address":"238 EAST 126 STREET","borough":"Manhattan","bbl":"1017900030","zipcode":"10035","agency":"Housing Preservation and Development","agencyshort":"HPD","sqft":"2498","acres":"0.057346","vacant":"TRUE"}},{"type":"Feature","geometry":{"type":"Point","coordinates":[-73.94355214,40.81461126]},"properties":{"address":"197 WEST 134 STREET","borough":"Manhattan","bbl":"1019190005","zipcode":"10030","agency":"Housing Preservation and Development","agencyshort":"HPD","sqft":"2498","acres":"0.057346","vacant":"TRUE"}},{"type":"Feature","geometry":{"type":"Point","coordinates":[-73.94150991,40.81583165]},"properties":{"address":"136 W137 ST","borough":"Manhattan","bbl":"1019210049","zipcode":"10030","agency":"Housing Preservation and Development","agencyshort":"HPD","sqft":"2498","acres":"0.057346","vacant":"TRUE"}},{"type":"Feature","geometry":{"type":"Point","coordinates":[-73.94411834,40.81579177]},"properties":{"address":"203 WEST 135 STREET","borough":"Manhattan","bbl":"1019410027","zipcode":"10030","agency":"Housing Preservation and Development","agencyshort":"HPD","sqft":"2498","acres":"0.057346","vacant":"TRUE"}},{"type":"Feature","geometry":{"type":"Point","coordinates":[-73.911994,40.678075]},"properties":{"address":"2128 FULTON STREET","borough":"Brooklyn","bbl":"3015510041","zipcode":"11233","agency":"Department of Citywide Administrative Services","agencyshort":"DCAS","sqft":"2500","acres":"0.057392","vacant":"TRUE"}},{"type":"Feature","geometry":{"type":"Point","coordinates":[-73.911342,40.670888]},"properties":{"address":"380 ROCKAWAY AVENUE","borough":"Brooklyn","bbl":"3034990052","zipcode":"11212","agency":"Department of Citywide Administrative Services","agencyshort":"DCAS","sqft":"2500","acres":"0.057392","vacant":"TRUE"}},{"type":"Feature","geometry":{"type":"Point","coordinates":[-73.89086563,40.67545847]},"properties":{"address":"511 LIBERTY AVENUE","borough":"Brooklyn","bbl":"3039620034","zipcode":"11207","agency":"Department of Citywide Administrative Services","agencyshort":"DCAS","sqft":"2500","acres":"0.057392","vacant":"TRUE"}},{"type":"Feature","geometry":{"type":"Point","coordinates":[-73.85477757,40.74893142]},"properties":{"address":"4316 111 STREET","borough":"Queens","bbl":"4019990038","zipcode":"11368","agency":"Department of Citywide Administrative Services","agencyshort":"DCAS","sqft":"2500","acres":"0.057392","vacant":"TRUE"}},{"type":"Feature","geometry":{"type":"Point","coordinates":[-74.14367175,40.63576798]},"properties":{"address":"JOHN ST","borough":"Staten Island","bbl":"5011240036","zipcode":"10302","agency":"Department of Citywide Administrative Services","agencyshort":"DCAS","sqft":"2500","acres":"0.057392","vacant":"TRUE"}},{"type":"Feature","geometry":{"type":"Point","coordinates":[-73.95066385,40.69496832]},"properties":{"address":"792 MYRTLE AVENUE","borough":"Brooklyn","bbl":"3017540028","zipcode":"11206","agency":"Housing Preservation and Development","agencyshort":"HPD","sqft":"2500","acres":"0.057392","vacant":"TRUE"}},{"type":"Feature","geometry":{"type":"Point","coordinates":[-73.95155826,40.69486439]},"properties":{"address":"772 MYRTLE AVENUE","borough":"Brooklyn","bbl":"3017540016","zipcode":"11206","agency":"Housing Preservation and Development","agencyshort":"HPD","sqft":"2500","acres":"0.057392","vacant":"TRUE"}},{"type":"Feature","geometry":{"type":"Point","coordinates":[-73.91987271,40.68726838]},"properties":{"address":"        PUTNAM AVENUE","borough":"Brooklyn","bbl":"3014860016","zipcode":"11221","agency":"Housing Preservation and Development","agencyshort":"HPD","sqft":"2500","acres":"0.057392","vacant":"TRUE"}},{"type":"Feature","geometry":{"type":"Point","coordinates":[-73.94666273,40.69558648]},"properties":{"address":"890 MYRTLE AVENUE","borough":"Brooklyn","bbl":"3017550040","zipcode":"11206","agency":"Housing Preservation and Development","agencyshort":"HPD","sqft":"2500","acres":"0.057392","vacant":"TRUE"}},{"type":"Feature","geometry":{"type":"Point","coordinates":[-73.91996287,40.68726021]},"properties":{"address":"1052 PUTNAM AVENUE","borough":"Brooklyn","bbl":"3014860015","zipcode":"11221","agency":"Housing Preservation and Development","agencyshort":"HPD","sqft":"2500","acres":"0.057392","vacant":"TRUE"}},{"type":"Feature","geometry":{"type":"Point","coordinates":[-73.9465188,40.70139196]},"properties":{"address":"53 BARTLETT STREET","borough":"Brooklyn","bbl":"3022690041","zipcode":"11206","agency":"Housing Preservation and Development","agencyshort":"HPD","sqft":"2500","acres":"0.057392","vacant":"TRUE"}},{"type":"Feature","geometry":{"type":"Point","coordinates":[-73.95137793,40.69488628]},"properties":{"address":"776 MYRTLE AVENUE","borough":"Brooklyn","bbl":"3017540019","zipcode":"11206","agency":"Housing Preservation and Development","agencyshort":"HPD","sqft":"2500","acres":"0.057392","vacant":"TRUE"}},{"type":"Feature","geometry":{"type":"Point","coordinates":[-73.89478494,40.67283262]},"properties":{"address":"277 NEW JERSEY AVENUE","borough":"Brooklyn","bbl":"3037220006","zipcode":"11207","agency":"Housing Preservation and Development","agencyshort":"HPD","sqft":"2500","acres":"0.057392","vacant":"TRUE"}},{"type":"Feature","geometry":{"type":"Point","coordinates":[-73.90707568,40.67187155]},"properties":{"address":"        MOTHER GASTON BLVD","borough":"Brooklyn","bbl":"3036920004","zipcode":"11212","agency":"Housing Preservation and Development","agencyshort":"HPD","sqft":"2500","acres":"0.057392","vacant":"TRUE"}},{"type":"Feature","geometry":{"type":"Point","coordinates":[-73.90888546,40.66123698]},"properties":{"address":"762 ROCKAWAY AVENUE","borough":"Brooklyn","bbl":"3035890049","zipcode":"11212","agency":"Housing Preservation and Development","agencyshort":"HPD","sqft":"2500","acres":"0.057392","vacant":"TRUE"}},{"type":"Feature","geometry":{"type":"Point","coordinates":[-73.94713584,40.70099151]},"properties":{"address":"35 BARTLETT STREET","borough":"Brooklyn","bbl":"3022690050","zipcode":"11206","agency":"Housing Preservation and Development","agencyshort":"HPD","sqft":"2500","acres":"0.057392","vacant":"TRUE"}},{"type":"Feature","geometry":{"type":"Point","coordinates":[-73.91877055,40.68036176]},"properties":{"address":"175 SUMPTER STREET","borough":"Brooklyn","bbl":"3015190063","zipcode":"11233","agency":"Housing Preservation and Development","agencyshort":"HPD","sqft":"2500","acres":"0.057392","vacant":"TRUE"}},{"type":"Feature","geometry":{"type":"Point","coordinates":[-73.92012005,40.67945968]},"properties":{"address":"53 MAC DOUGAL STREET","borough":"Brooklyn","bbl":"3015240043","zipcode":"11233","agency":"Housing Preservation and Development","agencyshort":"HPD","sqft":"2500","acres":"0.057392","vacant":"TRUE"}},{"type":"Feature","geometry":{"type":"Point","coordinates":[-73.93557852,40.69566627]},"properties":{"address":"821 WILLOUGHBY AVENUE","borough":"Brooklyn","bbl":"3015890058","zipcode":"11206","agency":"Housing Preservation and Development","agencyshort":"HPD","sqft":"2500","acres":"0.057392","vacant":"TRUE"}},{"type":"Feature","geometry":{"type":"Point","coordinates":[-73.92792055,40.68080977]},"properties":{"address":"        CHAUNCEY STREET","borough":"Brooklyn","bbl":"3016870080","zipcode":"11233","agency":"Housing Preservation and Development","agencyshort":"HPD","sqft":"2500","acres":"0.057392","vacant":"TRUE"}},{"type":"Feature","geometry":{"type":"Point","coordinates":[-73.94700233,40.70107929]},"properties":{"address":"39 BARTLETT STREET","borough":"Brooklyn","bbl":"3022690048","zipcode":"11206","agency":"Housing Preservation and Development","agencyshort":"HPD","sqft":"2500","acres":"0.057392","vacant":"TRUE"}},{"type":"Feature","geometry":{"type":"Point","coordinates":[-73.94661955,40.70169119]},"properties":{"address":"86 GERRY STREET","borough":"Brooklyn","bbl":"3022690023","zipcode":"11206","agency":"Housing Preservation and Development","agencyshort":"HPD","sqft":"2500","acres":"0.057392","vacant":"TRUE"}},{"type":"Feature","geometry":{"type":"Point","coordinates":[-73.91998783,40.66646032]},"properties":{"address":"638 HOWARD AVENUE","borough":"Brooklyn","bbl":"3035110064","zipcode":"11212","agency":"Housing Preservation and Development","agencyshort":"HPD","sqft":"2500","acres":"0.057392","vacant":"TRUE"}},{"type":"Feature","geometry":{"type":"Point","coordinates":[-73.90557378,40.67345681]},"properties":{"address":"191 SACKMAN STREET","borough":"Brooklyn","bbl":"3036770001","zipcode":"11212","agency":"Housing Preservation and Development","agencyshort":"HPD","sqft":"2500","acres":"0.057392","vacant":"TRUE"}},{"type":"Feature","geometry":{"type":"Point","coordinates":[-73.94687887,40.70213322]},"properties":{"address":"99 GERRY STREET","borough":"Brooklyn","bbl":"3022660036","zipcode":"11206","agency":"Housing Preservation and Development","agencyshort":"HPD","sqft":"2500","acres":"0.057392","vacant":"TRUE"}},{"type":"Feature","geometry":{"type":"Point","coordinates":[-73.89766864,40.65892742]},"properties":{"address":"642 HINSDALE STREET","borough":"Brooklyn","bbl":"3038660041","zipcode":"11207","agency":"Housing Preservation and Development","agencyshort":"HPD","sqft":"2500","acres":"0.057392","vacant":"TRUE"}},{"type":"Feature","geometry":{"type":"Point","coordinates":[-73.90703982,40.67173429]},"properties":{"address":"        MOTHER GASTON BLVD","borough":"Brooklyn","bbl":"3036920002","zipcode":"11212","agency":"Housing Preservation and Development","agencyshort":"HPD","sqft":"2500","acres":"0.057392","vacant":"TRUE"}},{"type":"Feature","geometry":{"type":"Point","coordinates":[-73.90702189,40.67166291]},"properties":{"address":"        MOTHER GASTON BLVD","borough":"Brooklyn","bbl":"3036920001","zipcode":"11212","agency":"Housing Preservation and Development","agencyshort":"HPD","sqft":"2500","acres":"0.057392","vacant":"TRUE"}},{"type":"Feature","geometry":{"type":"Point","coordinates":[-73.90890339,40.66130562]},"properties":{"address":"758 ROCKAWAY AVENUE","borough":"Brooklyn","bbl":"3035890048","zipcode":"11212","agency":"Housing Preservation and Development","agencyshort":"HPD","sqft":"2500","acres":"0.057392","vacant":"TRUE"}},{"type":"Feature","geometry":{"type":"Point","coordinates":[-73.94706728,40.70103814]},"properties":{"address":"37 BARTLETT STREET","borough":"Brooklyn","bbl":"3022690049","zipcode":"11206","agency":"Housing Preservation and Development","agencyshort":"HPD","sqft":"2500","acres":"0.057392","vacant":"TRUE"}},{"type":"Feature","geometry":{"type":"Point","coordinates":[-73.94696595,40.70146628]},"properties":{"address":"76 GERRY STREET","borough":"Brooklyn","bbl":"3022690018","zipcode":"11206","agency":"Housing Preservation and Development","agencyshort":"HPD","sqft":"2500","acres":"0.057392","vacant":"TRUE"}},{"type":"Feature","geometry":{"type":"Point","coordinates":[-73.88872137,40.66850389]},"properties":{"address":"806 BLAKE AVENUE","borough":"Brooklyn","bbl":"3040580018","zipcode":"11207","agency":"Housing Preservation and Development","agencyshort":"HPD","sqft":"2500","acres":"0.057392","vacant":"TRUE"}},{"type":"Feature","geometry":{"type":"Point","coordinates":[-73.89206201,40.67355198]},"properties":{"address":"492 GLENMORE AVENUE","borough":"Brooklyn","bbl":"3037250012","zipcode":"11207","agency":"Housing Preservation and Development","agencyshort":"HPD","sqft":"2500","acres":"0.057392","vacant":"TRUE"}},{"type":"Feature","geometry":{"type":"Point","coordinates":[-73.90779316,40.66136786]},"properties":{"address":"        RIVERDALE AVENUE","borough":"Brooklyn","bbl":"3035900040","zipcode":"11212","agency":"Housing Preservation and Development","agencyshort":"HPD","sqft":"2500","acres":"0.057392","vacant":"TRUE"}},{"type":"Feature","geometry":{"type":"Point","coordinates":[-73.94693737,40.70112317]},"properties":{"address":"41 BARTLETT STREET","borough":"Brooklyn","bbl":"3022690047","zipcode":"11206","agency":"Housing Preservation and Development","agencyshort":"HPD","sqft":"2500","acres":"0.057392","vacant":"TRUE"}},{"type":"Feature","geometry":{"type":"Point","coordinates":[-73.90559171,40.67352545]},"properties":{"address":"189 SACKMAN STREET","borough":"Brooklyn","bbl":"3036770002","zipcode":"11212","agency":"Housing Preservation and Development","agencyshort":"HPD","sqft":"2500","acres":"0.057392","vacant":"TRUE"}},{"type":"Feature","geometry":{"type":"Point","coordinates":[-73.88196617,40.67251826]},"properties":{"address":"533 LINWOOD STREET","borough":"Brooklyn","bbl":"3040350115","zipcode":"11208","agency":"Housing Preservation and Development","agencyshort":"HPD","sqft":"2500","acres":"0.057392","vacant":"TRUE"}},{"type":"Feature","geometry":{"type":"Point","coordinates":[-73.8947491,40.67269809]},"properties":{"address":"283 NEW JERSEY AVENUE","borough":"Brooklyn","bbl":"3037220004","zipcode":"11207","agency":"Housing Preservation and Development","agencyshort":"HPD","sqft":"2500","acres":"0.057392","vacant":"TRUE"}},{"type":"Feature","geometry":{"type":"Point","coordinates":[-73.902726,40.6578895]},"properties":{"address":"569 CHRISTOPHER AVENUE","borough":"Brooklyn","bbl":"3038560005","zipcode":"11212","agency":"Housing Preservation and Development","agencyshort":"HPD","sqft":"2500","acres":"0.057392","vacant":"TRUE"}},{"type":"Feature","geometry":{"type":"Point","coordinates":[-73.90655661,40.67184094]},"properties":{"address":"117 GLENMORE AVENUE","borough":"Brooklyn","bbl":"3036920034","zipcode":"11212","agency":"Housing Preservation and Development","agencyshort":"HPD","sqft":"2500","acres":"0.057392","vacant":"TRUE"}},{"type":"Feature","geometry":{"type":"Point","coordinates":[-73.94759665,40.70203474]},"properties":{"address":"384 WALLABOUT STREET","borough":"Brooklyn","bbl":"3022660018","zipcode":"11206","agency":"Housing Preservation and Development","agencyshort":"HPD","sqft":"2500","acres":"0.057392","vacant":"TRUE"}},{"type":"Feature","geometry":{"type":"Point","coordinates":[-73.88981525,40.67187279]},"properties":{"address":"329 VAN SICLEN AVENUE","borough":"Brooklyn","bbl":"3040100006","zipcode":"11207","agency":"Housing Preservation and Development","agencyshort":"HPD","sqft":"2500","acres":"0.057392","vacant":"TRUE"}},{"type":"Feature","geometry":{"type":"Point","coordinates":[-73.90705775,40.67180292]},"properties":{"address":"        MOTHER GASTON BLVD","borough":"Brooklyn","bbl":"3036920003","zipcode":"11212","agency":"Housing Preservation and Development","agencyshort":"HPD","sqft":"2500","acres":"0.057392","vacant":"TRUE"}},{"type":"Feature","geometry":{"type":"Point","coordinates":[-73.89473118,40.6726322]},"properties":{"address":"287 NEW JERSEY AVENUE","borough":"Brooklyn","bbl":"3037220003","zipcode":"11207","agency":"Housing Preservation and Development","agencyshort":"HPD","sqft":"2500","acres":"0.057392","vacant":"TRUE"}},{"type":"Feature","geometry":{"type":"Point","coordinates":[-73.904819,40.663019]},"properties":{"address":"643 MOTHER GASTON BLVD","borough":"Brooklyn","bbl":"3038110021","zipcode":"11212","agency":"Housing Preservation and Development","agencyshort":"HPD","sqft":"2500","acres":"0.057392","vacant":"TRUE"}},{"type":"Feature","geometry":{"type":"Point","coordinates":[-73.94188185,40.7043376]},"properties":{"address":"112 SEIGEL STREET","borough":"Brooklyn","bbl":"3030970013","zipcode":"11206","agency":"Housing Preservation and Development","agencyshort":"HPD","sqft":"2500","acres":"0.057392","vacant":"TRUE"}},{"type":"Feature","geometry":{"type":"Point","coordinates":[-73.90560964,40.67359134]},"properties":{"address":"        SACKMAN STREET","borough":"Brooklyn","bbl":"3036770003","zipcode":"11212","agency":"Housing Preservation and Development","agencyshort":"HPD","sqft":"2500","acres":"0.057392","vacant":"TRUE"}},{"type":"Feature","geometry":{"type":"Point","coordinates":[-73.90721552,40.67240964]},"properties":{"address":"281 MOTHER GASTON BLVD","borough":"Brooklyn","bbl":"3036920012","zipcode":"11212","agency":"Housing Preservation and Development","agencyshort":"HPD","sqft":"2500","acres":"0.057392","vacant":"TRUE"}},{"type":"Feature","geometry":{"type":"Point","coordinates":[-73.91057346,40.66037096]},"properties":{"address":"        BRISTOL STREET","borough":"Brooklyn","bbl":"3036000035","zipcode":"11212","agency":"Housing Preservation and Development","agencyshort":"HPD","sqft":"2500","acres":"0.057392","vacant":"TRUE"}},{"type":"Feature","geometry":{"type":"Point","coordinates":[-73.89903811,40.66377866]},"properties":{"address":"        LIVONIA AVENUE","borough":"Brooklyn","bbl":"3038170020","zipcode":"11207","agency":"Housing Preservation and Development","agencyshort":"HPD","sqft":"2500","acres":"0.057392","vacant":"TRUE"}},{"type":"Feature","geometry":{"type":"Point","coordinates":[-73.91191949,40.67096405]},"properties":{"address":"31 CHESTER STREET","borough":"Brooklyn","bbl":"3034990020","zipcode":"11212","agency":"Housing Preservation and Development","agencyshort":"HPD","sqft":"2500","acres":"0.057392","vacant":"TRUE"}},{"type":"Feature","geometry":{"type":"Point","coordinates":[-73.94703451,40.7014224]},"properties":{"address":"74 GERRY STREET","borough":"Brooklyn","bbl":"3022690017","zipcode":"11206","agency":"Housing Preservation and Development","agencyshort":"HPD","sqft":"2500","acres":"0.057392","vacant":"TRUE"}},{"type":"Feature","geometry":{"type":"Point","coordinates":[-73.91662325,40.66473696]},"properties":{"address":"658 SARATOGA AVENUE","borough":"Brooklyn","bbl":"3035360051","zipcode":"11212","agency":"Housing Preservation and Development","agencyshort":"HPD","sqft":"2500","acres":"0.057392","vacant":"TRUE"}},{"type":"Feature","geometry":{"type":"Point","coordinates":[-73.90886968,40.66117009]},"properties":{"address":"        ROCKAWAY AVENUE","borough":"Brooklyn","bbl":"3035890050","zipcode":"11212","agency":"Housing Preservation and Development","agencyshort":"HPD","sqft":"2500","acres":"0.057392","vacant":"TRUE"}},{"type":"Feature","geometry":{"type":"Point","coordinates":[-74.00440231,40.68215249]},"properties":{"address":"294 COLUMBIA STREET","borough":"Brooklyn","bbl":"3003570036","zipcode":"11231","agency":"Housing Preservation and Development","agencyshort":"HPD","sqft":"2500","acres":"0.057392","vacant":"TRUE"}},{"type":"Feature","geometry":{"type":"Point","coordinates":[-73.94705648,40.81000179]},"properties":{"address":"2139 7 AVENUE","borough":"Manhattan","bbl":"1019110061","zipcode":"10027","agency":"Housing Preservation and Development","agencyshort":"HPD","sqft":"2500","acres":"0.057392","vacant":"TRUE"}},{"type":"Feature","geometry":{"type":"Point","coordinates":[-73.94100091,40.82353856]},"properties":{"address":"2752 8 AVENUE","borough":"Manhattan","bbl":"1020320002","zipcode":"10039","agency":"Housing Preservation and Development","agencyshort":"HPD","sqft":"2500","acres":"0.057392","vacant":"TRUE"}},{"type":"Feature","geometry":{"type":"Point","coordinates":[-73.90851638,40.82260063]},"properties":{"address":"00901 EAGLE AVENUE","borough":"Bronx","bbl":"2026200046","zipcode":"10456","agency":"Housing Preservation and Development","agencyshort":"HPD","sqft":"2500","acres":"0.057392","vacant":"TRUE"}},{"type":"Feature","geometry":{"type":"Point","coordinates":[-73.89012281,40.83101771]},"properties":{"address":"HOE AVE","borough":"Bronx","bbl":"2029870014","zipcode":"","agency":"Housing Preservation and Development","agencyshort":"HPD","sqft":"2500","acres":"0.057392","vacant":"TRUE"}},{"type":"Feature","geometry":{"type":"Point","coordinates":[-73.90608275,40.85731102]},"properties":{"address":"30 WEST 182 STREET","borough":"Bronx","bbl":"2031950021","zipcode":"10453","agency":"Housing Preservation and Development","agencyshort":"HPD","sqft":"2500","acres":"0.057392","vacant":"TRUE"}},{"type":"Feature","geometry":{"type":"Point","coordinates":[-73.84597598,40.88089751]},"properties":{"address":"1234 EAST 223 STREET","borough":"Bronx","bbl":"2048970063","zipcode":"10466","agency":"Housing Preservation and Development","agencyshort":"HPD","sqft":"2500","acres":"0.057392","vacant":"TRUE"}},{"type":"Feature","geometry":{"type":"Point","coordinates":[-73.80284674,40.69606438]},"properties":{"address":"14726 105 AVENUE","borough":"Queens","bbl":"4100590010","zipcode":"11435","agency":"Housing Preservation and Development","agencyshort":"HPD","sqft":"2500","acres":"0.057392","vacant":"TRUE"}},{"type":"Feature","geometry":{"type":"Point","coordinates":[-73.77501193,40.60006963]},"properties":{"address":"536 BEACH 43 STREET","borough":"Queens","bbl":"4159610078","zipcode":"11691","agency":"Housing Preservation and Development","agencyshort":"HPD","sqft":"2500","acres":"0.057392","vacant":"TRUE"}},{"type":"Feature","geometry":{"type":"Point","coordinates":[-73.775069,40.60057428]},"properties":{"address":"552 BEACH 43 STREET","borough":"Queens","bbl":"4159610087","zipcode":"11691","agency":"Housing Preservation and Development","agencyshort":"HPD","sqft":"2500","acres":"0.057392","vacant":"TRUE"}},{"type":"Feature","geometry":{"type":"Point","coordinates":[-73.9062547,40.66863754]},"properties":{"address":"425 MOTHER GASTON BLVD","borough":"Brooklyn","bbl":"3037430012","zipcode":"11212","agency":"Housing Preservation and Development","agencyshort":"HPD","sqft":"2500","acres":"0.057392","vacant":"TRUE"}},{"type":"Feature","geometry":{"type":"Point","coordinates":[-74.00634233,40.6850948]},"properties":{"address":"22 UNION STREET","borough":"Brooklyn","bbl":"3003400019","zipcode":"11231","agency":"Department of Small Business Services","agencyshort":"SBS","sqft":"2500","acres":"0.057392","vacant":"TRUE"}}]}